{
"type": "FeatureCollection",
"name": "Dendro",
"crs": { "type": "name", "properties": { "name": "urn:ogc:def:crs:EPSG::28992" } },
"features": [
{ "type": "Feature", "properties": { "X": 136855.451680825, "Y": 455600.061571898, "Adres": "Abraham Dolekapel", "Onderdeel": "Schip", "Datering": "1477-01-01", "Bron": "RING juni 2001", "Houtsoort": "Eiken", "Herkomst": "NLhist_2", "Opmerking": "Abraham Dolekapel" }, "geometry": { "type": "Point", "coordinates": [ 136855.451680825004587, 455600.061571897997055 ] } },
{ "type": "Feature", "properties": { "X": 136865.651330753, "Y": 455604.45412186702, "Adres": "Abraham Dolekapel", "Onderdeel": "Koor", "Datering": "1471-01-01", "Bron": "RING juni 2001", "Houtsoort": "Eiken", "Herkomst": "NLhist_2 / Niedersachsen, Mittelniederländisches tiefland", "Opmerking": "Abraham Dolekapel" }, "geometry": { "type": "Point", "coordinates": [ 136865.651330752996728, 455604.454121867020149 ] } },
{ "type": "Feature", "properties": { "X": 136412.60964246199, "Y": 455843.754225493, "Adres": "Achter Clarenburg 2", "Onderdeel": "Moerbalk verdiepingsvloer", "Datering": "1378-01-01", "Bron": "RING april 1994", "Houtsoort": "Eiken", "Herkomst": "Ned./ westfalen / Weserbergland", "Opmerking": null }, "geometry": { "type": "Point", "coordinates": [ 136412.609642461990006, 455843.754225493001286 ] } },
{ "type": "Feature", "properties": { "X": 136898.68499003601, "Y": 455824.60629457701, "Adres": "Achter de Dom 7", "Onderdeel": null, "Datering": "2025-01-06", "Bron": "RING nov 1998", "Houtsoort": null, "Herkomst": null, "Opmerking": null }, "geometry": { "type": "Point", "coordinates": [ 136898.684990036010277, 455824.606294577009976 ] } },
{ "type": "Feature", "properties": { "X": 136895.51019950799, "Y": 455882.56211480103, "Adres": "Achter de Dom 14E", "Onderdeel": "Kapspant", "Datering": "1389-01-01", "Bron": "Borghaerts Houtdatering jan 2024", "Houtsoort": "Eiken", "Herkomst": "West-Duitsland", "Opmerking": null }, "geometry": { "type": "Point", "coordinates": [ 136895.510199507989455, 455882.562114801025018 ] } },
{ "type": "Feature", "properties": { "X": 136621.09040498201, "Y": 455749.27679078397, "Adres": "Boterstraat 20", "Onderdeel": "Verbouwing kap", "Datering": "1555-01-01", "Bron": "Mededeling Kroniek / RING 1988", "Houtsoort": "Eiken", "Herkomst": "Maasgebied (Luik)? Via co-pilot", "Opmerking": "+/- 5 jaar" }, "geometry": { "type": "Point", "coordinates": [ 136621.090404982009204, 455749.276790783973411 ] } },
{ "type": "Feature", "properties": { "X": 136622.01370747, "Y": 455846.34217016201, "Adres": "Buurkerk Toren", "Onderdeel": "Verdieping 1", "Datering": "1405-01-01", "Bron": "RING juli 2001", "Houtsoort": "Eiken", "Herkomst": "Twente / westfalen", "Opmerking": "Buurkerk Toren" }, "geometry": { "type": "Point", "coordinates": [ 136622.013707470003283, 455846.342170162010007 ] } },
{ "type": "Feature", "properties": { "X": 136622.237057469, "Y": 455840.53507020301, "Adres": "Buurkerk Toren", "Onderdeel": "Bloktrap niveau 3", "Datering": "1356-01-01", "Bron": "RING juli 2001", "Houtsoort": null, "Herkomst": "Twente / westfalen", "Opmerking": "Buurkerk Toren" }, "geometry": { "type": "Point", "coordinates": [ 136622.23705746899941, 455840.535070203011855 ] } },
{ "type": "Feature", "properties": { "X": 136617.062782505, "Y": 455843.69919517997, "Adres": "Buurkerk Toren", "Onderdeel": "Achtkant", "Datering": "1405-01-01", "Bron": "RING juli 2001", "Houtsoort": "Eiken", "Herkomst": "Twente / westfalen", "Opmerking": "Buurkerk Toren" }, "geometry": { "type": "Point", "coordinates": [ 136617.06278250500327, 455843.699195179971866 ] } },
{ "type": "Feature", "properties": { "X": 136613.97310752701, "Y": 455838.59937021602, "Adres": "Buurkerk Toren", "Onderdeel": "1e klokkenstoel", "Datering": "1532-01-01", "Bron": "RING juli 2001", "Houtsoort": "Eiken", "Herkomst": "NLhist_2", "Opmerking": "Buurkerk Toren" }, "geometry": { "type": "Point", "coordinates": [ 136613.973107527010143, 455838.599370216019452 ] } },
{ "type": "Feature", "properties": { "X": 136610.62285755001, "Y": 455843.66197018098, "Adres": "Buurkerk Toren", "Onderdeel": "2e klokkenstoel", "Datering": "1475-01-01", "Bron": "RING juli 2001", "Houtsoort": "Eiken", "Herkomst": "NLhist_2", "Opmerking": "Buurkerk Toren" }, "geometry": { "type": "Point", "coordinates": [ 136610.622857550013578, 455843.661970180983189 ] } },
{ "type": "Feature", "properties": { "X": 136623.35380746101, "Y": 455836.58922023099, "Adres": "Buurkerk Toren", "Onderdeel": "Ondersteuning 2e klokkenstoel", "Datering": "1705-01-01", "Bron": "RING juli 2001", "Houtsoort": "Eiken", "Herkomst": "Centraal / Zuid Duitsland", "Opmerking": "Buurkerk Toren" }, "geometry": { "type": "Point", "coordinates": [ 136623.353807461011456, 455836.589220230991486 ] } },
{ "type": "Feature", "properties": { "X": 136612.409657538, "Y": 455833.76012025098, "Adres": "Buurkerk Toren", "Onderdeel": "3e klokkenstoel", "Datering": "1676-01-01", "Bron": "RING juli 2001", "Houtsoort": "Eiken", "Herkomst": "Twente / westfalen", "Opmerking": "Buurkerk Toren" }, "geometry": { "type": "Point", "coordinates": [ 136612.409657537995372, 455833.760120250983164 ] } },
{ "type": "Feature", "properties": { "X": 136618.92403249201, "Y": 455839.26942021202, "Adres": "Buurkerk Toren", "Onderdeel": "Koepeltje", "Datering": "1672-01-01", "Bron": "RING juli 2001", "Houtsoort": "Eiken", "Herkomst": "NLhist_2", "Opmerking": "Buurkerk Toren" }, "geometry": { "type": "Point", "coordinates": [ 136618.924032492010156, 455839.269420212018304 ] } },
{ "type": "Feature", "properties": { "X": 136989.089429883, "Y": 455516.97537248302, "Adres": "Catharinakerk ", "Onderdeel": "Koor", "Datering": "1518-01-01", "Bron": "RING mei 2001", "Houtsoort": "Eiken", "Herkomst": "NLhist_2", "Opmerking": "Catharinakerk " }, "geometry": { "type": "Point", "coordinates": [ 136989.089429882995319, 455516.975372483022511 ] } },
{ "type": "Feature", "properties": { "X": 136981.42107993699, "Y": 455513.10397251003, "Adres": "Catharinakerk ", "Onderdeel": "Viering / koor", "Datering": "1518-01-01", "Bron": "RING mei 2001", "Houtsoort": "Eiken", "Herkomst": "NLhist_2", "Opmerking": "Catharinakerk " }, "geometry": { "type": "Point", "coordinates": [ 136981.421079936990282, 455513.103972510027234 ] } },
{ "type": "Feature", "properties": { "X": 136978.443079958, "Y": 455504.46777257102, "Adres": "Catharinakerk ", "Onderdeel": "Transept", "Datering": "1518-01-01", "Bron": "RING mei 2001", "Houtsoort": "Eiken", "Herkomst": "NLhist_2", "Opmerking": "Catharinakerk " }, "geometry": { "type": "Point", "coordinates": [ 136978.443079958000453, 455504.46777257102076 ] } },
{ "type": "Feature", "properties": { "X": 136956.77813011099, "Y": 455501.63867259101, "Adres": "Catharinakerk ", "Onderdeel": "Schip", "Datering": "1547-01-01", "Bron": "RING mei 2001", "Houtsoort": "Eiken", "Herkomst": "NLhist_2", "Opmerking": "Catharinakerk " }, "geometry": { "type": "Point", "coordinates": [ 136956.778130110993516, 455501.638672591012437 ] } },
{ "type": "Feature", "properties": { "X": 136862.33830577601, "Y": 455883.26936990197, "Adres": "Domkerk", "Onderdeel": "Kap koor", "Datering": "1386-01-01", "Bron": "KNOB Bull nr. 5 1990", "Houtsoort": "Eiken", "Herkomst": null, "Opmerking": null }, "geometry": { "type": "Point", "coordinates": [ 136862.338305776007473, 455883.269369901972823 ] } },
{ "type": "Feature", "properties": { "X": 136845.512605895, "Y": 455858.40307007701, "Adres": "Domkerk", "Onderdeel": "Transept zuid", "Datering": "1477-01-01", "Bron": "KNOB Bull nr. 5 1990", "Houtsoort": "Eiken", "Herkomst": null, "Opmerking": null }, "geometry": { "type": "Point", "coordinates": [ 136845.51260589499725, 455858.403070077009033 ] } },
{ "type": "Feature", "properties": { "X": 136840.30110593201, "Y": 455875.97326995298, "Adres": "Domkerk", "Onderdeel": "Vieringtoren", "Datering": "1478-01-01", "Bron": "KNOB Bull nr. 5 1990", "Houtsoort": "Eiken", "Herkomst": null, "Opmerking": null }, "geometry": { "type": "Point", "coordinates": [ 136840.301105932012433, 455875.973269952984992 ] } },
{ "type": "Feature", "properties": { "X": 136835.834105963, "Y": 455887.438569872, "Adres": "Domkerk", "Onderdeel": "Verbouwing viering kap", "Datering": "1717-01-01", "Bron": "KNOB Bull nr. 5 1990", "Houtsoort": "Eiken", "Herkomst": null, "Opmerking": null }, "geometry": { "type": "Point", "coordinates": [ 136835.834105963003822, 455887.438569871999789 ] } },
{ "type": "Feature", "properties": { "X": 136566.43603267299, "Y": 455838.76515795302, "Adres": "Donkerstraat 13", "Onderdeel": "Kap", "Datering": "1464-01-01", "Bron": "Mededeling Kroniek / RING 1993", "Houtsoort": "Eiken", "Herkomst": null, "Opmerking": null }, "geometry": { "type": "Point", "coordinates": [ 136566.43603267299477, 455838.765157953021117 ] } },
{ "type": "Feature", "properties": { "X": 136916.91015539199, "Y": 456089.68199344701, "Adres": "Drift 1", "Onderdeel": "Kap achterhuis", "Datering": "1338-01-01", "Bron": "Borghaerts Houtdatering juni 2024", "Houtsoort": "Eiken", "Herkomst": "Oost Nederland", "Opmerking": "na 1338" }, "geometry": { "type": "Point", "coordinates": [ 136916.910155391989974, 456089.681993447011337 ] } },
{ "type": "Feature", "properties": { "X": 136916.42623039501, "Y": 456084.84274348099, "Adres": "Drift 1", "Onderdeel": "Balklaag zolder achterhuis", "Datering": "1362-01-01", "Bron": "Borghaerts Houtdatering juni 2024", "Houtsoort": "Eiken", "Herkomst": "Oost Nederland", "Opmerking": null }, "geometry": { "type": "Point", "coordinates": [ 136916.426230395009043, 456084.842743480985519 ] } },
{ "type": "Feature", "properties": { "X": 136910.135205439, "Y": 456090.91041843803, "Adres": "Drift 1", "Onderdeel": "Zolder balklaag voorhuis links", "Datering": "1668-01-01", "Bron": "Borghaerts Houtdatering juni 2024", "Houtsoort": "Grenen", "Herkomst": "Noorwegen, omg. Kristiansand", "Opmerking": null }, "geometry": { "type": "Point", "coordinates": [ 136910.135205439000856, 456090.910418438026682 ] } },
{ "type": "Feature", "properties": { "X": 136909.502380444, "Y": 456084.84274348099, "Adres": "Drift 1", "Onderdeel": "Verdiepingsbalklaag voorhuis rechts", "Datering": "1627-01-01", "Bron": "Borghaerts Houtdatering juni 2024", "Houtsoort": "Grenen", "Herkomst": "Zuid Noorwegen", "Opmerking": "na 1627" }, "geometry": { "type": "Point", "coordinates": [ 136909.502380443998845, 456084.842743480985519 ] } },
{ "type": "Feature", "properties": { "X": 136592.27093268, "Y": 455561.049772172, "Adres": "Duitse Huis ", "Onderdeel": "Kap zaalgebouw", "Datering": "1347-01-01", "Bron": "RING jan 2008 en artikel", "Houtsoort": "Eiken", "Herkomst": "NL-Westfalen", "Opmerking": null }, "geometry": { "type": "Point", "coordinates": [ 136592.270932679995894, 455561.049772172002122 ] } },
{ "type": "Feature", "properties": { "X": 136591.15418268801, "Y": 455546.38312227599, "Adres": "Duitse Huis ", "Onderdeel": "Aanbouw zuid", "Datering": "1557-01-01", "Bron": "RING jan 2008 en artikel", "Houtsoort": "Eiken", "Herkomst": "NLhist_1", "Opmerking": null }, "geometry": { "type": "Point", "coordinates": [ 136591.154182688012952, 455546.3831222759909 ] } },
{ "type": "Feature", "properties": { "X": 136617.16174213501, "Y": 456012.35482255497, "Adres": "Ganzenmarkt 2", "Onderdeel": "-0", "Datering": "1586-01-01", "Bron": "dr. B. Heussner", "Houtsoort": "Eiken", "Herkomst": "Denemarken", "Opmerking": null }, "geometry": { "type": "Point", "coordinates": [ 136617.161742135009263, 456012.354822554974817 ] } },
{ "type": "Feature", "properties": { "X": 136612.67023253601, "Y": 456008.940969016, "Adres": "Ganzenmarkt 2", "Onderdeel": "-0", "Datering": "1654-01-01", "Bron": "dr. B. Heussner", "Houtsoort": "Dennen", "Herkomst": "Zuid Zweden", "Opmerking": null }, "geometry": { "type": "Point", "coordinates": [ 136612.67023253600928, 456008.940969015995506 ] } },
{ "type": "Feature", "properties": { "X": 136661.454922915, "Y": 456053.61359983101, "Adres": "Ganzenmarkt 22", "Onderdeel": "Puibalk", "Datering": "1661-01-01", "Bron": "KNOB Bull nr. 1 1992 / RING 1991", "Houtsoort": "Eiken", "Herkomst": "WD400STD", "Opmerking": null }, "geometry": { "type": "Point", "coordinates": [ 136661.45492291499977, 456053.613599831005558 ] } },
{ "type": "Feature", "properties": { "X": 136668.97363180999, "Y": 456057.56901836401, "Adres": "Ganzenmarkt 24", "Onderdeel": "Vloer 2de verdieping", "Datering": "1301-01-01", "Bron": "KNOB Bull nr. 1 1992", "Houtsoort": "Dennen", "Herkomst": null, "Opmerking": "na 1301" }, "geometry": { "type": "Point", "coordinates": [ 136668.973631809989456, 456057.569018364010844 ] } },
{ "type": "Feature", "properties": { "X": 136799.32082244201, "Y": 455201.30022839701, "Adres": "Geertestraat 14-16", "Onderdeel": "Gebintbalk", "Datering": "1550-01-01", "Bron": "KNOB Bull nr. 5 1990", "Houtsoort": "Eiken", "Herkomst": null, "Opmerking": "+/- 6 jaar" }, "geometry": { "type": "Point", "coordinates": [ 136799.320822442008648, 455201.300228397012688 ] } },
{ "type": "Feature", "properties": { "X": 136945.55934065901, "Y": 455657.50139890402, "Adres": "Hamburgerstraat 40", "Onderdeel": "Kap", "Datering": "1519-01-01", "Bron": "RING juli 2010", "Houtsoort": null, "Herkomst": "Oost Nederland / West Duitsland", "Opmerking": null }, "geometry": { "type": "Point", "coordinates": [ 136945.559340659005102, 455657.501398904016241 ] } },
{ "type": "Feature", "properties": { "X": 136677.66311568799, "Y": 455567.82550149801, "Adres": "Haverstraat 30", "Onderdeel": "", "Datering": "2025-01-06", "Bron": "RING 1998", "Houtsoort": null, "Herkomst": null, "Opmerking": null }, "geometry": { "type": "Point", "coordinates": [ 136677.663115687988466, 455567.825501498009544 ] } },
{ "type": "Feature", "properties": { "X": 137122.85761250099, "Y": 455749.51891209598, "Adres": "Herenstraat 38", "Onderdeel": "", "Datering": "2025-01-30", "Bron": null, "Houtsoort": null, "Herkomst": null, "Opmerking": null }, "geometry": { "type": "Point", "coordinates": [ 137122.857612500985852, 455749.518912095983978 ] } },
{ "type": "Feature", "properties": { "X": 136490.85128331801, "Y": 456340.38414137601, "Adres": "Jacobijnenstraat 2", "Onderdeel": "Kap", "Datering": "1510-01-01", "Bron": "RING 1989", "Houtsoort": null, "Herkomst": null, "Opmerking": null }, "geometry": { "type": "Point", "coordinates": [ 136490.851283318013884, 456340.384141376009211 ] } },
{ "type": "Feature", "properties": { "X": 136804.08118118701, "Y": 456150.24706801999, "Adres": "Janskerk", "Onderdeel": "Schip", "Datering": "1279-01-01", "Bron": "RING en Borghaerts mei 2024", "Houtsoort": "Eiken", "Herkomst": "West Duitsland", "Opmerking": null }, "geometry": { "type": "Point", "coordinates": [ 136804.081181187008042, 456150.247068019991275 ] } },
{ "type": "Feature", "properties": { "X": 136820.75798106901, "Y": 456146.59901804599, "Adres": "Janskerk", "Onderdeel": "Transepten", "Datering": "1277-01-01", "Bron": "RING en Borghaerts mei 2024", "Houtsoort": "Zilverspar", "Herkomst": "Zuid Duitsland", "Opmerking": null }, "geometry": { "type": "Point", "coordinates": [ 136820.757981069007656, 456146.599018045992125 ] } },
{ "type": "Feature", "properties": { "X": 136843.16743091101, "Y": 456162.90356793097, "Adres": "Janskerk", "Onderdeel": "Kap koor", "Datering": "1533-01-01", "Bron": "RING en Borghaerts mei 2024", "Houtsoort": "Eiken", "Herkomst": "Westfalen/Münsterland", "Opmerking": null }, "geometry": { "type": "Point", "coordinates": [ 136843.167430911009433, 456162.903567930974532 ] } },
{ "type": "Feature", "properties": { "X": 136831.85103099101, "Y": 456147.79021803697, "Adres": "Janskerk", "Onderdeel": "Kap zuid kapel", "Datering": "1516-01-01", "Bron": "RING en Borghaerts mei 2024", "Houtsoort": "Eiken", "Herkomst": "Westfalen/Münsterland", "Opmerking": null }, "geometry": { "type": "Point", "coordinates": [ 136831.851030991005246, 456147.790218036971055 ] } },
{ "type": "Feature", "properties": { "X": 137101.28557909199, "Y": 455799.40144549299, "Adres": "Jeruzalemstraat 8-10", "Onderdeel": "Kap", "Datering": "1525-01-01", "Bron": "KNOB Bull nr. 5 1990", "Houtsoort": null, "Herkomst": null, "Opmerking": "+/- 5 jaar" }, "geometry": { "type": "Point", "coordinates": [ 137101.28557909198571, 455799.401445492985658 ] } },
{ "type": "Feature", "properties": { "X": 137101.73227908899, "Y": 455804.46404545702, "Adres": "Jeruzalemstraat 8-10", "Onderdeel": "Traptoren", "Datering": "1572-01-01", "Bron": "KNOB Bull nr. 5 1990 / RING 1987", "Houtsoort": "Eiken", "Herkomst": "Rijnland en/of grensgebied Duitsland-Frankrijk", "Opmerking": "+/- 5 jaar" }, "geometry": { "type": "Point", "coordinates": [ 137101.732279088988435, 455804.464045457018074 ] } },
{ "type": "Feature", "properties": { "X": 136646.04660023999, "Y": 456129.11592985003, "Adres": "Kintgenshaven 4", "Onderdeel": "Kap", "Datering": "1469-01-01", "Bron": "RING juli 2002", "Houtsoort": "Eiken", "Herkomst": "NLhist_2", "Opmerking": null }, "geometry": { "type": "Point", "coordinates": [ 136646.046600239991676, 456129.115929850027896 ] } },
{ "type": "Feature", "properties": { "X": 136977.512046396, "Y": 456002.29196823703, "Adres": "Kromme Nieuwegracht 11", "Onderdeel": "Vloerbalk", "Datering": "1418-01-01", "Bron": "RING aug 2002", "Houtsoort": "Eiken", "Herkomst": "NLhist_2", "Opmerking": null }, "geometry": { "type": "Point", "coordinates": [ 136977.512046396004735, 456002.291968237026595 ] } },
{ "type": "Feature", "properties": { "X": 136877.48888066999, "Y": 455584.05482200999, "Adres": "Lange Nieuwstraat 9", "Onderdeel": "Kap", "Datering": "2025-01-06", "Bron": "RING 1993", "Houtsoort": null, "Herkomst": null, "Opmerking": null }, "geometry": { "type": "Point", "coordinates": [ 136877.488880669989157, 455584.054822009988129 ] } },
{ "type": "Feature", "properties": { "X": 136996.01327983401, "Y": 455483.69622271799, "Adres": "Lange Nieuwstraat 38", "Onderdeel": "Kap hoofdvleugel", "Datering": "1531-01-01", "Bron": "Pressler 2020", "Houtsoort": "Eiken", "Herkomst": "Münsterland", "Opmerking": "+/- 3 jaar" }, "geometry": { "type": "Point", "coordinates": [ 136996.013279834005516, 455483.696222717990167 ] } },
{ "type": "Feature", "properties": { "X": 136720.845596089, "Y": 455759.22328950802, "Adres": "Lijnmarkt 24", "Onderdeel": "Bovendorpel", "Datering": "1463-01-01", "Bron": "RING mei 2001", "Houtsoort": null, "Herkomst": "NLhist_2", "Opmerking": "+/- 5 jaar" }, "geometry": { "type": "Point", "coordinates": [ 136720.845596088998718, 455759.223289508023299 ] } },
{ "type": "Feature", "properties": { "X": 136850.53798086001, "Y": 455611.71299681498, "Adres": "Lutherse kerk", "Onderdeel": "Kap", "Datering": "1412-01-01", "Bron": "Documentatie ROB", "Houtsoort": null, "Herkomst": null, "Opmerking": "Kort na 1412?" }, "geometry": { "type": "Point", "coordinates": [ 136850.537980860011885, 455611.712996814982034 ] } },
{ "type": "Feature", "properties": { "X": 137049.05890445999, "Y": 454881.06070196501, "Adres": "Manenburg 1", "Onderdeel": "Kap", "Datering": "1553-01-01", "Bron": "RING dec 2001", "Houtsoort": "Eiken", "Herkomst": "Twente / Westfalen", "Opmerking": null }, "geometry": { "type": "Point", "coordinates": [ 137049.058904459991027, 454881.060701965005137 ] } },
{ "type": "Feature", "properties": { "X": 136525.02896939401, "Y": 455789.21875811799, "Adres": "Mariaplaats 9", "Onderdeel": "Vloerbalken", "Datering": "1477-01-01", "Bron": "RING 2010", "Houtsoort": "eiken", "Herkomst": null, "Opmerking": null }, "geometry": { "type": "Point", "coordinates": [ 136525.028969394013984, 455789.218758117989637 ] } },
{ "type": "Feature", "properties": { "X": 136461.97529207301, "Y": 455783.21148899401, "Adres": "Mariaplaats 14", "Onderdeel": "Vloerbalk", "Datering": "1470-01-01", "Bron": "RING nov 2002", "Houtsoort": "Eiken", "Herkomst": "Twente / Westfalen", "Opmerking": null }, "geometry": { "type": "Point", "coordinates": [ 136461.975292073009769, 455783.211488994013052 ] } },
{ "type": "Feature", "properties": { "X": 136390.49100052501, "Y": 455822.85320041998, "Adres": "Mariaplaats 22", "Onderdeel": "Spiltrap", "Datering": "1530-01-01", "Bron": "RING 1992 en artikel", "Houtsoort": "Eiken", "Herkomst": "Westfalen", "Opmerking": "na 1530" }, "geometry": { "type": "Point", "coordinates": [ 136390.491000525013078, 455822.853200419980567 ] } },
{ "type": "Feature", "properties": { "X": 136565.02989207199, "Y": 455727.41008040501, "Adres": "Mariaplaats 50", "Onderdeel": "Verdiepingsbalklaag", "Datering": "1323-01-01", "Bron": "RING sept 1998", "Houtsoort": "Zilverspar", "Herkomst": "MC1+4+5", "Opmerking": null }, "geometry": { "type": "Point", "coordinates": [ 136565.029892071994254, 455727.410080405010376 ] } },
{ "type": "Feature", "properties": { "X": 136511.39570547, "Y": 455820.12181964901, "Adres": "Mariastraat 28", "Onderdeel": "Kap", "Datering": "1464-01-01", "Bron": "Mededeling Kroniek / RING 1993", "Houtsoort": "Eiken", "Herkomst": null, "Opmerking": null }, "geometry": { "type": "Point", "coordinates": [ 136511.395705470000394, 455820.121819649008103 ] } },
{ "type": "Feature", "properties": { "X": 148675.61294791699, "Y": 469559.18042820698, "Adres": "Nicolaaskerk", "Onderdeel": "Schip", "Datering": "1338-01-01", "Bron": "RING 1995", "Houtsoort": null, "Herkomst": "NL_noord", "Opmerking": null }, "geometry": { "type": "Point", "coordinates": [ 148675.612947916990379, 469559.180428206978831 ] } },
{ "type": "Feature", "properties": { "X": 136794.924187781, "Y": 455860.16515417601, "Adres": "Nicolaaskerk", "Onderdeel": "Koor", "Datering": "1365-01-01", "Bron": "RING 1995", "Houtsoort": null, "Herkomst": "NL_midden", "Opmerking": null }, "geometry": { "type": "Point", "coordinates": [ 137071.120278048998443, 455029.391480309597682 ] } },
{ "type": "Feature", "properties": { "X": 136986.69322943201, "Y": 455704.3931471, "Adres": "Nieuwegracht 20", "Onderdeel": "Kap", "Datering": "1517-01-01", "Bron": "Mededeling Kroniek", "Houtsoort": "Eiken", "Herkomst": null, "Opmerking": null }, "geometry": { "type": "Point", "coordinates": [ 136986.69322943201405, 455704.393147099995986 ] } },
{ "type": "Feature", "properties": { "X": 136908.55694112999, "Y": 455167.24592210603, "Adres": "Oude Gracht 5", "Onderdeel": "Zolderbalklaag", "Datering": "1570-01-01", "Bron": "RING maart 2000", "Houtsoort": "Eiken", "Herkomst": "NLhist_2", "Opmerking": null }, "geometry": { "type": "Point", "coordinates": [ 136908.556941129994811, 455167.245922106027137 ] } },
{ "type": "Feature", "properties": { "X": 136470.24738354, "Y": 456396.97436628101, "Adres": "Oude Gracht 30", "Onderdeel": "Balk 1e verdieping", "Datering": "1314-01-01", "Bron": "RING maart 1996", "Houtsoort": "Eiken", "Herkomst": "NLhist_1", "Opmerking": null }, "geometry": { "type": "Point", "coordinates": [ 136470.247383540001465, 456396.974366281006951 ] } },
{ "type": "Feature", "properties": { "X": 136437.11713377299, "Y": 456299.035391971, "Adres": "Oude Gracht 55", "Onderdeel": "Sleutelstukken", "Datering": "1656-01-01", "Bron": "KNOB Bull nr. 5 1990", "Houtsoort": "Grenen", "Herkomst": null, "Opmerking": null }, "geometry": { "type": "Point", "coordinates": [ 136437.117133772990201, 456299.035391971003264 ] } },
{ "type": "Feature", "properties": { "X": 136436.105623968, "Y": 456296.45109736198, "Adres": "Oude Gracht 55", "Onderdeel": "Sleutelstukken", "Datering": "1659-01-01", "Bron": "KNOB Bull nr. 5 1990", "Houtsoort": "Grenen", "Herkomst": null, "Opmerking": null }, "geometry": { "type": "Point", "coordinates": [ 136436.105623968003783, 456296.451097361976281 ] } },
{ "type": "Feature", "properties": { "X": 136430.78888381799, "Y": 456255.07266728103, "Adres": "Oude Gracht 67", "Onderdeel": "Houten gevel verdieping", "Datering": "1540-01-01", "Bron": "RING 1988", "Houtsoort": "Eiken", "Herkomst": "Oost-Nederland/Duitsland", "Opmerking": "tussen 1540 en 1550" }, "geometry": { "type": "Point", "coordinates": [ 136430.788883817993337, 456255.072667281026952 ] } },
{ "type": "Feature", "properties": { "X": 136479.03248347799, "Y": 456231.69536744599, "Adres": "Oude Gracht 86", "Onderdeel": "Verdiepingsbalklaag", "Datering": "1307-01-01", "Bron": "Van Daalen dendrochronologie juni 2025", "Houtsoort": "Zilverspar", "Herkomst": "Frankrijk, Lotharingen", "Opmerking": null }, "geometry": { "type": "Point", "coordinates": [ 136479.032483477989445, 456231.695367445994634 ] } },
{ "type": "Feature", "properties": { "X": 136458.59895942299, "Y": 456089.26746083499, "Adres": "Oude Gracht 99", "Onderdeel": "Traptreden", "Datering": "1270-01-01", "Bron": "KNOB 1987", "Houtsoort": "Eiken", "Herkomst": null, "Opmerking": "na 1270" }, "geometry": { "type": "Point", "coordinates": [ 136458.598959422990447, 456089.267460834991653 ] } },
{ "type": "Feature", "properties": { "X": 136447.46568369999, "Y": 456090.53816843999, "Adres": "Oude Gracht 99", "Onderdeel": "Balklaag", "Datering": "1504-01-01", "Bron": "KNOB 1987", "Houtsoort": "Eiken", "Herkomst": null, "Opmerking": "+/-  6,5 jaar" }, "geometry": { "type": "Point", "coordinates": [ 136447.465683699992951, 456090.538168439990841 ] } },
{ "type": "Feature", "properties": { "X": 136460.71778360699, "Y": 456090.61261844001, "Adres": "Oude Gracht 99", "Onderdeel": "Herstelling balklaag", "Datering": "1578-01-01", "Bron": "KNOB 1987", "Houtsoort": "Eiken", "Herkomst": null, "Opmerking": null }, "geometry": { "type": "Point", "coordinates": [ 136460.717783606989542, 456090.612618440005463 ] } },
{ "type": "Feature", "properties": { "X": 136451.78378366999, "Y": 456087.48571846198, "Adres": "Oude Gracht 99", "Onderdeel": "Strijkbalk B.G.", "Datering": "2025-01-06", "Bron": "RING 1999", "Houtsoort": null, "Herkomst": null, "Opmerking": null }, "geometry": { "type": "Point", "coordinates": [ 136451.783783669990953, 456087.485718461975921 ] } },
{ "type": "Feature", "properties": { "X": 136450.741483677, "Y": 456033.84449384001, "Adres": "Oude Gracht 113", "Onderdeel": "Balk verdieping 1", "Datering": "1571-01-01", "Bron": "RING maart 2013", "Houtsoort": "Eiken", "Herkomst": "DENSA101", "Opmerking": null }, "geometry": { "type": "Point", "coordinates": [ 136450.741483677003998, 456033.84449384000618 ] } },
{ "type": "Feature", "properties": { "X": 136439.57398375601, "Y": 456036.37579382298, "Adres": "Oude Gracht 113", "Onderdeel": "Balken verdieping 2", "Datering": "1574-01-01", "Bron": "RING maart 2013", "Houtsoort": "Eiken", "Herkomst": "NLMIDD01", "Opmerking": null }, "geometry": { "type": "Point", "coordinates": [ 136439.573983756010421, 456036.375793822982814 ] } },
{ "type": "Feature", "properties": { "X": 136451.4883, "Y": 456028.9188, "Adres": "Oude Gracht 113", "Onderdeel": "Balken verdieping 2", "Datering": "1561-01-01", "Bron": "RING maart 2013", "Houtsoort": "Eiken", "Herkomst": "NLZUID01", "Opmerking": null }, "geometry": { "type": "Point", "coordinates": [ 136451.4883, 456028.918799999984913 ] } },
{ "type": "Feature", "properties": { "X": 136438.457233764, "Y": 456029.303043872, "Adres": "Oude Gracht 113", "Onderdeel": "Balken verdieping 2", "Datering": "1560-01-01", "Bron": "RING maart 2013", "Houtsoort": "Eiken", "Herkomst": "DENSA701", "Opmerking": null }, "geometry": { "type": "Point", "coordinates": [ 136438.457233763998374, 456029.303043872001581 ] } },
{ "type": "Feature", "properties": { "X": 136419.1746839, "Y": 456029.07969387399, "Adres": "Oude Gracht 113", "Onderdeel": "Kap achterhuis", "Datering": "1573-01-01", "Bron": "RING maart 2013", "Houtsoort": "Eiken", "Herkomst": "EUNLDE01", "Opmerking": null }, "geometry": { "type": "Point", "coordinates": [ 136419.174683899997035, 456029.079693873994984 ] } },
{ "type": "Feature", "properties": { "X": 136504.2710333, "Y": 456077.658318531, "Adres": "Oude Gracht 114", "Onderdeel": "Kap", "Datering": "1290-01-01", "Bron": "RING dec 1999", "Houtsoort": "Zilverspar", "Herkomst": "Zuid Duitsland", "Opmerking": null }, "geometry": { "type": "Point", "coordinates": [ 136504.271033299999544, 456077.658318531000987 ] } },
{ "type": "Feature", "properties": { "X": 136445.08328371699, "Y": 456000.56534407497, "Adres": "Oude Gracht 121", "Onderdeel": "Verdiepingsbalklaag", "Datering": "1314-01-01", "Bron": "Hans Tisje okt 2015", "Houtsoort": "Eiken", "Herkomst": "West Duitsland / Niederrhein", "Opmerking": null }, "geometry": { "type": "Point", "coordinates": [ 136445.083283716987353, 456000.565344074973837 ] } },
{ "type": "Feature", "properties": { "X": 136745.46748970999, "Y": 455679.98248475703, "Adres": "Oude Gracht 175", "Onderdeel": "Verdiepingsbalklaag", "Datering": "1309-01-01", "Bron": "RING 1998", "Houtsoort": "Zilverspar", "Herkomst": "Zuid Duitsland", "Opmerking": null }, "geometry": { "type": "Point", "coordinates": [ 136745.467489709990332, 455679.982484757027123 ] } },
{ "type": "Feature", "properties": { "X": 136749.31598925299, "Y": 455667.88552497001, "Adres": "Oude Gracht 179", "Onderdeel": "Korbeel houtskelet", "Datering": "1316-01-01", "Bron": "RING feb 2012", "Houtsoort": "Eiken", "Herkomst": "FRWEST01", "Opmerking": "+/- 2 jaar" }, "geometry": { "type": "Point", "coordinates": [ 136749.315989252994768, 455667.885524970013648 ] } },
{ "type": "Feature", "properties": { "X": 136754.50206194801, "Y": 455648.60738861898, "Adres": "Oude Gracht 187", "Onderdeel": "Kap", "Datering": "1314-01-01", "Bron": "RING 1998", "Houtsoort": "Zilverspar", "Herkomst": "Zuid Duitsland", "Opmerking": null }, "geometry": { "type": "Point", "coordinates": [ 136754.502061948005576, 455648.60738861898426 ] } },
{ "type": "Feature", "properties": { "X": 136774.61454602101, "Y": 455550.44680810702, "Adres": "Oude Gracht 219", "Onderdeel": "Kap", "Datering": "1308-01-01", "Bron": "RING 1998", "Houtsoort": "Dennen", "Herkomst": "Zuid Duitsland", "Opmerking": null }, "geometry": { "type": "Point", "coordinates": [ 136774.614546021010028, 455550.446808107022662 ] } },
{ "type": "Feature", "properties": { "X": 136821.44762661, "Y": 455541.37475915201, "Adres": "Oudegracht 240", "Onderdeel": "Moerbalk", "Datering": "1510-01-01", "Bron": "RING 1987", "Houtsoort": "Eiken", "Herkomst": "Oost-Nederland en aangrenzend Duitsland", "Opmerking": null }, "geometry": { "type": "Point", "coordinates": [ 136821.447626609995496, 455541.374759152007755 ] } },
{ "type": "Feature", "properties": { "X": 136840.99523786901, "Y": 455456.97940364701, "Adres": "Oude Gracht 272", "Onderdeel": "Vloerconstructie", "Datering": "1524-01-01", "Bron": "KNOB Bull nr. 5 1990", "Houtsoort": "Eiken", "Herkomst": null, "Opmerking": null }, "geometry": { "type": "Point", "coordinates": [ 136840.995237869006814, 455456.979403647012077 ] } },
{ "type": "Feature", "properties": { "X": 136848.879655458, "Y": 455418.16539110901, "Adres": "Oude Gracht 288", "Onderdeel": "Kap", "Datering": "1516-01-01", "Bron": "RING nov 2000", "Houtsoort": "Eiken", "Herkomst": "NL Westfalen", "Opmerking": null }, "geometry": { "type": "Point", "coordinates": [ 136848.879655458003981, 455418.16539110901067 ] } },
{ "type": "Feature", "properties": { "X": 136829.63384693101, "Y": 455281.11871078803, "Adres": "Oude Gracht 307", "Onderdeel": "Kap", "Datering": "1316-01-01", "Bron": "KNOB Bull nr. 5 1990", "Houtsoort": "Dennen / eiken", "Herkomst": null, "Opmerking": "+/- 9 jaar" }, "geometry": { "type": "Point", "coordinates": [ 136829.633846931013977, 455281.118710788025055 ] } },
{ "type": "Feature", "properties": { "X": 136565.09668287099, "Y": 456400.95744125301, "Adres": "Predikherenkerkhof 9", "Onderdeel": "Balk", "Datering": "1649-01-01", "Bron": "Van Daalen dendrochronologie mei 2024", "Houtsoort": "Grove den", "Herkomst": "Zuid Noorwegen", "Opmerking": "na 1649" }, "geometry": { "type": "Point", "coordinates": [ 136565.096682870993391, 456400.957441253005527 ] } },
{ "type": "Feature", "properties": { "X": 136564.25778660999, "Y": 456403.374263821, "Adres": "Predikherenkerkhof 9", "Onderdeel": "Balk", "Datering": "1678-01-01", "Bron": null, "Houtsoort": "Narva- grenen", "Herkomst": "Ests-Russische grens", "Opmerking": "na 1678" }, "geometry": { "type": "Point", "coordinates": [ 136564.257786609989125, 456403.374263820995111 ] } },
{ "type": "Feature", "properties": { "X": 136577.624389573, "Y": 455649.00294077001, "Adres": "Springweg 9", "Onderdeel": "Begane grond vloer boven kelder", "Datering": "1581-01-01", "Bron": "Borghaerts Houtdatering mei 2024", "Houtsoort": "Eiken", "Herkomst": "UT533-1563Gr", "Opmerking": "na 1581" }, "geometry": { "type": "Point", "coordinates": [ 136577.624389573000371, 455649.002940770005807 ] } },
{ "type": "Feature", "properties": { "X": 136681.387582052, "Y": 455955.41141939303, "Adres": "Stadhuis", "Onderdeel": "Hoekpand zuid", "Datering": "1843-01-01", "Bron": "RING aug 1999", "Houtsoort": "Grove den", "Herkomst": "Polen, Torun", "Opmerking": null }, "geometry": { "type": "Point", "coordinates": [ 136681.387582052004291, 455955.411419393029064 ] } },
{ "type": "Feature", "properties": { "X": 136627.56023243099, "Y": 455993.75316912303, "Adres": "Stadhuis", "Onderdeel": "Keyserrijk moerbalk", "Datering": "1446-01-01", "Bron": "RING aug 1999", "Houtsoort": "Eiken", "Herkomst": "Niedersachsen, Mittelniederländisches tiefland", "Opmerking": null }, "geometry": { "type": "Point", "coordinates": [ 136627.560232430987526, 455993.753169123025145 ] } },
{ "type": "Feature", "properties": { "X": 136619.44518248801, "Y": 455671.42189639399, "Adres": "Visschersteeg 11-13", "Onderdeel": "Vliering achterhuis", "Datering": "1472-01-01", "Bron": "KNOB Bull nr. 5 1990", "Houtsoort": null, "Herkomst": null, "Opmerking": null }, "geometry": { "type": "Point", "coordinates": [ 136619.445182488008868, 455671.421896393992938 ] } }
]
}
