{
"type": "FeatureCollection",
"name": "Lijnen_periode1",
"crs": { "type": "name", "properties": { "name": "urn:ogc:def:crs:EPSG::28992" } },
"features": [
{ "type": "Feature", "properties": { "naam": "Verhoogde weg Nr 1 langs de Westbroeker Wetering", "type": "keerkade", "omschrijvi": "Het verhogen van de weg tussen de brug bij Herberg de Klop en de brug over de Westbroekervaart bij het gehucht De Gagel. Van de Vechtdijk tot de Gageldijk", "fase": null, "datering": "1815", "status": "bestaand", "sloop": null, "werelderfg": "Ja", "rijksmonum": "https://monumentenregister.cultureelerfgoed.nl/monumenten/532303", "afbeelding": null, "bron": "https://www.nationaalarchief.nl/onderzoeken/archief/2.13.02/invnr/5/file/NL-HaNA_2.13.02_5_0079", "locatie": "Klopdijk", "ogc_fid": 0, "image_jpg": null, "document_p": null }, "geometry": { "type": "MultiLineString", "coordinates": [ [ [ 135510.480000000010477, 460159.56 ], [ 135276.96, 459838.68 ], [ 135181.200000000011642, 459709.32 ], [ 134989.68, 459433.799999999988358 ], [ 134811.6, 459181.799999999988358 ], [ 134690.64000000001397, 458997.0 ] ] ] } },
{ "type": "Feature", "properties": { "naam": "Verhoogde weg Nr 2 van de brug over de Westbroeker Wetering bij De Gagel tot die voor de Sint Anthoniedijk", "type": "keerkade", "omschrijvi": "Het verhogen van de weg van de brug over de Westbroekervaart bij gehucht De Gagel tot brug voor de St Anthoniedijk", "fase": null, "datering": "1815", "status": "bestaand", "sloop": null, "werelderfg": "Ja", "rijksmonum": null, "afbeelding": null, "bron": "HUA 311-81", "locatie": "Gageldijk (gedeeltelijk)", "ogc_fid": 1, "image_jpg": null, "document_p": null }, "geometry": { "type": "MultiLineString", "coordinates": [ [ [ 135522.24, 460156.200000000011642 ], [ 136325.28, 459591.71999999997206 ], [ 136735.200000000011642, 459279.24 ], [ 136918.32, 459168.35999999998603 ], [ 136914.96, 459136.44 ] ] ] } },
{ "type": "Feature", "properties": { "naam": "Verhoogde weg Nr 3 van de brug voor de St Anthoniedijk tot de brug over het Zwarte Water aan de Blauwkapel", "type": "keerkade", "omschrijvi": "Het verhogen van de weg tussen de brug voor de Anthoniedijk en die over het Zwarte water voor de Blauwe Capelle", "fase": null, "datering": "1815", "status": "bestaand", "sloop": null, "werelderfg": "Ja", "rijksmonum": null, "afbeelding": null, "bron": "HUA 311-81", "locatie": "Gageldijk (gedeeltelijk)", "ogc_fid": 2, "image_jpg": null, "document_p": null }, "geometry": { "type": "MultiLineString", "coordinates": [ [ [ 136914.96, 459134.76 ], [ 137096.4, 459037.32 ], [ 137822.51660269999411, 458736.385415106022265 ] ] ] } },
{ "type": "Feature", "properties": { "naam": "Verhoogde weg Nr 12 tussen Blauwkapel en de Bilt, ofwel tussen de brug over het Zwarte Water bij Blauwkapel en het huis Weltevreden", "type": "keerkade", "omschrijvi": "Het verhogen van de weg tussen Blauwkapel en de Bilt, ofwel tussen de brug over het Zwarte Water bij Blauwkapel en het huis Weltevreden", "fase": null, "datering": "1815", "status": "bestaand", "sloop": null, "werelderfg": "gedeeltelijk", "rijksmonum": null, "afbeelding": null, "bron": null, "locatie": "Voordorpsedijk (gedeeltelijk)", "ogc_fid": 3, "image_jpg": null, "document_p": null }, "geometry": { "type": "MultiLineString", "coordinates": [ [ [ 138252.619920314580668, 458562.552757475001272 ], [ 138354.72, 458529.960000000020955 ], [ 138571.44, 458449.32 ], [ 138742.799999999988358, 458373.71999999997206 ], [ 139056.96, 458104.919999999983702 ], [ 139201.44, 458009.159999999974389 ], [ 139609.68, 457851.24 ], [ 140211.12, 457659.71999999997206 ] ] ] } },
{ "type": "Feature", "properties": { "naam": "Verhoogde weg Nr 4 tussen het Ezelsbrugje en de brug over het Zwarte Water aan de Blauw Capelle", "type": "keerkade", "omschrijvi": "Het verhogen van de weg  tussen het Ezelsbrugje en de brug over het Zwarte Water aan de Blauw Capelle", "fase": null, "datering": "1815", "status": "gedeeltelijk bestaand", "sloop": null, "werelderfg": "gedeeltelijk", "rijksmonum": "https://monumentenregister.cultureelerfgoed.nl/monumenten/532329", "afbeelding": null, "bron": "https://www.nationaalarchief.nl/onderzoeken/archief/2.13.02/invnr/5/file/NL-HaNA_2.13.02_5_0075", "locatie": "Prof. Jordanlaan, Prof. Jordanpad, Kapelweg (gedeeltelijk)", "ogc_fid": 4, "image_jpg": null, "document_p": null }, "geometry": { "type": "MultiLineString", "coordinates": [ [ [ 137918.037069751648232, 458482.723005197185557 ], [ 137474.4, 457275.0 ] ] ] } },
{ "type": "Feature", "properties": { "naam": "Verhoogde weg Nr 10 achter de Kruidmolen vanaf de Vechtkade tot aan de weg naar Achttienhoven bij het Loevenhoutje", "type": "keerkade", "omschrijvi": "Het verhogen van de weg achter de Kruidmolen vanaf de Vechtkade tot aan de weg naar Achttienhoven bij het Loevenhoutje", "fase": null, "datering": "1815", "status": "gedeeltelijk bestaand", "sloop": null, "werelderfg": null, "rijksmonum": null, "afbeelding": null, "bron": "https://www.nationaalarchief.nl/onderzoeken/archief/2.13.02/invnr/4/file/NL-HaNA_2.13.02_4_0441", "locatie": "Achttienhovensedijk (gedeeltelijk) en rioolwaterzuivering", "ogc_fid": 5, "image_jpg": null, "document_p": null }, "geometry": { "type": "MultiLineString", "coordinates": [ [ [ 136091.76, 457821.0 ], [ 135271.920000000012806, 458390.520000000018626 ] ] ] } },
{ "type": "Feature", "properties": { "naam": "Inundatiekade Nr 9 over de landerijen ten NO van een sloot van het Loevenhoutje tot de zaagmolen aan het zwarte water", "type": "keerkade", "omschrijvi": "Het aanleggen van een inundatiekade over de landerijen ten NO van een sloot van het Loevenhoutje tot de zaagmolen aan het zwarte water", "fase": null, "datering": "1815", "status": "vergraven", "sloop": null, "werelderfg": null, "rijksmonum": null, "afbeelding": null, "bron": "https://www.nationaalarchief.nl/onderzoeken/archief/2.13.02/invnr/4/file/NL-HaNA_2.13.02_4_0733", "locatie": "Over sportpark Loevenhoutsedijk", "ogc_fid": 6, "image_jpg": null, "document_p": null }, "geometry": { "type": "MultiLineString", "coordinates": [ [ [ 136095.12, 457819.32 ], [ 136293.35999999998603, 457691.64000000001397 ] ] ] } },
{ "type": "Feature", "properties": { "naam": "Inundatiekade nr 8 Verhoogde en verbreedde kade Nr 8 of zgn Eindje van de wereld langs de Hooftdijkse wetering tot aan de zaagmolen", "type": "keerkade", "omschrijvi": "Verhoging en verbreding van kade, of zgn Eindje van de wereld, langs de Hoofdijkse wetering tot aan de zaagmolen", "fase": null, "datering": "1815", "status": "vergraven", "sloop": null, "werelderfg": null, "rijksmonum": null, "afbeelding": null, "bron": "https://www.nationaalarchief.nl/onderzoeken/archief/2.13.02/invnr/4/file/NL-HaNA_2.13.02_4_0733", "locatie": "Kardinaal de Jongweg (gedeeltelijk)", "ogc_fid": 7, "image_jpg": null, "document_p": null }, "geometry": { "type": "MultiLineString", "coordinates": [ [ [ 136296.72, 457686.599999999976717 ], [ 136416.0, 457607.64000000001397 ], [ 136595.76, 457567.32 ], [ 136743.6, 457525.32 ], [ 137091.35999999998603, 457395.960000000020955 ] ] ] } },
{ "type": "Feature", "properties": { "naam": "Inundatiekade Nr 7 over de landerijen, achter het huis van de zaagmolen, tot aan het stenen brugje, een weinig hoger gelegen, over het Zwarte Water", "type": "keerkade", "omschrijvi": "Het aanleggen van een inundatiekade over de landerijen, achter het huis van de zaagmolen, tot aan het stenen brugje, een weinig hoger gelegen, over het Zw", "fase": null, "datering": "1815", "status": "vergraven", "sloop": null, "werelderfg": null, "rijksmonum": null, "afbeelding": null, "bron": "https://www.nationaalarchief.nl/onderzoeken/archief/2.13.02/invnr/4/file/NL-HaNA_2.13.02_4_0733", "locatie": "Over het Lubroveld", "ogc_fid": 8, "image_jpg": null, "document_p": null }, "geometry": { "type": "MultiLineString", "coordinates": [ [ [ 137092.200000000011642, 457396.169999999983702 ], [ 137092.200000000011642, 457397.01 ], [ 137092.62, 457398.270000000018626 ], [ 137093.04, 457398.69 ], [ 137093.88, 457400.789999999979045 ], [ 137093.88, 457401.210000000020955 ], [ 137094.72, 457402.46999999997206 ], [ 137095.14000000001397, 457403.31 ], [ 137095.980000000010477, 457405.409999999974389 ], [ 137095.980000000010477, 457405.830000000016298 ], [ 137095.980000000010477, 457406.669999999983702 ], [ 137096.4, 457407.93 ], [ 137096.82, 457409.60999999998603 ], [ 137097.24, 457411.289999999979045 ], [ 137097.24, 457412.549999999988358 ], [ 137097.66, 457412.96999999997206 ], [ 137097.66, 457413.81 ], [ 137097.66, 457414.650000000023283 ], [ 137098.079999999987194, 457415.49 ], [ 137098.079999999987194, 457416.330000000016298 ], [ 137098.079999999987194, 457416.75 ], [ 137098.079999999987194, 457417.169999999983702 ], [ 137098.5, 457418.01 ], [ 137098.920000000012806, 457418.849999999976717 ], [ 137098.920000000012806, 457420.10999999998603 ], [ 137099.34, 457420.950000000011642 ], [ 137099.34, 457421.789999999979045 ], [ 137099.76, 457422.63 ], [ 137099.76, 457423.46999999997206 ], [ 137100.18, 457423.89000000001397 ], [ 137100.18, 457424.31 ], [ 137100.6, 457425.150000000023283 ], [ 137100.6, 457425.57 ], [ 137101.019999999989523, 457426.409999999974389 ], [ 137101.44, 457427.25 ], [ 137101.85999999998603, 457428.090000000025611 ], [ 137101.85999999998603, 457428.51 ], [ 137102.28, 457429.349999999976717 ], [ 137102.700000000011642, 457431.87 ], [ 137103.96, 457435.229999999981374 ], [ 137104.38, 457436.49 ], [ 137104.799999999988358, 457437.330000000016298 ], [ 137106.06, 457439.01 ], [ 137108.16, 457442.789999999979045 ], [ 137109.0, 457444.89000000001397 ], [ 137109.84, 457446.150000000023283 ], [ 137110.26, 457446.99 ], [ 137110.68, 457448.669999999983702 ], [ 137111.94, 457452.450000000011642 ], [ 137113.200000000011642, 457454.96999999997206 ], [ 137113.62, 457456.229999999981374 ], [ 137114.46, 457457.909999999974389 ], [ 137115.72, 457460.43 ], [ 137116.56, 457462.53000000002794 ], [ 137117.82, 457464.210000000020955 ], [ 137118.24, 457465.049999999988358 ], [ 137118.66, 457466.31 ], [ 137119.5, 457467.99 ], [ 137120.76, 457470.93 ], [ 137121.6, 457472.19 ], [ 137122.019999999989523, 457473.03000000002794 ], [ 137122.44, 457473.87 ], [ 137122.44, 457475.549999999988358 ], [ 137122.85999999998603, 457476.81 ], [ 137123.700000000011642, 457480.169999999983702 ], [ 137124.96, 457483.53000000002794 ], [ 137125.799999999988358, 457485.210000000020955 ], [ 137126.22, 457486.46999999997206 ], [ 137127.06, 457488.57 ], [ 137127.9, 457491.93 ], [ 137128.74, 457494.03000000002794 ], [ 137129.16, 457495.289999999979045 ], [ 137130.0, 457496.96999999997206 ], [ 137130.420000000012806, 457498.229999999981374 ], [ 137131.68, 457500.75 ], [ 137132.519999999989523, 457502.01 ], [ 137133.35999999998603, 457502.43 ], [ 137134.200000000011642, 457504.10999999998603 ], [ 137136.299999999988358, 457507.89000000001397 ], [ 137137.56, 457509.150000000023283 ], [ 137137.980000000010477, 457509.99 ], [ 137137.980000000010477, 457510.409999999974389 ], [ 137138.82, 457511.669999999983702 ], [ 137139.66, 457512.93 ], [ 137140.5, 457513.349999999976717 ], [ 137141.76, 457514.60999999998603 ], [ 137143.85999999998603, 457516.710000000020955 ], [ 137145.12, 457517.549999999988358 ], [ 137145.54, 457517.96999999997206 ], [ 137146.38, 457518.39000000001397 ], [ 137148.480000000010477, 457519.650000000023283 ], [ 137151.0, 457521.75 ], [ 137151.84, 457522.169999999983702 ], [ 137153.1, 457523.43 ], [ 137153.1, 457523.849999999976717 ], [ 137153.94, 457524.270000000018626 ], [ 137156.46, 457525.10999999998603 ], [ 137158.56, 457526.37 ], [ 137161.5, 457528.049999999988358 ], [ 137161.920000000012806, 457528.049999999988358 ], [ 137162.34, 457528.049999999988358 ], [ 137164.019999999989523, 457528.049999999988358 ], [ 137167.799999999988358, 457528.46999999997206 ], [ 137172.0, 457529.31 ], [ 137173.26, 457529.31 ], [ 137174.1, 457529.31 ], [ 137175.78, 457529.31 ], [ 137177.46, 457529.31 ], [ 137178.299999999988358, 457529.31 ], [ 137178.72, 457529.31 ], [ 137181.66, 457529.31 ], [ 137185.85999999998603, 457529.31 ], [ 137187.96, 457529.31 ], [ 137188.38, 457529.31 ], [ 137188.799999999988358, 457529.31 ], [ 137189.64000000001397, 457529.31 ], [ 137190.9, 457529.31 ], [ 137191.32, 457529.31 ], [ 137191.74, 457529.31 ], [ 137193.84, 457529.31 ], [ 137196.35999999998603, 457529.31 ], [ 137198.04, 457529.31 ], [ 137199.299999999988358, 457529.31 ], [ 137199.72, 457529.31 ], [ 137200.14000000001397, 457529.31 ], [ 137200.56, 457529.31 ], [ 137200.980000000010477, 457529.31 ], [ 137201.4, 457529.31 ], [ 137201.82, 457529.31 ], [ 137202.24, 457529.31 ] ] ] } },
{ "type": "Feature", "properties": { "naam": "Inundatiekade nr 6 Verhoogde kade Nr 6 op de linker oever van het Zwarte Water", "type": "keerkade", "omschrijvi": "Het verhogen van een gedeelte van de kade op de linker oever van het Zwarte Water", "fase": null, "datering": "1815", "status": "vergraven", "sloop": null, "werelderfg": null, "rijksmonum": null, "afbeelding": null, "bron": "https://www.nationaalarchief.nl/onderzoeken/archief/2.13.02/invnr/4/file/NL-HaNA_2.13.02_4_0733", "locatie": "Ter hoogte van rioolgemaal Fuchslaan", "ogc_fid": 9, "image_jpg": null, "document_p": null }, "geometry": { "type": "MultiLineString", "coordinates": [ [ [ 137202.66, 457528.89000000001397 ], [ 137148.480000000010477, 457393.650000000023283 ] ] ] } },
{ "type": "Feature", "properties": { "naam": "Inundatiekade Nr 5, langs het Zwarte Water en de Blauwkapelseweg, in de richting van het Ezelsbrugje, bij de zgn Kromme", "type": "keerkade", "omschrijvi": "Het aanleggen van een inundatiekade over de landerijen langs het Zwarte Water en de Blauwkapelseweg, in de richting van het Ezelsbrugje, bij de zgn Kromm", "fase": null, "datering": "1815", "status": "vergraven", "sloop": null, "werelderfg": null, "rijksmonum": null, "afbeelding": null, "bron": "https://www.nationaalarchief.nl/onderzoeken/archief/2.13.02/invnr/4/file/NL-HaNA_2.13.02_4_073", "locatie": "Kardinaal de Jongweg (gedeeltelijk)", "ogc_fid": 10, "image_jpg": null, "document_p": null }, "geometry": { "type": "MultiLineString", "coordinates": [ [ [ 137148.06, 457392.81 ], [ 137474.4, 457274.789999999979045 ] ] ] } },
{ "type": "Feature", "properties": { "naam": "Verhoogde weg nr 16 Verhoogde Ezelsdijk Nr 16 (Ezelsweg) tussen de Kromme en het kleine Ezelsbrugje", "type": "keerkade", "omschrijvi": "Het verhogen van de Ezelsweg tussen de Kromme en het kleine Ezelsbrugje", "fase": null, "datering": "1815", "status": "vergraven", "sloop": null, "werelderfg": null, "rijksmonum": null, "afbeelding": null, "bron": "https://www.nationaalarchief.nl/onderzoeken/archief/2.13.02/invnr/4/file/NL-HaNA_2.13.02_4_0435", "locatie": "Langs het water achter de Van Esveldstraat en de Huizingalaan", "ogc_fid": 11, "image_jpg": null, "document_p": null }, "geometry": { "type": "MultiLineString", "coordinates": [ [ [ 137475.24, 457273.74 ], [ 137510.519999999989523, 457256.099999999976717 ], [ 137524.799999999988358, 457238.460000000020955 ], [ 137531.519999999989523, 457218.299999999988358 ], [ 137540.76, 457209.900000000023283 ], [ 137563.44, 457190.580000000016298 ], [ 137786.88, 457088.94 ], [ 137838.12, 457075.5 ], [ 137890.200000000011642, 457050.299999999988358 ], [ 138232.079999999987194, 456840.299999999988358 ] ] ] } },
{ "type": "Feature", "properties": { "naam": "Inundatiekade Nr 15 over de landerijen van daar tot de Biltstraat", "type": "keerkade", "omschrijvi": "Aanleg van een inundatiekade over de landerijen van het Klein Ezelsbrugje tot de Biltstraat", "fase": null, "datering": "1815", "status": "vergraven", "sloop": null, "werelderfg": null, "rijksmonum": null, "afbeelding": null, "bron": null, "locatie": "Langs de Sartreweg", "ogc_fid": 12, "image_jpg": null, "document_p": null }, "geometry": { "type": "MultiLineString", "coordinates": [ [ [ 138234.6, 456839.460000000020955 ], [ 138289.200000000011642, 456478.26 ] ] ] } },
{ "type": "Feature", "properties": { "naam": "Inundatiekade Nr 17 over de landerijen langs de Ridderschapsvaart tot de Laan achter het huis genaamd Minsweerd", "type": "keerkade", "omschrijvi": "Aanleg van een inundatiekade over de landerijen langs de Ridderschapsvaart tot de Laan achter het huis genaamd Minsweerd", "fase": null, "datering": "1815", "status": "gedeeltelijk bestaand", "sloop": null, "werelderfg": "gedeeltelijk", "rijksmonum": "https://monumentenregister.cultureelerfgoed.nl/monumenten/532398", "afbeelding": null, "bron": "https://www.nationaalarchief.nl/onderzoeken/archief/2.13.02/invnr/4/file/NL-HaNA_2.13.02_4_0447", "locatie": "Westelijk van Waterlinieweg", "ogc_fid": 13, "image_jpg": null, "document_p": null }, "geometry": { "type": "MultiLineString", "coordinates": [ [ [ 138600.0, 455369.460000000020955 ], [ 138531.12, 455557.62 ], [ 138309.35999999998603, 456432.06 ] ] ] } },
{ "type": "Feature", "properties": { "naam": "Inundatiekade Nr 17 over de landerijen langs de Ridderschapsvaart tot de Laan achter het huis genaamd Minsweerd", "type": "keerkade", "omschrijvi": "Aanleg van een inundatiekade over de landerijen langs de Ridderschapsvaart tot de Laan achter het huis genaamd Minsweerd", "fase": null, "datering": "1815", "status": "gedeeltelijk bestaand", "sloop": null, "werelderfg": "gedeeltelijk", "rijksmonum": "https://monumentenregister.cultureelerfgoed.nl/monumenten/532398", "afbeelding": null, "bron": "https://www.nationaalarchief.nl/onderzoeken/archief/2.13.02/invnr/4/file/NL-HaNA_2.13.02_4_0447", "locatie": "Westelijk van Waterlinieweg", "ogc_fid": 14, "image_jpg": null, "document_p": null }, "geometry": { "type": "MultiLineString", "coordinates": [ [ [ 138599.16, 455370.299999999988358 ], [ 138610.079999999987194, 455338.38 ] ] ] } },
{ "type": "Feature", "properties": { "naam": "Verhoogde weg nr 18 Laan achter Minsweerd Nr 18", "type": "keerkade", "omschrijvi": "Het verhogen van de All?e van Minsweerd", "fase": null, "datering": "1815", "status": "vergraven", "sloop": null, "werelderfg": null, "rijksmonum": null, "afbeelding": null, "bron": null, "locatie": "Ter hoogte van de Laan van Minsweerd", "ogc_fid": 15, "image_jpg": null, "document_p": null }, "geometry": { "type": "MultiLineString", "coordinates": [ [ [ 138607.56, 455334.18 ], [ 138484.079999999987194, 455107.38 ] ] ] } },
{ "type": "Feature", "properties": { "naam": "Inundatiekade Nr 13 op de zuidzijde van de Biltstraat tussen de brug voor de Ridderschapsvaart of zgn Groenelaan en de molen Het Gemeen-Belang genoemd", "type": "keerkade", "omschrijvi": "Het aanleggen van een inundatiekade op de zuidzijde van de Biltstraat tussen de brug voor de Ridderschapsvaart of zgn Groenelaan en de molen Het Gemeen-Be", "fase": null, "datering": "1815", "status": "vergraven", "sloop": null, "werelderfg": "ja", "rijksmonum": null, "afbeelding": null, "bron": "https://www.nationaalarchief.nl/onderzoeken/archief/2.13.02/invnr/5/file/NL-HaNA_2.13.02_5_0079", "locatie": "Zuidzijde Biltsestraatweg", "ogc_fid": 16, "image_jpg": null, "document_p": null }, "geometry": { "type": "MultiLineString", "coordinates": [ [ [ 138592.413017679646146, 456532.502298192353919 ], [ 139327.512667428993154, 456762.875470048398711 ], [ 139643.698630046768812, 456875.204693610023241 ] ] ] } },
{ "type": "Feature", "properties": { "naam": "Verhoogde weg nr 11 Kade Nr 11 over een deel van de weg langs de Vecht tussen het Schulpenbrugje en de brug voor de Herberg De Klop", "type": "keerkade", "omschrijvi": "Het aanleggen van een in inundatiekade op de weg langs de Vecht tussen het Schulpenbrugje en de brug voore de herberg De Klop", "fase": null, "datering": "1815", "status": "bestaand", "sloop": null, "werelderfg": null, "rijksmonum": null, "afbeelding": null, "bron": "https://www.nationaalarchief.nl/onderzoeken/archief/2.13.02/invnr/5/file/NL-HaNA_2.13.02_5_007", "locatie": "Vechtdijk (gedeeltelijk)", "ogc_fid": 17, "image_jpg": null, "document_p": null }, "geometry": { "type": "MultiLineString", "coordinates": [ [ [ 134699.04, 458966.76 ], [ 134754.480000000010477, 458948.28000000002794 ], [ 134806.56, 458939.88 ], [ 134850.24, 458924.76 ], [ 134883.84, 458902.919999999983702 ], [ 134909.04, 458881.080000000016298 ], [ 134935.920000000012806, 458850.840000000025611 ], [ 134959.44, 458798.76 ], [ 134982.96, 458751.71999999997206 ], [ 135008.16, 458694.599999999976717 ], [ 135033.35999999998603, 458652.599999999976717 ], [ 135065.28, 458612.28000000002794 ], [ 135246.72, 458405.64000000001397 ], [ 135273.6, 458392.200000000011642 ] ] ] } },
{ "type": "Feature", "properties": { "naam": "Inundatiekade nr 19 Kade 19 aan de zuidzijde van damsluis 6", "type": "keerkade", "omschrijvi": "Het aanleggen van een inundatiekade aan de zuidzijde van damsluis 6", "fase": null, "datering": "1815", "status": "vergraven", "sloop": null, "werelderfg": null, "rijksmonum": null, "afbeelding": null, "bron": null, "locatie": "Terrein Pieter Baancentrum", "ogc_fid": 18, "image_jpg": null, "document_p": null }, "geometry": { "type": "MultiLineString", "coordinates": [ [ [ 137485.32, 454512.03000000002794 ], [ 137495.4, 454415.01 ] ] ] } },
{ "type": "Feature", "properties": { "naam": "Inundatiekade nr 20 Kade 20 aan de noordzijde van damsluis 6", "type": "keerkade", "omschrijvi": "Het aanleggen van een inundatiekade aan de noordzijde van damsluis 6", "fase": null, "datering": "1815", "status": "vergraven", "sloop": null, "werelderfg": null, "rijksmonum": null, "afbeelding": null, "bron": null, "locatie": "Ter hoogte van spoorviaduct Venuslaan", "ogc_fid": 19, "image_jpg": null, "document_p": null }, "geometry": { "type": "MultiLineString", "coordinates": [ [ [ 137490.78, 454527.99 ], [ 137510.1, 454619.13 ] ] ] } },
{ "type": "Feature", "properties": { "naam": "Inundatiekade 14 Kade nr 14 op de Hoogravensedijk", "type": "Keerkade", "omschrijvi": "Het aanleggen van een inundatiekade op de Hoogravensedijk en over de landerijen haaks op de Hoogravensedijk", "fase": null, "datering": "1815", "status": "vergraven", "sloop": null, "werelderfg": null, "rijksmonum": null, "afbeelding": null, "bron": null, "locatie": "Aquamarijnlaan", "ogc_fid": 21, "image_jpg": null, "document_p": null }, "geometry": { "type": "MultiLineString", "coordinates": [ [ [ 136647.917583986010868, 453917.048990548995789 ], [ 137312.163903910986846, 453590.743274471024051 ], [ 137415.291318231000332, 453775.314903176971711 ] ] ] } },
{ "type": "Feature", "properties": { "naam": null, "type": "weg", "omschrijvi": null, "fase": null, "datering": null, "status": null, "sloop": null, "werelderfg": null, "rijksmonum": null, "afbeelding": null, "bron": null, "locatie": null, "ogc_fid": null, "image_jpg": null, "document_p": null }, "geometry": { "type": "MultiLineString", "coordinates": [ [ [ 137900.125059087062255, 458433.521255496772937 ], [ 137893.5963407746749, 458432.563806079677306 ], [ 137884.606393284979276, 458433.752799897221848 ], [ 137874.389845860685455, 458436.345107085013296 ], [ 137865.782407367951237, 458438.892405462160241 ], [ 137857.116813240863848, 458441.923107276496012 ], [ 137849.069744949840242, 458445.407051758025773 ], [ 137844.382821909501217, 458447.966588686103933 ], [ 137840.215499618032482, 458450.928584428387694 ], [ 137838.432013643934624, 458452.57771113270428 ], [ 137836.800319789967034, 458454.379524297604803 ], [ 137835.344656439410755, 458456.317165587563068 ], [ 137834.089261975197587, 458458.373776680906303 ], [ 137833.05837478057947, 458460.53249926114222 ], [ 137832.276233238604618, 458462.77647500752937 ], [ 137831.767075732030207, 458465.088845580350608 ], [ 137831.55514064419549, 458467.452752671437338 ], [ 137831.66466635800316, 458469.851337957370561 ], [ 137832.119891256676055, 458472.267743104719557 ], [ 137832.945053723145975, 458474.685109790880233 ], [ 137834.468566619878402, 458477.915512104576919 ], [ 137839.082411180861527, 458486.264444448286667 ], [ 137844.707215561007615, 458494.968058894388378 ], [ 137850.595857414766215, 458503.129596720740665 ], [ 137789.692662294663023, 458560.249144763045479 ], [ 137740.061782313801814, 458607.686520654417109 ], [ 137734.710178210254526, 458613.402794646914117 ], [ 137730.318808964686468, 458618.998589102760889 ], [ 137728.08490559249185, 458622.432191787927877 ], [ 137726.467292682093102, 458625.878747143317014 ], [ 137725.432123805803712, 458629.334925240895245 ], [ 137724.945552535180468, 458632.797396133071743 ], [ 137724.97373244271148, 458636.262829899322242 ], [ 137725.482817099866224, 458639.727896596421488 ], [ 137726.438960079278331, 458643.189266294008121 ], [ 137727.808314952679211, 458646.643609061778989 ], [ 137729.557035292353248, 458650.087594958546106 ], [ 137731.651274670119165, 458653.517894056101795 ], [ 137734.057186658348655, 458656.931176433630753 ], [ 137736.740924828598509, 458660.324112129688729 ], [ 137739.668642753153108, 458663.693371230270714 ], [ 137746.120632153557381, 458670.347539887181483 ], [ 137756.782303712592693, 458680.06797003140673 ], [ 137778.296125313499942, 458698.240204644389451 ], [ 137822.516708317765733, 458736.385859574656934 ] ] ] } },
{ "type": "Feature", "properties": { "naam": null, "type": "weg", "omschrijvi": null, "fase": null, "datering": null, "status": null, "sloop": null, "werelderfg": null, "rijksmonum": null, "afbeelding": null, "bron": null, "locatie": null, "ogc_fid": null, "image_jpg": null, "document_p": null }, "geometry": { "type": "MultiLineString", "coordinates": [ [ [ 138347.693365047074622, 459679.74691139801871 ], [ 138067.194028409896418, 458897.359896536218002 ], [ 138074.767039511789335, 458891.652840559312608 ], [ 138077.337123250123113, 458888.044693205563817 ], [ 138079.187309438246302, 458884.446078815381043 ], [ 138080.448876293230569, 458880.864717584569007 ], [ 138084.320887700479943, 458865.677090449316893 ], [ 138088.290157417737646, 458851.649365433841012 ], [ 138091.913441842800239, 458839.719421996211167 ], [ 138096.3011587280198, 458826.066418922971934 ], [ 138098.110962093312992, 458821.313264588767197 ], [ 138099.737657293793745, 458818.053547670715488 ], [ 138101.654162377642933, 458815.274328192288522 ], [ 138103.867158289387589, 458812.972529279650189 ], [ 138106.18828154867515, 458811.050485646293964 ], [ 138108.946631122147664, 458809.06126292020781 ], [ 138114.149209601746406, 458805.97246934537543 ], [ 138119.828977586410474, 458803.463590220781043 ], [ 138124.809185157180764, 458802.077258233912289 ], [ 138130.519389777356992, 458801.176248218980618 ], [ 138139.003521476319293, 458800.57460655993782 ], [ 138149.366314117156435, 458800.366980846039951 ], [ 138166.401332161593018, 458800.3515405220096 ], [ 138170.716663547733333, 458799.790505911107175 ], [ 138175.867582709324779, 458798.390304772998206 ], [ 138179.239335601479979, 458797.041864288039505 ], [ 138184.12526006862754, 458794.437942542892415 ], [ 138187.22233102231985, 458792.33851986087393 ], [ 138190.154638667881954, 458789.967543288425077 ], [ 138192.89081698685186, 458787.341492254170589 ], [ 138195.39949996053474, 458784.476846189121716 ], [ 138197.649321569799213, 458781.390084507176653 ], [ 138199.60891579624149, 458778.097686648485251 ], [ 138201.251358930894639, 458774.605282061151229 ], [ 138202.551532797224354, 458770.90417796454858 ], [ 138203.439242121385178, 458767.234482441621367 ], [ 138203.961054830841022, 458763.62086416548118 ], [ 138204.163538854132639, 458760.087991797016002 ], [ 138204.093262118549319, 458756.660533999558538 ], [ 138203.796792551846011, 458753.363159440050367 ], [ 138203.029843985976186, 458748.714966391853523 ], [ 138201.650204982957803, 458743.202907883387525 ], [ 138199.784407640894642, 458737.426015630131587 ], [ 138194.221819935017265, 458722.762435317912605 ], [ 138182.77268767519854, 458689.545766185212415 ], [ 138176.032074353133794, 458671.275913040386513 ], [ 138175.258120175916702, 458668.561610916862264 ], [ 138174.751526729232864, 458665.71225826034788 ], [ 138174.645352599327452, 458662.76120480481768 ], [ 138174.908540234027896, 458660.501235510862898 ], [ 138175.711320766160497, 458657.708336239680648 ], [ 138177.307562054425944, 458654.177008513128385 ], [ 138179.283794315299019, 458650.843615467776544 ], [ 138181.346253043797333, 458648.055494072206784 ], [ 138183.364704733772669, 458645.800232339825016 ], [ 138192.824461032258114, 458636.371357899100985 ], [ 138201.594963888870552, 458627.284628700756002 ], [ 138209.208450966601958, 458619.089020907937083 ], [ 138217.260940125619527, 458610.045014205388725 ], [ 138225.348634144815151, 458600.454053699213546 ], [ 138230.560582378762774, 458593.905078569834586 ], [ 138235.489068165130448, 458587.33630553423427 ], [ 138238.87063132217736, 458582.374563515011687 ], [ 138240.821621157752816, 458578.736755393445492 ], [ 138242.100782357214484, 458575.435047621955164 ], [ 138242.587127101083752, 458573.658213083341252 ], [ 138242.942534502915805, 458571.799576399498619 ], [ 138243.182920729799662, 458568.861826999229379 ], [ 138242.994794118538266, 458565.652314671024214 ], [ 138242.673618731729221, 458563.813829562626779 ], [ 138242.229766966891475, 458562.093462458229624 ], [ 138240.875105790997623, 458558.571356917847879 ], [ 138238.952400914771715, 458555.153648871055339 ] ] ] } },
{ "type": "Feature", "properties": { "naam": null, "type": "weg", "omschrijvi": null, "fase": null, "datering": null, "status": null, "sloop": null, "werelderfg": null, "rijksmonum": null, "afbeelding": null, "bron": null, "locatie": null, "ogc_fid": null, "image_jpg": null, "document_p": null }, "geometry": { "type": "MultiLineString", "coordinates": [ [ [ 138252.619920314580668, 458562.552757475001272 ], [ 138249.7040710565052, 458562.749546570936218 ], [ 138246.583106189820683, 458561.764884467120282 ], [ 138243.26813707043766, 458559.691535210935399 ], [ 138239.770275053480873, 458556.622262864024378 ], [ 138236.100631494889967, 458552.649831488204654 ], [ 138232.270317749935202, 458547.867005148262251 ], [ 138228.290445174789056, 458542.366547902172897 ], [ 138224.172125124721788, 458536.241223799530417 ], [ 138215.564588022331009, 458522.487031289318111 ], [ 138197.177043765143026, 458491.561862717557233 ], [ 138187.574818300490733, 458475.875111613946501 ], [ 138182.710481978545431, 458468.300368571362924 ], [ 138177.818811737786746, 458461.028399267874192 ], [ 138172.910918933921494, 458454.151967777172104 ], [ 138167.997914922365453, 458447.763838159618899 ], [ 138163.090911058912752, 458441.95677447412163 ], [ 138158.201018699008273, 458436.82354076881893 ], [ 138153.33934919841704, 458432.456901115423534 ], [ 138148.517013912292896, 458428.949619574996177 ], [ 138144.347812271909788, 458426.705086565285455 ], [ 138140.217970690981019, 458425.346020434575621 ], [ 138135.382600851095049, 458424.394708054547664 ], [ 138129.918794165510917, 458423.820110782864504 ], [ 138123.903642048011534, 458423.591189982718788 ], [ 138117.41423591246712, 458423.676907025510445 ], [ 138110.52766717155464, 458424.046223274781369 ], [ 138095.871407529280987, 458425.511498821724672 ], [ 138080.55159442932927, 458427.73870753677329 ], [ 138057.676811782526784, 458431.964969142572954 ], [ 138036.778147463308414, 458436.508841693983413 ], [ 138007.391699708357919, 458443.63883809116669 ], [ 138006.538835787854623, 458443.805333050782792 ], [ 138003.887467298132833, 458443.716398912249133 ], [ 138001.238789881026605, 458443.181178088008892 ], [ 137998.592685258248821, 458442.243012201157399 ], [ 137995.949035151716089, 458440.945242860354483 ], [ 137993.307721283053979, 458439.331211676413659 ], [ 137990.668625373888062, 458437.444260260614101 ], [ 137988.031629146134946, 458435.327730237098876 ], [ 137982.763462621194776, 458430.579300786310341 ], [ 137969.621511253819335, 458417.724514334870037 ], [ 137964.37363284121966, 458413.099288499855902 ], [ 137961.751128121919464, 458411.070761049049906 ], [ 137959.129422023048392, 458409.289412732468918 ], [ 137956.508396266668569, 458407.798585159063805 ], [ 137953.887932573677972, 458406.641619945992716 ], [ 137951.2679126666917, 458405.861858702381141 ], [ 137948.648218266782351, 458405.502643039566465 ], [ 137946.028731096244883, 458405.607314579479862 ], [ 137943.409332876501139, 458406.219214927696157 ], [ 137939.969681010843487, 458407.684019806154538 ], [ 137928.581019775854656, 458413.227795372251421 ], [ 137919.419286945951171, 458418.375033241638448 ], [ 137912.266127652430441, 458423.020127528929152 ], [ 137906.903187026735395, 458427.057472375745419 ], [ 137902.159980643453309, 458431.312682165764272 ], [ 137900.125059087062255, 458433.521255496772937 ] ] ] } },
{ "type": "Feature", "properties": { "naam": null, "type": "weg", "omschrijvi": null, "fase": null, "datering": null, "status": null, "sloop": null, "werelderfg": null, "rijksmonum": null, "afbeelding": null, "bron": null, "locatie": null, "ogc_fid": null, "image_jpg": null, "document_p": null }, "geometry": { "type": "MultiLineString", "coordinates": [ [ [ 138006.538835787854623, 458443.805333050782792 ], [ 137982.808759469946381, 458446.805062480561901 ], [ 137976.605193022027379, 458449.10240439203335 ], [ 137973.564596771437209, 458452.737828717858065 ], [ 137972.961560265568551, 458458.165244720526971 ], [ 137982.723961004114244, 458519.873674806964118 ], [ 137983.13907326082699, 458530.033327675249893 ], [ 137981.518264925864059, 458535.110010020958725 ], [ 137978.264915549458237, 458539.830199740477838 ], [ 137964.108661651232978, 458551.324406686529983 ], [ 137957.830893251142697, 458558.709470535395667 ], [ 137953.106037000892684, 458568.789073347987141 ], [ 137951.850147331831977, 458578.14779794140486 ], [ 137953.386377354763681, 458586.699470260529779 ], [ 137974.495872414874611, 458648.224525392637588 ], [ 138009.548783539532451, 458745.384035318449605 ], [ 138015.358532772312174, 458753.164277156582102 ] ] ] } },
{ "type": "Feature", "properties": { "naam": null, "type": "weg", "omschrijvi": null, "fase": null, "datering": null, "status": null, "sloop": null, "werelderfg": null, "rijksmonum": null, "afbeelding": null, "bron": null, "locatie": null, "ogc_fid": null, "image_jpg": null, "document_p": null }, "geometry": { "type": "MultiLineString", "coordinates": [ [ [ 138015.579470222786767, 458752.282056490657851 ], [ 138029.910532984242309, 458792.84898723650258 ], [ 138029.913830489851534, 458792.859975514467806 ], [ 138030.353624435258098, 458794.617177148524206 ], [ 138030.476635681581683, 458794.845122597063892 ], [ 138030.673980170977302, 458795.200577339099254 ], [ 138030.887447024637368, 458795.57256107457215 ], [ 138031.117390304716537, 458795.959531381493434 ], [ 138031.364164072438143, 458796.359945850679651 ], [ 138031.628122389200144, 458796.772262060083449 ], [ 138031.909619316633325, 458797.194937599764671 ], [ 138032.209008916688617, 458797.626430047675967 ], [ 138032.526645250385627, 458798.065196997136809 ], [ 138032.862882379558869, 458798.509696025692392 ], [ 138033.218074365751818, 458798.958384717814624 ], [ 138033.59257527027512, 458799.409720662457403 ], [ 138033.986739154992392, 458799.862161437224131 ], [ 138034.400920081185177, 458800.31416463968344 ], [ 138034.835472110571573, 458800.76418783684494 ], [ 138035.290749304520432, 458801.210688627557829 ], [ 138035.767105725128204, 458801.652124580985401 ], [ 138036.264895433094352, 458802.086953300342429 ], [ 138036.78447249068995, 458802.513632360380143 ], [ 138037.326190959196538, 458802.930619348364417 ], [ 138037.890404899953865, 458803.336371839453932 ], [ 138038.477468375058379, 458803.729347428306937 ], [ 138039.087735445442377, 458804.108003696484957 ], [ 138039.721560173027683, 458804.470798233698588 ], [ 138040.37929661932867, 458804.816188605909701 ], [ 138040.980179660458816, 458805.105342444148846 ], [ 138041.504061406885739, 458805.33700729807606 ], [ 138042.026615827955538, 458805.548948830342852 ], [ 138042.549438631976955, 458805.741930326621514 ], [ 138043.074125527986325, 458805.916715117171407 ], [ 138043.602272224728949, 458806.074066490400583 ], [ 138044.135474430775503, 458806.214747751189861 ], [ 138044.675327854958596, 458806.339522216934711 ], [ 138045.223428205645178, 458806.449153179943096 ], [ 138045.781371192337247, 458806.54440394899575 ], [ 138046.350752522732364, 458806.626037827692926 ], [ 138046.933167906361632, 458806.694818121846765 ], [ 138047.530213051562896, 458806.751508134824689 ], [ 138048.143483667256078, 458806.796871180529706 ], [ 138048.774575462070061, 458806.831670549931005 ], [ 138049.425084144400898, 458806.856669556233101 ], [ 138050.096605423663277, 458806.872631501057185 ], [ 138050.790735007933108, 458806.880319690913893 ], [ 138051.509068606304936, 458806.880497431848198 ], [ 138052.253201927349437, 458806.873928023094777 ], [ 138053.024730679695494, 458806.861374775646254 ], [ 138053.825250572437653, 458806.8436009879224 ], [ 138054.65635731376824, 458806.821369970741216 ], [ 138055.519646612665383, 458806.795445032592397 ], [ 138056.416714178136317, 458806.766589467413723 ], [ 138057.298831974272616, 458806.736879762844183 ], [ 138058.069070708123036, 458806.70549708296312 ], [ 138058.807164333236869, 458806.668679427471943 ], [ 138059.516754625714384, 458806.626609911734704 ], [ 138060.201483361102873, 458806.579471635923255 ], [ 138060.864992315706331, 458806.527447710046545 ], [ 138061.510923265421297, 458806.470721227233298 ], [ 138062.142917985795066, 458806.40947530802805 ], [ 138062.764618253306253, 458806.343893056502566 ], [ 138063.379665843764087, 458806.27415756683331 ], [ 138063.991702532919589, 458806.200451952870935 ], [ 138064.604370096989442, 458806.122959322237875 ], [ 138065.221310311724665, 458806.041862778889481 ], [ 138065.846164953138214, 458805.957345428410918 ], [ 138066.482575797184836, 458805.869590366142802 ], [ 138067.134184619790176, 458805.778780716471374 ], [ 138067.804633196850773, 458805.685099569440354 ], [ 138068.497563304525102, 458805.588730041636154 ], [ 138069.216616718651494, 458805.489855229854584 ], [ 138069.965435215068283, 458805.388658245617989 ], [ 138070.747660569584696, 458805.285322186944541 ], [ 138071.566934558824869, 458805.180030170944519 ], [ 138072.426898958103266, 458805.07296529028099 ], [ 138073.331195543461945, 458804.964310663519427 ], [ 138074.283466091059381, 458804.854249391180929 ], [ 138075.243382063519675, 458804.747744966356549 ], [ 138075.999064143339638, 458804.666984159557614 ], [ 138076.74284917145269, 458804.590101233974565 ], [ 138077.474443393468391, 458804.516994793317281 ], [ 138078.1935530549963, 458804.447563434310723 ], [ 138078.899884401704185, 458804.381705748790409 ], [ 138079.593143679434434, 458804.319320349721238 ], [ 138080.273037133563776, 458804.26030582212843 ], [ 138080.939271009672666, 458804.204560776241124 ], [ 138081.591551553603495, 458804.151983808085788 ], [ 138082.22958501096582, 458804.102473507227842 ], [ 138082.853077627136372, 458804.055928486399353 ], [ 138083.461735648161266, 458804.012247330683749 ], [ 138084.055265319475438, 458803.971328652929515 ], [ 138084.633372886455618, 458803.933071041188668 ], [ 138085.195764595118817, 458803.89737310167402 ], [ 138085.742146690987283, 458803.864133430412039 ], [ 138086.272225420048926, 458803.833250624826178 ], [ 138086.785707027098397, 458803.804623283795081 ], [ 138087.282297758531058, 458803.778150001890026 ], [ 138087.761703859519912, 458803.753729391784873 ], [ 138088.223631575936452, 458803.73126004030928 ], [ 138088.667787153477548, 458803.710640553385019 ], [ 138089.09387683760724, 458803.691769519937225 ], [ 138089.501606873935089, 458803.674545550195035 ], [ 138089.890683508332586, 458803.658867239078972 ] ] ] } },
{ "type": "Feature", "properties": { "naam": null, "type": "weg", "omschrijvi": null, "fase": null, "datering": null, "status": null, "sloop": null, "werelderfg": null, "rijksmonum": null, "afbeelding": null, "bron": null, "locatie": null, "ogc_fid": null, "image_jpg": null, "document_p": null }, "geometry": { "type": "MultiLineString", "coordinates": [ [ [ 137887.244528151262784, 458545.341554855694994 ], [ 137841.969557921489468, 458586.758117068966385 ], [ 137902.470515647233697, 458698.80624467227608 ], [ 137920.359536613745149, 458689.691690844192635 ], [ 137948.587861848587636, 458663.580362427805085 ], [ 137963.247132627933752, 458654.030622144462541 ], [ 137974.561571485479362, 458648.427710925927386 ], [ 138059.239811338891741, 458621.083762967842631 ] ] ] } },
{ "type": "Feature", "properties": { "naam": null, "type": "weg", "omschrijvi": null, "fase": null, "datering": null, "status": null, "sloop": null, "werelderfg": null, "rijksmonum": null, "afbeelding": null, "bron": null, "locatie": null, "ogc_fid": null, "image_jpg": null, "document_p": null }, "geometry": { "type": "MultiLineString", "coordinates": [ [ [ 138056.759110139013501, 458614.468722958758008 ], [ 138049.065556420071516, 458589.534029384085443 ], [ 138044.797869682835881, 458583.72031371149933 ], [ 138041.325261160352966, 458583.362279494875111 ], [ 137986.364200172683923, 458599.784096665331163 ], [ 137978.086324967152905, 458597.462743802636396 ], [ 137966.964381980389589, 458597.848931930668186 ], [ 137963.455399951257277, 458595.636777832929511 ], [ 137960.354691253043711, 458589.478140975290444 ], [ 137958.453186134283897, 458580.085650628490839 ], [ 137958.329593181260861, 458570.37340938730631 ], [ 137960.322205220058095, 458563.910740963649005 ], [ 137964.565009779646061, 458556.968652743613347 ], [ 137979.560634401423158, 458544.980508109147195 ], [ 137986.483609496004647, 458535.790614525147248 ], [ 137988.122219654323999, 458526.11718807683792 ], [ 137985.02879558573477, 458506.140069984539878 ], [ 138040.059833501320099, 458497.075419843138661 ], [ 138060.232091818907065, 458613.14571495866403 ] ] ] } },
{ "type": "Feature", "properties": { "naam": null, "type": "weg", "omschrijvi": null, "fase": null, "datering": null, "status": null, "sloop": null, "werelderfg": null, "rijksmonum": null, "afbeelding": null, "bron": null, "locatie": null, "ogc_fid": null, "image_jpg": null, "document_p": null }, "geometry": { "type": "MultiLineString", "coordinates": [ [ [ 138062.382032858702587, 458612.318834955687635 ], [ 138012.488130163808819, 458630.434000851528253 ], [ 138005.993108479655348, 458628.484454365854617 ], [ 138002.349063823232427, 458622.241394972021226 ] ] ] } },
{ "type": "Feature", "properties": { "naam": null, "type": "weg", "omschrijvi": null, "fase": null, "datering": null, "status": null, "sloop": null, "werelderfg": null, "rijksmonum": null, "afbeelding": null, "bron": null, "locatie": null, "ogc_fid": null, "image_jpg": null, "document_p": null }, "geometry": { "type": "MultiLineString", "coordinates": [ [ [ 138012.271868622279726, 458592.473714924009982 ], [ 138024.1792343815614, 458625.714290976233315 ] ] ] } },
{ "type": "Feature", "properties": { "naam": null, "type": "weg", "omschrijvi": null, "fase": null, "datering": null, "status": null, "sloop": null, "werelderfg": null, "rijksmonum": null, "afbeelding": null, "bron": null, "locatie": null, "ogc_fid": null, "image_jpg": null, "document_p": null }, "geometry": { "type": "MultiLineString", "coordinates": [ [ [ 137912.051540150190704, 458695.502963078266475 ], [ 137928.920308309054235, 458749.746291152609047 ], [ 137953.065799987292849, 458749.084787152474746 ], [ 137989.118657424813136, 458736.185459135274868 ] ] ] } },
{ "type": "Feature", "properties": { "naam": null, "type": "weg", "omschrijvi": null, "fase": null, "datering": null, "status": null, "sloop": null, "werelderfg": null, "rijksmonum": null, "afbeelding": null, "bron": null, "locatie": null, "ogc_fid": null, "image_jpg": null, "document_p": null }, "geometry": { "type": "MultiLineString", "coordinates": [ [ [ 138095.127288697316544, 458803.493491238623392 ], [ 138118.445879975392018, 458803.989619236264843 ] ] ] } },
{ "type": "Feature", "properties": { "naam": null, "type": "weg", "omschrijvi": null, "fase": null, "datering": null, "status": null, "sloop": null, "werelderfg": null, "rijksmonum": null, "afbeelding": null, "bron": null, "locatie": null, "ogc_fid": null, "image_jpg": null, "document_p": null }, "geometry": { "type": "MultiLineString", "coordinates": [ [ [ 138015.579470222786767, 458752.282056490657851 ], [ 138029.910532984242309, 458792.84898723650258 ], [ 138029.913830489851534, 458792.859975514467806 ], [ 138030.353624435258098, 458794.617177148524206 ], [ 138030.476635681581683, 458794.845122597063892 ], [ 138030.673980170977302, 458795.200577339099254 ], [ 138030.887447024637368, 458795.57256107457215 ], [ 138031.117390304716537, 458795.959531381493434 ], [ 138031.364164072438143, 458796.359945850679651 ], [ 138031.628122389200144, 458796.772262060083449 ], [ 138031.909619316633325, 458797.194937599764671 ], [ 138032.209008916688617, 458797.626430047675967 ], [ 138032.526645250385627, 458798.065196997136809 ], [ 138032.862882379558869, 458798.509696025692392 ], [ 138033.218074365751818, 458798.958384717814624 ], [ 138033.59257527027512, 458799.409720662457403 ], [ 138033.986739154992392, 458799.862161437224131 ], [ 138034.400920081185177, 458800.31416463968344 ], [ 138034.835472110571573, 458800.76418783684494 ], [ 138035.290749304520432, 458801.210688627557829 ], [ 138035.767105725128204, 458801.652124580985401 ], [ 138036.264895433094352, 458802.086953300342429 ], [ 138036.78447249068995, 458802.513632360380143 ], [ 138037.326190959196538, 458802.930619348364417 ], [ 138037.890404899953865, 458803.336371839453932 ], [ 138038.477468375058379, 458803.729347428306937 ], [ 138039.087735445442377, 458804.108003696484957 ], [ 138039.721560173027683, 458804.470798233698588 ], [ 138040.37929661932867, 458804.816188605909701 ], [ 138040.980179660458816, 458805.105342444148846 ], [ 138041.504061406885739, 458805.33700729807606 ], [ 138042.026615827955538, 458805.548948830342852 ], [ 138042.549438631976955, 458805.741930326621514 ], [ 138043.074125527986325, 458805.916715117171407 ], [ 138043.602272224728949, 458806.074066490400583 ], [ 138044.135474430775503, 458806.214747751189861 ], [ 138044.675327854958596, 458806.339522216934711 ], [ 138045.223428205645178, 458806.449153179943096 ], [ 138045.781371192337247, 458806.54440394899575 ], [ 138046.350752522732364, 458806.626037827692926 ], [ 138046.933167906361632, 458806.694818121846765 ], [ 138047.530213051562896, 458806.751508134824689 ], [ 138048.143483667256078, 458806.796871180529706 ], [ 138048.774575462070061, 458806.831670549931005 ], [ 138049.425084144400898, 458806.856669556233101 ], [ 138050.096605423663277, 458806.872631501057185 ], [ 138050.790735007933108, 458806.880319690913893 ], [ 138051.509068606304936, 458806.880497431848198 ], [ 138052.253201927349437, 458806.873928023094777 ], [ 138053.024730679695494, 458806.861374775646254 ], [ 138053.825250572437653, 458806.8436009879224 ], [ 138054.65635731376824, 458806.821369970741216 ], [ 138055.519646612665383, 458806.795445032592397 ], [ 138056.416714178136317, 458806.766589467413723 ], [ 138057.298831974272616, 458806.736879762844183 ], [ 138058.069070708123036, 458806.70549708296312 ], [ 138058.807164333236869, 458806.668679427471943 ], [ 138059.516754625714384, 458806.626609911734704 ], [ 138060.201483361102873, 458806.579471635923255 ], [ 138060.864992315706331, 458806.527447710046545 ], [ 138061.510923265421297, 458806.470721227233298 ], [ 138062.142917985795066, 458806.40947530802805 ], [ 138062.764618253306253, 458806.343893056502566 ], [ 138063.379665843764087, 458806.27415756683331 ], [ 138063.991702532919589, 458806.200451952870935 ], [ 138064.604370096989442, 458806.122959322237875 ], [ 138065.221310311724665, 458806.041862778889481 ], [ 138065.846164953138214, 458805.957345428410918 ], [ 138066.482575797184836, 458805.869590366142802 ], [ 138067.134184619790176, 458805.778780716471374 ], [ 138067.804633196850773, 458805.685099569440354 ], [ 138068.497563304525102, 458805.588730041636154 ], [ 138069.216616718651494, 458805.489855229854584 ], [ 138069.965435215068283, 458805.388658245617989 ], [ 138070.747660569584696, 458805.285322186944541 ], [ 138071.566934558824869, 458805.180030170944519 ], [ 138072.426898958103266, 458805.07296529028099 ], [ 138073.331195543461945, 458804.964310663519427 ], [ 138074.283466091059381, 458804.854249391180929 ], [ 138075.243382063519675, 458804.747744966356549 ], [ 138075.999064143339638, 458804.666984159557614 ], [ 138076.74284917145269, 458804.590101233974565 ], [ 138077.474443393468391, 458804.516994793317281 ], [ 138078.1935530549963, 458804.447563434310723 ], [ 138078.899884401704185, 458804.381705748790409 ], [ 138079.593143679434434, 458804.319320349721238 ], [ 138080.273037133563776, 458804.26030582212843 ], [ 138080.939271009672666, 458804.204560776241124 ], [ 138081.591551553603495, 458804.151983808085788 ], [ 138082.22958501096582, 458804.102473507227842 ], [ 138082.853077627136372, 458804.055928486399353 ], [ 138083.461735648161266, 458804.012247330683749 ], [ 138084.055265319475438, 458803.971328652929515 ], [ 138084.633372886455618, 458803.933071041188668 ], [ 138085.195764595118817, 458803.89737310167402 ], [ 138085.742146690987283, 458803.864133430412039 ], [ 138086.272225420048926, 458803.833250624826178 ], [ 138086.785707027098397, 458803.804623283795081 ], [ 138087.282297758531058, 458803.778150001890026 ], [ 138087.761703859519912, 458803.753729391784873 ], [ 138088.223631575936452, 458803.73126004030928 ], [ 138088.667787153477548, 458803.710640553385019 ], [ 138089.09387683760724, 458803.691769519937225 ], [ 138089.501606873935089, 458803.674545550195035 ], [ 138089.890683508332586, 458803.658867239078972 ] ] ] } },
{ "type": "Feature", "properties": { "naam": null, "type": "weg", "omschrijvi": null, "fase": null, "datering": null, "status": null, "sloop": null, "werelderfg": null, "rijksmonum": null, "afbeelding": null, "bron": null, "locatie": null, "ogc_fid": null, "image_jpg": null, "document_p": null }, "geometry": { "type": "MultiLineString", "coordinates": [ [ [ 138012.271868622279726, 458592.473714924009982 ], [ 138024.1792343815614, 458625.714290976233315 ] ] ] } },
{ "type": "Feature", "properties": { "naam": null, "type": "weg", "omschrijvi": null, "fase": null, "datering": null, "status": null, "sloop": null, "werelderfg": null, "rijksmonum": null, "afbeelding": null, "bron": null, "locatie": null, "ogc_fid": null, "image_jpg": null, "document_p": null }, "geometry": { "type": "MultiLineString", "coordinates": [ [ [ 138095.127288697316544, 458803.493491238623392 ], [ 138118.445879975392018, 458803.989619236264843 ] ] ] } },
{ "type": "Feature", "properties": { "naam": null, "type": "weg", "omschrijvi": null, "fase": null, "datering": null, "status": null, "sloop": null, "werelderfg": null, "rijksmonum": null, "afbeelding": null, "bron": null, "locatie": null, "ogc_fid": null, "image_jpg": null, "document_p": null }, "geometry": { "type": "MultiLineString", "coordinates": [ [ [ 138312.032000654551666, 456451.61818915483309 ], [ 138410.100752692436799, 456479.914706535520963 ], [ 138413.495092619152274, 456478.611905103316531 ], [ 138416.120925661845831, 456477.360114227747545 ], [ 138419.270272352005122, 456475.543400016147643 ], [ 138421.668497295002453, 456473.897041390184313 ], [ 138423.946301534597296, 456472.087735610024538 ], [ 138426.607440213934751, 456469.61040316184517 ], [ 138429.043033701862441, 456466.911010743118823 ], [ 138431.234623424737947, 456464.010016153857578 ], [ 138433.861671942286193, 456459.652056040649768 ], [ 138435.939229566807626, 456455.006955980323255 ], [ 138436.867475312581519, 456452.250084671832155 ], [ 138437.754309658310376, 456448.724129493173677 ], [ 138438.3311203008343, 456445.134404632262886 ], [ 138439.763466773845721, 456437.471119441848714 ], [ 138440.609802887483966, 456435.786504213290755 ], [ 138441.493926912953611, 456434.433565665152855 ], [ 138442.696991789416643, 456432.982067056407686 ], [ 138444.067725166038144, 456431.687731972371694 ], [ 138445.813354913465446, 456430.425490905181505 ], [ 138447.717437533574412, 456429.418046061531641 ], [ 138449.743032510217745, 456428.684942581108771 ], [ 138451.850841902691172, 456428.240403162781149 ], [ 138453.999972754478222, 456428.093052178330254 ], [ 138456.148730444605462, 456428.245748347078916 ], [ 138458.255427591211628, 456428.695529249496758 ], [ 138461.008642419270473, 456429.782063875871245 ], [ 138543.055622055631829, 456454.33155384066049 ], [ 138546.82076551951468, 456456.302583636716008 ], [ 138549.865210727701196, 456458.439093909342773 ], [ 138551.870726745837601, 456460.1826372545911 ], [ 138553.718244095041882, 456462.092798904923256 ], [ 138555.393969194177771, 456464.155317585042212 ], [ 138556.602405943296617, 456465.904716921213549 ], [ 138557.938299124216428, 456468.201982104335912 ], [ 138558.861066516954452, 456470.11750233679777 ], [ 138559.824857742292807, 456472.594020940421615 ], [ 138560.439665270067053, 456474.629390467947815 ], [ 138560.912377308821306, 456476.702374012616929 ], [ 138561.24073461786611, 456478.803064113599248 ], [ 138561.423167872824706, 456480.921420908533037 ], [ 138561.458805168484105, 456483.047320107521955 ], [ 138561.296727395820199, 456485.699822454014793 ], [ 138561.002520907961298, 456487.805566969560459 ], [ 138560.563528865837725, 456489.885952372627798 ], [ 138559.917459611664526, 456494.639294281892944 ], [ 138560.042143007187406, 456497.345447260711808 ], [ 138560.462868454982527, 456500.705099159677047 ], [ 138561.174802393070422, 456504.015298673242796 ], [ 138562.172526705107884, 456507.250853796780575 ], [ 138563.448448289476801, 456510.387140596692916 ], [ 138565.332957682810957, 456513.98610775108682 ], [ 138567.183862171834335, 456516.821319089794997 ], [ 138569.274825562606566, 456519.484426833398174 ], [ 138571.58993474332965, 456521.955163612146862 ], [ 138574.639018457179191, 456524.639754592964891 ], [ 138577.383026779396459, 456526.623359674413223 ], [ 138580.289474070275901, 456528.360263505834155 ], [ 138583.336241042736219, 456529.837247520626988 ], [ 138587.793129604047863, 456531.447349228023086 ], [ 138592.413017679646146, 456532.502298192353919 ] ] ] } },
{ "type": "Feature", "properties": { "naam": null, "type": "weg", "omschrijvi": null, "fase": null, "datering": null, "status": null, "sloop": null, "werelderfg": null, "rijksmonum": null, "afbeelding": null, "bron": null, "locatie": null, "ogc_fid": null, "image_jpg": null, "document_p": null }, "geometry": { "type": "MultiLineString", "coordinates": [ [ [ 138410.100752692436799, 456479.914706535520963 ], [ 138412.494786403811304, 456482.377374611678533 ], [ 138414.665673924522707, 456485.038836396939587 ], [ 138416.596978609450161, 456487.878940910915844 ], [ 138417.959632432262879, 456490.265238253748976 ], [ 138419.424128926766571, 456493.371905513457023 ], [ 138420.397748940536985, 456495.941595081472769 ], [ 138421.359562001278391, 456499.238722176116426 ], [ 138421.920297787204618, 456501.928855219390243 ], [ 138422.355866226513172, 456505.335673615511041 ], [ 138422.493626352777937, 456508.767459391907323 ], [ 138422.332535129535245, 456512.198229139845353 ], [ 138421.873812242352869, 456515.602007157576736 ], [ 138421.120930862496607, 456518.953022089903243 ], [ 138420.310588470776565, 456521.578776385867968 ], [ 138419.319518469099421, 456524.141786463442259 ], [ 138417.939627445215592, 456526.875885196437594 ], [ 138417.397331076906994, 456528.252897308848333 ], [ 138416.98649935121648, 456529.893287011771463 ], [ 138416.80593495053472, 456531.574672624352388 ], [ 138416.839657418255229, 456533.054236920608673 ], [ 138417.010736184602138, 456534.311382793355733 ], [ 138417.737723474216182, 456536.738910622952972 ], [ 138418.949509584228508, 456538.964438945928123 ], [ 138420.594041792966891, 456540.892369373177644 ], [ 138422.600678610469913, 456542.439886927604675 ], [ 138425.08288417084259, 456543.610434508475009 ], [ 138504.175495190400397, 456568.770328726328444 ], [ 138508.143355935055297, 456569.68171876569977 ], [ 138511.611491440213285, 456570.073217840108555 ], [ 138515.101548983773682, 456570.100305601314176 ], [ 138518.575343479344156, 456569.762685682624578 ], [ 138521.994867775007151, 456569.06405201961752 ], [ 138525.322708495834377, 456568.012048434407916 ], [ 138529.040810689213686, 456566.353655609651469 ], [ 138532.046987452398753, 456564.58048424765002 ], [ 138534.399417125736363, 456562.86945374176139 ], [ 138536.593883961933898, 456560.960038626333699 ], [ 138538.613709774246672, 456558.866750666988082 ], [ 138540.785460959799821, 456556.134584467741661 ], [ 138542.3690820291813, 456553.694564983539749 ], [ 138543.734169938688865, 456551.125891051895451 ], [ 138544.870349871693179, 456548.448084876756184 ], [ 138546.48080704928725, 456544.271300150023308 ], [ 138548.118357009312604, 456541.570720150542911 ], [ 138550.026194184087217, 456539.053805482981261 ], [ 138552.183893466630252, 456536.747501955833286 ], [ 138554.568354751652805, 456534.676500623638276 ], [ 138557.154050244425889, 456532.862973404699005 ], [ 138559.913297756575048, 456531.326335737539921 ], [ 138562.323981978028314, 456530.269279160769656 ], [ 138565.323563464713516, 456529.280738287139684 ], [ 138568.409235009457916, 456528.607438005798031 ], [ 138571.547961732489057, 456528.256586591247469 ], [ 138574.706140750728082, 456528.231940234545618 ], [ 138577.849960927007487, 456528.533762785664294 ], [ 138580.945764848438557, 456529.158822968835011 ], [ 138583.960409159306437, 456530.100428956036922 ] ] ] } }
]
}
