{
"type": "FeatureCollection",
"name": "Prehistorie",
"crs": { "type": "name", "properties": { "name": "urn:ogc:def:crs:EPSG::28992" } },
"features": [
{ "type": "Feature", "properties": { "Titel": "Hogeweide", "Periode": "IJZL", "Verhaal": "Proefonderzoek op de Hoge Weide dat enkele bijzondere resultaten opleverde. Op de eerste van de 2 onderzochte percelen werden huisplattegronden aangetroffen die te dateren zijn tussen 25 voor en 50 na Christus. Op het andere perceel werd een tot dan toe onbekende crevassegeul ontdekt waarin ongekende hoeveelheden materiaal werden aangetroffen uit de late ijzertijd en vroeg-Romeinse periode. Na de derde eeuw werden deze percelen verlaten, om pas vanaf de elfde en twaalfde eeuw weer in gebruik te worden genomen. ", "Literatuur": "Basisrapportage 03: Sportpark Terweide, Basisrapportage Archeologie 18: Sportpark Terweide ", "Link": "https://erfgoed.utrecht.nl/fileadmin/uploads/documenten/zz-erfgoed/publicaties/rapporten-archeologie/03BRArchSportparkTerweide-scherm_1_.pdf" }, "geometry": { "type": "Point", "coordinates": [ 132956.0, 456438.0 ] } },
{ "type": "Feature", "properties": { "Titel": "A2 verlegging: Huppeldijk 1", "Periode": "IJZM-IJZL", "Verhaal": "Tijdens dit proefonderzoek zijn sporen aangetroffen uit het einde van de midden en het begin van de late IJzertijd. Vanwege de beperkte omvang en de slechte conservering van de sporen, is tijdens dit proefonderzoek besloten alle sporen af te graven. Het gevonden aardewerk vertoont overeenkomsten met de zogeheten Broekpolder II-stijl, dat in gebruik was in het Zuid-Hollandse kustgebied ten tijde van de late IJzertijd.", "Literatuur": "Basisrapportage 04: Twee IJzertijdvindplaatsen langs de snelweg ", "Link": "https://erfgoed.utrecht.nl/fileadmin/uploads/documenten/zz-erfgoed/publicaties/rapporten-archeologie/04BRArchTweeIJzertijd-scherm_1_.pdf" }, "geometry": { "type": "Point", "coordinates": [ 132977.0, 456921.0 ] } },
{ "type": "Feature", "properties": { "Titel": "A2 verlegging: Hogeweide 1/1a", "Periode": "IJZM-IJZL", "Verhaal": "Tijdens dit proefonderzoek zijn sporen aangetroffen uit het einde van de midden en het begin van de late IJzertijd. Vanwege de beperkte omvang en de slechte conservering van de sporen, is tijdens dit proefonderzoek besloten alle sporen af te graven. Het gevonden aardewerk vertoont overeenkomsten met de zogeheten Broekpolder II-stijl, dat in gebruik was in het Zuid-Hollandse kustgebied ten tijde van de late IJzertijd.", "Literatuur": "Basisrapportage 04: Twee IJzertijdvindplaatsen langs de snelweg ", "Link": "https://erfgoed.utrecht.nl/fileadmin/uploads/documenten/zz-erfgoed/publicaties/rapporten-archeologie/04BRArchTweeIJzertijd-scherm_1_.pdf" }, "geometry": { "type": "Point", "coordinates": [ 133252.0, 456343.0 ] } },
{ "type": "Feature", "properties": { "Titel": "Wilhelminalaan", "Periode": "IJZL", "Verhaal": "In het najaar van 2001 heeft de sectie Cultuurhistorie van de gemeente Utrecht met ondersteuning van ADC Archeoprojecten een nederzetting uit de midden- en late IJzertijd (ca. 300 - 100 v. Chr.) opgegraven in het bouwplan Vleuterweide. De vindplaats was gelegen aan de Wilhelminalaan ten zuiden van de dorpskern van Vleuten. Van de nederzetting zijn onder meer 2 lange woonstalhuizen, 6 spiekers voor de opslag van landbouwproducten, een waterput en een structuur bestaande uit 2 parallel lopende greppels opgegraven. Voor de kennis van de ijzertijdbewoning in het rivierengebied zijn de opgegraven resten belangrijk.", "Literatuur": "Basisrapportage 09 In de schoot van het landschap Vleuterweide Wilhelminalaan ", "Link": "https://erfgoed.utrecht.nl/fileadmin/uploads/documenten/zz-erfgoed/publicaties/rapporten-archeologie/Brarch_9_Wilhelminalaan_150506_scherm_1_.pdf" }, "geometry": { "type": "Point", "coordinates": [ 129450.0, 456750.0 ] } },
{ "type": "Feature", "properties": { "Titel": "De Woerd", "Periode": "IJZM-IJZL", "Verhaal": "In 2004 is er door de gemeente Utrecht archeologisch onderzoek verricht in Leidsche Rijn deelplan De Woerd. Het onderzoek had hoofdzakelijk betrekking op het zuidelijk deel van de burgerlijke nederzetting (vicus) die hoorde bij het Romeinse castellum op de Hoge Woerd. In totaal is er 4,5 ha vlakdekkend onderzocht, waarvan het leeuwendeel van de sporen inderdaad Romeins bleek te zijn.\n\nTijdens het onderzoek zijn onder meer 2 Romeinse wegen gevonden. De eerste daarvan, die noordwest-zuidoost was georiënteerd, had een oppervlakte van ruim 8.000 m² en is grotendeels onderzocht. De tweede was noordoost-zuidwest georiënteerd en lag daarmee min of meer haaks op de eerste.\n\nOok van de vicus zijn sporen teruggevonden. De aanleg van de vroegste fase kon in de (midden- of laat-) Flavische tijd worden gedateerd. Vanaf de tweede helft en met name in het laatste kwart van de tweede eeuw nam de menselijke activiteit sterk toe. Wat die activiteit op het onderzochte terrein precies inhield, is niet geheel duidelijk, maar op grond van het ecologisch vondstmateriaal kan worden aangenomen dat er paarden zijn gehouden. Mogelijk wijst dit op een voornamelijk agrarische functie van dit terreindeel. Aan het einde van de tweede eeuw veranderde het terrein in een erf met een gebouw en een waterput. In het tweede kwart van de derde eeuw werd het terrein waarschijnlijk verlaten.\n\nTijdens het onderzoek zijn 64 crematies aangetroffen, die in 4 verschillende clusters verspreid lagen over het terrein.\n\nHet onderzoek heeft nieuwe inzichten opgeleverd over de ontwikkeling van de vicus en de infrastructuur rondom het Romeinse castellum op de Hoge Woerd. Daarnaast zijn er aanknopingspunten voor verder onderzoek naar de sociale en politieke relaties tussen de bewoners van de inheemse nederzetting en de vertegenwoordigers van het Romeinse gezag in het castellum.", "Literatuur": "Basisrapportage Archeologie 19: Een goede buur?", "Link": "https://erfgoed.utrecht.nl/fileadmin/uploads/documenten/zz-erfgoed/publicaties/rapporten-archeologie/BrArch_19_Een_goede_Buur_1_.pdf" }, "geometry": { "type": "Point", "coordinates": [ 131400.0, 455100.0 ] } },
{ "type": "Feature", "properties": { "Titel": "Oudenrijnseweg", "Periode": "IJZL", "Verhaal": "In 2003 en 2004 is archeologisch onderzoek verricht op 3 percelen bij de Oudenrijnseweg in De Meern, gemeente Utrecht. Tijdens het onderzoek is een nederzetting aangetroffen uit het begin van onze jaartelling. Daaronder bevonden zich sporen van een woonstalboerderij uit omstreeks 40 tot 80 na Chr. met een omliggende erf. Ten noorden en oosten van de boerderijplattegrond zijn plattegronden van 24 bijgebouwen aangetroffen. De eerste-eeuwse nederzetting is niet lang in gebruik geweest, mogelijk maar 2 generaties. Dat kan te maken hebben gehad met de verlanding van de geul, maar enige druk vanuit het Romeinse leger is ook denkbaar, aangezien in dezelfde periode de Romeinse limesweg is aangelegd op slechts enkele honderden meters afstand.", "Literatuur": "Basisrapportage archeologie 25: Oudenrijnseweg ", "Link": "https://erfgoed.utrecht.nl/fileadmin/uploads/documenten/zz-erfgoed/publicaties/rapporten-archeologie/BrA25_Oudenrijnseweg_1_.pdf" }, "geometry": { "type": "Point", "coordinates": [ 131445.0, 454118.0 ] } },
{ "type": "Feature", "properties": { "Titel": "Burg Middelweerdbaan", "Periode": "BRTM", "Verhaal": "In de periode tussen 24 april en 7 juni 2006 en van 29 mei tot en met 19 juli 2007 is archeologisch onderzoek verricht aan de Burgemeester Middelweerdbaan in De Meern. De daar geplande nieuwbouw bevond zich rond een wettelijk beschermd monument uit de bronstijd, waardoor archeologisch onderzoek noodzakelijk was. Tijdens het onderzoek zijn in een restgeul inderdaad sporen met een bronstijddatering aangetroffen. Deze geul ontstond in de midden-bronstijd en verlandde uiteindelijk in de vroege ijzertijd. In de vullingslagen bleek veel vondstmateriaal aanwezig, waaronder geweifragmenten. Deze fragmenten waren waarschijnlijk afval van een ambachtsman die gereedschappen maakte. In totaal zijn 18 geweifragmenten verzameld, waarvan 16 van het edelhert (Cervus elaphus) en 2 van de eland (Alces alces).\n\nNadat de restgeul verland was, bewoog de rivier zich naar het oosten en verwijderde zich daarmee van de bronstijdrestgeul. In deze periode werd het gebied rond de restgeul wel weer bewoond, zo bleek uit de vondst van waterputten, waterkuilen, kuilen, greppels, staken en paalkuilen. Het aangetroffen aardewerk is voornamelijk handgevormd, en kon in het begin van de eerste eeuw na Chr. worden gedateerd.\n\nDoordat de bovengenoemde sporen uit de vroeg-Romeinse tijd dateren en de restgeul in de bronstijd, is er een tweedeling in het onderzoek ontstaan. In dit rapport worden daarom eerst de resultaten van het onderzoek naar de bronstijdrestgeul gepresenteerd en vervolgens de resultaten van de analyse van de vroeg-Romeinse sporen.", "Literatuur": "Basisrapportage 31 Gewei uit de geul", "Link": "https://erfgoed.utrecht.nl/fileadmin/uploads/documenten/zz-erfgoed/publicaties/rapporten-archeologie/BrA31_Gewei_uit_de_geul_1_.pdf" }, "geometry": { "type": "Point", "coordinates": [ 130874.0, 455945.0 ] } },
{ "type": "Feature", "properties": { "Titel": "HOV-de Meern", "Periode": "NEOL", "Verhaal": "In verband met de herontwikkeling van een gebied in en rondom het bedrijventerrein Oudenrijn in De Meern, zijn tussen november 2006 en juli 2008 op 8 verschillende locaties 9 archeologische onderzoeken uitgevoerd, alle ondergebracht in het project LR60. Doel van deze onderzoeken was het vaststellen van de aanwezigheid, het uiterlijk en de datering van de Romeinse limesweg.\n\nDe locatiekeuze hing samen met de verwachte ligging van de weg, zoals deze was geprojecteerd op basis van grondboringen en eerdere opgravingen in de directe omgeving. De verwachting klopte en het archeologisch onderzoek langs de Oudenrijnseweg heeft dan ook veel nieuwe informatie opgeleverd over de datering, de tracékeuze en de constructiewijze van de limesweg in de tweede helft van de tweede eeuw.\n\nEen verrassende ontdekking tijdens het onderzoek was een eerste-eeuwse crevassegeul met in de vulling bijzondere vondsten. Ondanks het ontbreken van nederzettingssporen op de oevers van de geul, lijken de vondsten te verwijzen naar (gedeeltelijk rituele?) activiteiten die er langs de rivier hebben plaatsgevonden. De ontdekking maakte dat doel- en vraagstellingen, die aanvankelijk waren gericht op de aanwezigheid van de Romeinse limesweg, tijdens het onderzoek moesten worden uitgebreid en toegespitst op de inheemse bewoning in het gebied en wel vlak vóór als na de aanleg van de limesweg.", "Literatuur": "Basisrapportage archeologie 33 Op zoek naar de weg", "Link": "https://erfgoed.utrecht.nl/fileadmin/uploads/documenten/zz-erfgoed/publicaties/rapporten-archeologie/BRArch_33_Op_zoek_naar_de_weg_1_.pdf" }, "geometry": { "type": "Point", "coordinates": [ 131399.0, 454880.0 ] } },
{ "type": "Feature", "properties": { "Titel": "Rijksstraatweg", "Periode": "IJZL", "Verhaal": "Een deel van de Heldammer stroomrug in Leidsche Rijn maakt onderdeel uit van een gebied dat reeds eeuwen bekend staat als Veldhuizen. De middeleeuwse bewoning daar gaat terug tot de 12e eeuw. Die oudste erven lagen direct ten zuiden van de Leidsche Rijn. De 13e- en 14e-eeuwse erven daarentegen lagen enkele honderden meters meer naar het zuiden. Een blik op de bodemkaart leert dat de 12e-eeuwse erven midden op de stroomrug lagen, terwijl de latere erven meer langs de rand daarvan waren gesitueerd. Door de grootschalige ontwatering van het gebied als gevolg van de cope-ontginningen (ontginning volgens contract in de 12e en 13e eeuw) klonk de bodem in het komgebied in, waardoor de oude stroomrug zichtbaar werd als een hoge rug in het landschap. Het laaggelegen komgebied was vanaf ongeveer 1250 alleen nog geschikt om als grasland, waardoor de boerderijen naar de overgang van bouwland naar grasland verschoven.\n\nMet de uitkomsten van de opgraving in 1998 en een bestudering van de al bestaande informatie over de middeleeuwse bewoning zijn de ideeën over de veranderende erven verder uitgewerkt. Het blijkt dat de verschuiving zich aan de oostzijde van Veldhuizen aanzienlijk vroeger voltrok dan aan de westzijde. Dit heeft vermoedelijk te maken met de oriëntatie van de zuidelijke begrenzing van de stroomrug, waardoor aan de oostzijde van Veldhuizen het grasland aanzienlijk verder verwijderd lag van de oorspronkelijke erven langs de ontginningswetering dan aan de westzijde.", "Literatuur": "Basisrapportage Archeologie 38: Veranderend landschap en schuivende erven ", "Link": "https://erfgoed.utrecht.nl/fileadmin/uploads/documenten/zz-erfgoed/publicaties/rapporten-archeologie/BRArch_38_Rijksstraatweg.pdf" }, "geometry": { "type": "Point", "coordinates": [ 129220.0, 455460.0 ] } },
{ "type": "Feature", "properties": { "Titel": "Hoge Woerd-oost", "Periode": "IJZL", "Verhaal": "Het in dit rapport behandelde onderzoek bestaat uit 2 fases: de eerste daarvan werd in november 2008 als inventariserend archeologisch veldonderzoek uitgevoerd aan de Vlindersingel/Langerakbaan in Vleuten-De Meern, gemeente Utrecht. Aanleiding daarvoor was de voorgenomen bouw van de onderkomens voor de Stichting Bouwloods en een kinderdagverblijf, waarbij de eventueel aanwezige archeologie in de ondergrond bedreigd werd. Ook de in april 2009 op verzoek van de RCE gedane waarneming aan de Groenedijk valt hier onder. Fase 2 vond plaats in augustus 2009 toen door de aanleg van een sloot binnen de begrenzing van het archeologisch rijksmonument op de Hoge Woerd de archeologische resten aldaar bedreigd werden.\n\nHet onderzoek heeft meer duidelijkheid gegeven over de begrenzing van Romeinse activiteiten rond het castellum Hoge Woerd. De afwezigheid van sporen en vondstmateriaal bij fase 1 en 2 duidt erop dat er geen bewoning of activiteiten plaatsvonden op de onderzoekslocaties ten tijde van de bewoning van vicus en castellum. De waarneming Groenedijk betreft een randzone van de vicus. De sporendichtheid werd minder groot in oostelijke richting. Voor zowel fase 1 als fase 2 wordt geen vervolgonderzoek geadviseerd. Voorafgaand aan de bouwactiviteiten moet dit selectieadvies door het bevoegd gezag worden beoordeeld en onderschreven in een selectiebesluit.", "Literatuur": "Basisrapportage Archeologie 47: Achter het castellum", "Link": "https://erfgoed.utrecht.nl/fileadmin/uploads/documenten/zz-erfgoed/publicaties/rapporten-archeologie/BRArch_47_LR66-DVD-website_low_res_8-11_1_.pdf" }, "geometry": { "type": "Point", "coordinates": [ 131652.0, 455670.0 ] } },
{ "type": "Feature", "properties": { "Titel": "Regio Haarpad", "Periode": "IJZ", "Literatuur": "Westerheem 45, 1996", "Link": null }, "geometry": { "type": "Point", "coordinates": [ 128332.0, 458417.0 ] } },
{ "type": "Feature", "properties": { "Titel": "Duurstedelaan", "Periode": "BRTM", "Verhaal": "In 2011 heeft definitief archeologisch onderzoek plaatsgevonden aan de Duurstedelaan in de wijk Hoograven te Utrecht. Er zijn daarbij sporen gevonden uit zowel de Romeinse periode als de bronstijd. Zo werd de limesweg aangetroffen die bestond uit een kunstmatig opgeworpen weglichaam van klei dat was verstevigd met 2 onderbroken rijen eikenhouten palen. Op de flanken was nog wat wegverharding van grind en tegulafragmenten zichtbaar. Uit de helling van de grindlagen in de profielen valt af te leiden dat het weglichaam minimaal 50 cm hoog moet zijn geweest. Het dakpanmateriaal uit de wegverharding was waarschijnlijk afkomstig van het in 70 na Chr. verwoeste legioenskamp te Xanten. Gezien de verschillende vondsten is de limesweg bij de Duurstedelaan gemaakt tijdens de eerste aanlegfase, die in West-Nederland rond de tweede helft van de jaren '80 van de eerste eeuw moet hebben gelegen.\n\nTen zuiden van de restgeul werd dwars over het opgravingsterrein een vlechtwerkstructuur van wilgentenen aangetroffen die over 35 meter kon worden gevolgd. De mat lag in oude beddingafzettingen, parallel aan de oever van de restgeul. Dit betekent dat het vlechtwerk op een oudere oeverlijn terecht is gekomen toen de rivier nog naar het noorden migreerde en dus nog watervoerend was. Door middel van 14C-onderzoek is het vlechtwerk gedateerd tussen 1890 en 1692 voor Chr. (midden-bronstijd A). Het behoort daarmee tot de oudste bewoningssporen die in de gemeente Utrecht gevonden zijn. Voor bewoning in de bronstijd zijn alleen indirecte aanwijzingen aangetroffen.", "Literatuur": "Basisrapportage Archeologie 62: Weg water en wilgentenen ", "Link": "https://erfgoed.utrecht.nl/fileadmin/uploads/documenten/zz-erfgoed/publicaties/rapporten-archeologie/BRArch_62_Duurstedelaan.pdf" }, "geometry": { "type": "Point", "coordinates": [ 136690.0, 452974.0 ] } },
{ "type": "Feature", "properties": { "Titel": "Themaat", "Periode": "IJZL", "Verhaal": "In april 2010 heeft archeologisch onderzoek plaatsgevonden aan de Thematerweg 10 te Haarzuilens, gemeente Utrecht. De Thematerweg is onderdeel van de ontginningsbasis van de middeleeuwse polder Themaat. Bij het onderzoek stond de vraag centraal of er archeologische sporen aanwezig zijn in de zone direct ten noorden van de Thematerweg. En als dat het geval was, moest worden vastgesteld of die bewoning in verband kan worden gebracht met de ontginning van de Themaat en of er mogelijk een verschuiving van bewoning is opgetreden, zoals eerder voor Veldhuizen is vastgesteld.\n\nOp de kop van 3 huidige percelen, die worden gescheiden door sloten, zijn voornamelijk middeleeuwse sporen ontdekt. Deze bestaan uit greppels of sloten, kuilen en paalkuilen. Structuren, zoals huisplattegronden of hooibergplattegronden, zijn echter niet te reconstrueren als gevolg van de geringe sleufbreedte. De vroegste sporen aan de ontginningsbasis dateren tussen circa 1125-1220 en zijn daarmee ouder dan de sporen van bewoning die noordelijker werden aangetroffen (LR52). Er zijn geen directe aanwijzingen gevonden voor een systematische verschuiving van bewoning vanaf de ontginningsbasis naar een noordelijke zone halverwege de polder.\n\nDoor het onderzoek is er meer inzicht verkregen in de ontwikkelingsgeschiedenis van de polder Themaat en een datering voor in ieder geval 1 fase van ontginning kan worden aangescherpt: namelijk de restontginning. Uit het onderzoek blijkt nu dat deze op zijn vroegst in het tweede kwart van de twaalfde eeuw kan worden gedateerd. Na de definitieve inrichting van de polder (na 1226) werd er vanaf 1250 zowel aan de ontginningsbasis als dieper in de polder gewoond.", "Literatuur": "Basisrapportage Archeologie 67: Terug naar Themaat II ", "Link": "https://erfgoed.utrecht.nl/fileadmin/uploads/documenten/zz-erfgoed/publicaties/rapporten-archeologie/BRArch_67-Themaat-totaal-DVD_website-low_res_13-2_LR72_1_.pdf" }, "geometry": { "type": "Point", "coordinates": [ 128842.0, 459308.0 ] } },
{ "type": "Feature", "properties": { "Titel": "Park Transwijk", "Periode": "IJZM-IJZL", "Verhaal": "Uit archeologisch booronderzoek in 2007-2008 bleek dat het tracé van de Romeinse limesweg het braakliggende perceel doorkruiste waar tot voor kort de scholengemeenschap Niels Stensen College had gestaan. In een daaropvolgend proefsleuvenonderzoek kwamen er nog meer sporen van de weg aan het licht, waarop werd besloten tot een definitieve opgraving, die in 2009 is uitgevoerd.\n\nHet onderzoeksterrein bleek van noordwest naar zuidoost te worden doorsneden door een grote restgeul. De eerste menselijke activiteit op het terrein gaat terug tot in de midden IJzertijd of het begin van de late IJzertijd, zo bleek uit de vondst van een fuik uit 420-200 voor Chr. Pas kort voor het begin van de jaartelling is er sprake van bewoning. In het eerste decennium na Chr. zijn er 2 of 3 brugconstructies gebouwd. De gebruikte gereedschappen en houtbewerkingstechnieken laten zien dat er nauwe contacten waren tussen de inheemse bewoners en het Romeinse leger. In de eerste helft van de eerste eeuw wordt de nederzetting weer verlaten.\n\nOp de noordoostelijke oever van de restgeul werden 4 parallelle greppels aangetroffen, die verband hielden met de oudste limesweg uit de late eerste eeuw na Chr. Het weglichaam zelf, waarvan geen spoor werd waargenomen, bevond zich vermoedelijk net ten noordoosten hiervan of lag tussen de greppels in. Voor een onderhoudsbeurt van deze weg - waarschijnlijk rond 100 na Chr. - zijn kleine basaltblokken gebruikt, mogelijk als onderdeel van de wegverharding. In het eerste kwart van de tweede eeuw heeft de restgeul veel water gevoerd, waarna een laag grof zand en grind achterbleef. Honderden hoefindrukken van vermoedelijk schapen, geiten, koeien en paarden laten zien dat er daarover vee heeft gelopen. Kort daarop moet een nieuwe weg zijn aangelegd, waarvan op basis van een 14C-datering mag worden verondersteld dat dat gebeurde tijdens de grote onderhoudscampagne in de jaren 124/125 na Chr.\n\nDe eerstvolgende menselijke activiteit vond plaats in de 122e of 13e eeuw, maar pas met de bouw van Kanaleneiland in 1957 was er voor het eerst sinds zo'n 2.000 jaar weer sprake van bewoning.", "Literatuur": "Basisrapportage 74: IJzertijd en limesweg in Kanaleneiland ", "Link": "https://erfgoed.utrecht.nl/fileadmin/uploads/documenten/zz-erfgoed/publicaties/rapporten-archeologie/AML-DVD-website-low_res_10-12_1_.pdf" }, "geometry": { "type": "Point", "coordinates": [ 135035.0, 453887.0 ] } },
{ "type": "Feature", "properties": { "Titel": "Hoofddijk PMC", "Periode": "STT-IJZ", "Verhaal": "Voorafgaand aan de bouw van het Prinses Máxima Centrum en de Uithoflijn is er archeologisch onderzoek verricht. Uit het onderzoek is gebleken dat vanaf circa 11000 voor Chr. tot in het eerste kwart van de eerste eeuw na Chr. het gebied bewoond is geweest. In de vroegste fase, het laat-paleolithicum, lieten de jager-verzamelaars niets meer achter dan een kuiltje met houtskool, waarschijnlijk een kuilhaard. Later, in het mesolithicum, zijn de sporen van bewoning talrijker. Slechts enkele stukken vuur- en natuursteen kunnen aan deze periode worden toegeschreven, maar een groot aantal paalkuilen, kuilen en kuilhaarden vormen de opvallende restanten van meer dan 2500 jaar bewoning tussen 8800 en 6200 voor Chr.\n\nNa ongeveer 3.000 jaar werd het onderzoeksgebied tussen 2900 en 2575 voor Chr. bewoond door neolithische boeren van de Stein-Vlaardingencultuur. Niet eerder zijn in de regio Utrecht sporen van deze groep aangetroffen. Het vondstmateriaal uit deze periode bestaat uit aardewerkscherven en vuur- en natuursteen, voornamelijk brokken maar ook enkele werktuigen. Weer 1.000 jaar later was er een crevassegeul ontstaan die tussen 1500 en 1200 voor Chr. opnieuw mensen aantrok. Het landschap werd verder in cultuur gebracht met erven, tuinen, akkers en graslanden, hoewel bosjes en heideveldjes bleven bestaan. De volgende bewoningsfase lag in de vroege/midden-ijzertijd tussen 700 en 200 voor Chr.", "Literatuur": "Basisrapportage 112: Utrecht in de prehistorie", "Link": "https://erfgoed.utrecht.nl/fileadmin/uploads/documenten/zz-erfgoed/publicaties/rapporten-archeologie/112-Onderzoeksrapport-Utrecht-in-de-prehistorie-2018.pdf" }, "geometry": { "type": "Point", "coordinates": [ 141052.0, 455784.0 ] } },
{ "type": "Feature", "properties": { "Titel": "Winklerlaan", "Periode": "MESO", "Verhaal": "In april 2016 is langs de Eykmanlaan te Utrecht een rioolcunet onderzocht op archeologische resten. Mogelijk zouden daar sporen zitten vanaf het paleolithicum tot en met het neolithicum. In de top van het dekzand zijn inderdaad sporen gevonden die door middel van 14C-analyse gedateerd konden worden in het mesolithicum, tussen 7453 en 7048 voor Chr. Er zijn zowel haardkuilen als paalsporen aangetroffen. Mogelijk stammen de paalsporen uit een latere bewoningsfase. Waarschijnlijk strekt de vindplaats zich naar het noorden, zuiden en westen uit over de hogere delen van de dekzandrug.\n\nHoewel er maar een klein oppervlak is onderzocht, geeft het huidige onderzoek aan dat er op oude dekzandruggen binnen de gemeente grote kans is op het aantreffen van prehistorische bewoning. Toekomstig onderzoek ten westen van de huidige onderzoekslocatie kan meer duidelijkheid geven over de aard en omvang van de vindplaats langs de Eykmanlaan.", "Literatuur": "Basisrapportage 121: Sporen uit de steentijd", "Link": "https://erfgoed.utrecht.nl/fileadmin/uploads/documenten/zz-erfgoed/publicaties/rapporten-archeologie/2017-BrA-121-sporen-uit-steentijd-Eykmanlaan.pdf" }, "geometry": { "type": "Point", "coordinates": [ 137867.0, 458113.0 ] } },
{ "type": "Feature", "properties": { "Titel": "Haarzicht", "Periode": "IJZV-IJZM-IJZL", "Literatuur": "Basisrapportage 149", "Link": null }, "geometry": { "type": "Point", "coordinates": [ 128969.0, 458387.0 ] } },
{ "type": "Feature", "properties": { "Titel": "Isotopenweg", "Periode": "IJZ", "Literatuur": "Basisrapportage 201", "Link": null }, "geometry": { "type": "Point", "coordinates": [ 132466.0, 459043.0 ] } },
{ "type": "Feature", "properties": { "Titel": "Europalaan 12", "Periode": "IJZM-IJZL" }, "geometry": { "type": "Point", "coordinates": [ 135878.0, 453865.0 ] } },
{ "type": "Feature", "properties": { "Titel": "Domplein", "Periode": "IJZ", "Verhaal": "In de jaren 1956 en 1964 zijn in de Pandhof van de Domkerk in Utrecht opgravingen uitgevoerd waarbij resten van Romeinse gebouwen tevoorschijn zijn gekomen. Zo legde W. Stooker, hoofdopzichter bij de Dienst Openbare Werken, in het eerstgenoemde jaar 5 putten aan in de zuidwestelijke hoek van de pandhof. Met een waarneming in het meest noordwestelijke deel van de Pandhof vond 8 jaar later onder leiding van C. Isings van de Rijksuniversiteit Utrecht een vervolg op dit onderzoek plaats.\n\nBeide onderzoeken zijn toen echter nooit uitgewerkt en gepubliceerd. Dankzij het onderzoeksprogramma Odyssee is dat nu wel mogelijk geweest. Met deze subsidie, de hulp van de Afdeling Erfgoed van de gemeente Utrecht en de Universiteit Utrecht kon het Odysseeproject 'Thuis in een Utrechts castellum: binnenbebouwing van de forten van het Domplein en de Hoge Woerd' worden uitgevoerd.\n\nUit het onderzoek naar de opgravingen van Stooker en Isings zijn uiteindelijk 7 gebouwen gereconstrueerd. De meeste sporen verwijzen naar verschillende houtbouwfasen en een steenbouwfase van het Romeinse castellum. De uitwerking van het onderzoek heeft vooral veel bouwtechnische informatie over de binnenbebouwing opgeleverd, die een goede basis vormt voor de vergelijking van bouwtechnieken in de binnenbebouwing van andere castella in de omgeving en daarbuiten.\n\nUit de uitwerking van deze opgravingen is gebleken dat het ook na 55 jaar nog mogelijk is om veel nieuwe informatie, nieuwe ideeën en nieuwe vragen uit de veldtekeningen, foto's en vondsten te destilleren. Het is dan ook waardevol om meer archieven van gemeenten, archeologische instituten en universiteiten te heropenen om oude opgravingen opnieuw te bekijken of alsnog uit te werken. Een vervolg op het Odysseeprogramma is daarom zeer gewenst.", "Literatuur": "Basisrapportage Archeologie 93: Binnenbebouwing van het Romeinse castellum", "Link": "https://erfgoed.utrecht.nl/fileadmin/uploads/documenten/zz-erfgoed/publicaties/rapporten-archeologie/BrA_93_Binnenbebouwing_castellum_Domplein_Erfgoed_gemeente_Utrecht.pdf" }, "geometry": { "type": "Point", "coordinates": [ 136866.0, 455845.0 ] } },
{ "type": "Feature", "properties": { "Titel": "Vicuslaan", "Periode": "IJZ" }, "geometry": { "type": "Point", "coordinates": [ 131320.0, 455430.0 ] } },
{ "type": "Feature", "properties": { "Titel": "Lange Nieuwstraat", "Periode": "IJZL", "Literatuur": "Kroniek provincie Utrecht 1994-1995", "Link": null }, "geometry": { "type": "Point", "coordinates": [ 137009.0, 455229.0 ] } }
]
}
