{
"type": "FeatureCollection",
"name": "ROM_Objecten",
"crs": { "type": "name", "properties": { "name": "urn:ogc:def:crs:EPSG::28992" } },
"features": [
{ "type": "Feature", "properties": { "id": null, "Naam": "Rijnvliet", "Type": "Brug", "Info": "Paaljukbrug uit de tweede eeuw, opgegraven in 2018. De brug ligt op de plek waar de limesweg een dichtgeslibde rivierbedding uit de bronstijd kruiste. Ergens aan het begin van de tweede eeuw vormde zich in die laagte een doorbraakgeul (crevasse). In de herfst of winter van 114-115 werd het hout gekapt voor een eenvoudige paaljukbrug, die limesweg voortaan over dit geultje voerde. De brug werd in 125 vervangen door een steviger constructie van vier rijen van telkens vier palen. Deze moeten met een zeker 10 meter hoge heistelling in de bodem zijn gedreven. In 156 en 157 werd er wederom reparatiewerk aan de brug uitgevoerd." }, "geometry": { "type": "MultiPoint", "coordinates": [ [ 133325.239141999569256, 454661.484519283345435 ] ] } },
{ "type": "Feature", "properties": { "id": null, "Naam": "Waterland", "Type": "Brug", "Info": "Paaljukbrug uit het jaar 125, opgegraven in 1998. Het brugdek rustte op zes jukken van telkens vier palen, die met een heistelling metersdiep in de veenbodem waren gedreven. Door de aanleg van de brug ontstond er een ongeveer 15 lange coupure in de limesweg. Hierdoor kon overstromingswater beter naar het lager gelegen achterland wegvloeien. Omdat de landhoofden van de brug al in het jaar 100 werden aangelegd, moet de brug van 125 een voorganger hebben gehad, die dan vermoedelijk op horizontale liggers heeft gerust en daardoor geen archeologische sporen heeft achtergelaten. Tegen het eind van de tweede eeuw, bezweek de brug onder grote druk vanuit het noorden, mogelijk door kruiend ijs. De brug werd toen vervangen door een gronddam." }, "geometry": { "type": "MultiPoint", "coordinates": [ [ 129434.577885188875371, 455052.744727441750001 ] ] } },
{ "type": "Feature", "properties": { "id": null, "Naam": "Meerndijk", "Type": "Brug", "Info": "Op of rond deze plek moet in de Romeinse tijd een brug hebben gelegen. Verder naar het zuiden is vastgesteld dat de Meerndijk is aangelegd op de vulling van een waterloop uit de Romeinse tijd, die in later tijd de naam Mare heeft gekend. De limesweg moet deze waterloop door middel van een brug hebben gekruist. Vermoedelijk gaat het net als bij de brug van Waterland, 1500 meter naar het westen, om een paaljukbrug. Het kan gaan om een flinke constructie, want de waterloop was ongeveer 20 meter breed. De resten van de brug zullen nog in de bodem bewaard zijn." }, "geometry": { "type": "MultiPoint", "coordinates": [ [ 130821.353477298805956, 454479.806219464808237 ] ] } },
{ "type": "Feature", "properties": { "id": null, "Naam": "De Balije", "Type": "Brug", "Info": "Bij het herstel van de limesweg in het jaar 125 moet op deze plek een brug zijn aangelegd. Dat kunnen we afleiden uit een overloopgeul (crevasse), die rond het jaar 120 ontstond en die de hele tweede eeuw in open verbinding stond met de rivier. De limesweg moet deze zijkreek door middel van een brug hebben gekruist. Vermoedelijk gaat het net als bij de brug van Waterland, 600 meter naar het westen, om een eenvoudige paaljukbrug. De resten daarvan zullen nog in de bodem bewaard zijn. Het betreffende terrein behoort tot het Werelderfgoed van de Neder-Germaanse Limes.\n\n " }, "geometry": { "type": "MultiPoint", "coordinates": [ [ 129923.797659845396993, 454754.113441333582159 ] ] } },
{ "type": "Feature", "properties": { "id": null, "Naam": "Zonnewijzer", "Type": "Wachttoren", "Info": "Amateurvondsten uit de jaren ‘70 van de vorige eeuw wijzen op een kleine militaire wachtpost ter plaatse van de dierenweide naast Seniorencomplex De Zonnewijzer. Net als de wachtpost bij Gemeentewerf De Stits was deze gelegen in een noordwaartse rivierbocht. De vondst van een kogel\n\nvan gebakken klei verraadt de aanwezigheid van Romeins geschut, waarmee de rivier kon worden bestreken. " }, "geometry": { "type": "MultiPoint", "coordinates": [ [ 130610.044573229810339, 455032.656488807406276 ] ] } },
{ "type": "Feature", "properties": { "id": null, "Naam": "Gemeentewerf De Stits", "Type": "Wachttoren", "Info": "In 2001 werd op het terrein van de tegenwoordige Gemeentewerf een cirkelvormige greppel opgegraven. In een riviergeul pal ten noorden ervan bevond zich een grote hoeveelheid aardewerk, steenmateriaal, botten en ander afval. Ook kwam een reeks palingfuiken voor den dag, en een steigertje, met ernaast een handvol Romeinse geschutskogels. Alles bij elkaar wijst het vondstcomplex op een militaire wachtpost, die hier tussen ca. 140 en 230 heeft gefunctioneerd. Diverse zolen van vrouwen- en kinderschoenen suggereren dat soldatengezinnen periodiek overkwamen naar deze buitenpost. Daar hield men zich onder andere bezig met kleinschalige tuinbouw, beweiding, leerlooien en slacht van runderen, varkens en schapen – en incidenteel ook paarden en honden. " }, "geometry": { "type": "MultiPoint", "coordinates": [ [ 128821.565650071512209, 455976.133350993215572 ] ] } },
{ "type": "Feature", "properties": { "id": null, "Naam": "Groot Zandveld", "Type": "Wachttoren", "Info": "De eerste Romeinse vondsten van Park Groot Zandveld dateren al van 1927. In dat jaar werd een nieuwe sloot gegraven door de toenmalige kwekerij ’t Zand. De vondsten trokken de aandacht van het Rijksmuseum van Oudheden in Leiden. In 2003 werd aan de zuidkant van het terrein een wachttoren uit het midden van de eerste eeuw ontdekt. Nog voor het jaar 70 verrees iets noordelijker een opvolger. De wachtpost van Groot Zandveld lag dichtbij een splitspunt van de Rijn en bleef daar functioneren tot in de derde eeuw. De omvang van de vindplaats wijst zeker voor die latere periode op een wat grotere installatie, misschien wel een klein fort. Het terrein behoort tot het Werelderfgoed van de Neder-Germaanse Limes." }, "geometry": { "type": "MultiPoint", "coordinates": [ [ 131978.839535311766667, 456361.099091785144992 ] ] } },
{ "type": "Feature", "properties": { "id": null, "Naam": "Rijksstraatweg", "Type": "Rurale Nederzetting", "Info": "Even ten zuiden van de Rijksstraatweg, achter huisnummers 50-57, ontwikkelde zich na het jaar 70 een plattelandsnederzetting. Deze telde waarschijnlijk enkele gelijktijdige boerderijen. In 1995 is een klein deel ervan opgegraven. De nederzetting werd aan de noordkant strak begrensd door een doorlopende greppel. Deze lag ongeveer 100 meter ten zuiden van, vermoedelijk, de oudste fase van de limesweg. Duidt dit, net als verder naar het westen, op een militaire reserveringszone langs de limesweg? " }, "geometry": { "type": "MultiPoint", "coordinates": [ [ 132012.848490923846839, 454772.516562441538554 ] ] } },
{ "type": "Feature", "properties": { "id": null, "Naam": "Amaliapark", "Type": "Rurale Nederzetting", "Info": "In 1992-93, ruim voor de bouw van Leidsche Rijn, is een archeologische veldkartering uitgevoerd in het plangebied. Waar nu het Amaliapark is, wezen grondboringen op de aanwezigheid van een omvangrijke nederzetting uit de Romeinse tijd. Waarschijnlijk hebben hier, in het directe achterland van de limes, enkele boerderijen bijeen gelegen. Voor het behoud van deze vindplaats zijn bij de planvorming van Leidsche Rijn 7 hectaren vrijgehouden van bebouwing – daar danken we het Amaliapark aan. " }, "geometry": { "type": "MultiPoint", "coordinates": [ [ 132262.286040334438439, 455866.256396227749065 ] ] } },
{ "type": "Feature", "properties": { "id": null, "Naam": "Heldammersingel", "Type": "Rurale Nederzetting", "Info": "In dit deel van de wijk Veldhuizen bevond zich tussen omstreeks 70 en 200 een nederzetting van een ongebruikelijk type. De in 1997 opgegraven sporen wijzen op hutten, veekralen of -stallen, schuttingen en kleine perceeltjes met greppels eromheen. Het lijkt erop dat men hier op bescheiden schaal heeft geakkerd dan wel getuinierd en wat vee heeft gehouden, waaronder paarden. Ook kunnen er materialen uit de vrije natuur zijn verzameld, zoals riet of wilgentenen. Volwaardige boerderijen hebben zich niet ontwikkeld in de smalle strook van hoger gelegen land die overbleef ten zuiden van de limes. Waarschijnlijk werden deze erven maar een deel van het jaar gebruikt, als ‘zomerweide’ wellicht van de boerderijen die we kennen in het directe achterland van het Romeinse castellum op de Hoge Woerd. " }, "geometry": { "type": "MultiPoint", "coordinates": [ [ 129074.239725270468625, 455171.809439774660859 ] ] } },
{ "type": "Feature", "properties": { "id": null, "Naam": "De Balije", "Type": "Rurale Nederzetting", "Info": "Tussen 2000 en 2003 zijn hier sporen opgegraven van een ongebruikelijk nederzettingstype. Daaronder bevinden zich een klein woongebouw van ongeveer 8 bij 4 meter, een reeks omgreppelde perceeltjes voor de opslag van landbouwgewassen of natuurproducten als riet en wilgentenen, en opeenvolgende greppelsystemen die wijzen op akkers of weiden voor paarden of runderen – beide soorten zijn hier aangetoond. Net als aan de Heldammersingel, 1 kilometer naar het westen, lijkt het te gaan om extensief gebruik, misschien alleen in het zomerseizoen, van een strook hoger gelegen grond die overbleef ten zuiden van de limes. In beide gevallen bedroeg de afstand tot de limesweg ongeveer 80 meter. Was deze lege zone soms gereserveerd voor militair gebruik? " }, "geometry": { "type": "MultiPoint", "coordinates": [ [ 129927.395582904093317, 454659.980059713940136 ] ] } },
{ "type": "Feature", "properties": { "id": null, "Naam": "Langerak", "Type": "Rurale Nederzetting", "Info": "In 1997 is hier, rondom de huidige Gouderaklaan, een stuk van het agrarische achterland van de limes opgegraven. Tussen de late eerste en vroege derde eeuw lagen hier twee opeenvolgende greppelsystemen, die het land in enigszins ruitvormige percelen verdeelden. Waarschijnlijk heeft daar akkerbouw plaatsgevonden. Verspreid over de percelen stonden enkele schuurtjes voor de opslag van oogstgewassen. Rond het jaar 200 is een van die opslagstructuren in vlammen opgegaan, inclusief een grote voorraad gerst, emmertarwe en haver. \n\n " }, "geometry": { "type": "MultiPoint", "coordinates": [ [ 132352.754639030667022, 455175.029691087489482 ] ] } },
{ "type": "Feature", "properties": { "id": null, "Naam": "", "Type": "Rurale Nederzetting", "Info": "" }, "geometry": { "type": "MultiPoint", "coordinates": [ ] } },
{ "type": "Feature", "properties": { "id": null, "Naam": null, "Type": "Rurale Nederzetting", "Info": null }, "geometry": { "type": "MultiPoint", "coordinates": [ ] } },
{ "type": "Feature", "properties": { "id": null, "Naam": "Archeologiepark ", "Type": "Rurale Nederzetting", "Info": "Onder het Archeologiepark en de woningen langs de Akkrumerraklaan bevinden zich de resten van een nederzetting uit de Romeinse tijd. Een paar stroken aan de oost- en westrand ervan werden opgegraven in 1998 en 1999. Daaruit blijkt dat de nederzetting zich ontwikkelde langs een oost-west gericht wegtracé uit de late eerste eeuw, misschien wel de oudste fase van de limesweg. Ten noorden ervan lagen greppelsystemen die waarschijnlijk hebben aangesloten op die van Langerak. Tezamen wijzen zij op een omvangrijk landbouwareaal in het directe achterland van de limes. " }, "geometry": { "type": "MultiPoint", "coordinates": [ [ 132898.256941919738892, 455109.34222796902759 ] ] } },
{ "type": "Feature", "properties": { "id": null, "Naam": null, "Type": "Rurale Nederzetting", "Info": null }, "geometry": { "type": "MultiPoint", "coordinates": [ [ 129785.235500463662902, 457047.187838326557539 ] ] } },
{ "type": "Feature", "properties": { "id": null, "Naam": "Admiraal Helfrichlaan", "Type": "Rurale Nederzetting", "Info": "Vondstmeldingen vanaf de jaren ’50 van de vorige eeuw wijzen op een flinke nederzetting uit de Romeinse periode rondom de Admiraal Helfrichlaan van enkele hectaren groot. De situering is bijzonder: ingesloten tussen de grensrivier, de Rijn, in het noorden en een wegtracé in het zuiden. Een klein stuk van deze weg werd in 2009 waargenomen op het bouwterrein van de Unic-school aan de Van Bijnkershoeklaan. Hij verbond het Romeinse castellum onder het Domplein met de limesweg die schuin door het tegenwoordige Kanaleneiland liep. Het zou daarom zo maar kunnen dat de nederzetting aan de Admiraal Helfrichlaan meer was dan een paar boerderijen. " }, "geometry": { "type": "MultiPoint", "coordinates": [ [ 134932.552948101016227, 454710.685990741592832 ] ] } },
{ "type": "Feature", "properties": { "id": null, "Naam": null, "Type": "Rurale Nederzetting", "Info": null }, "geometry": { "type": "MultiPoint", "coordinates": [ [ 136715.446819056465756, 452946.75289573968621 ] ] } },
{ "type": "Feature", "properties": { "id": null, "Naam": "Rijnenburg", "Type": "Rurale Nederzetting", "Info": "In het gebied Rijnenburg is een tiental plattelandsnederzettingen uit de Romeinse tijd bekend. Sommige zijn ontdekt tijdens een archeologische veldkartering in 1993. Een omvangrijk booronderzoek in 2008 leverde een reeks nieuwe vindplaatsen op. Hernieuwde veldkartering door de AWN – Vereniging van Vrijwilligers in de Archeologie in 2009-2011 en sinds 2021 leverde aanvullende informatie op. De meeste nederzettingen lijken bewoond te zijn geweest vanaf de vroeg-Romeinse periode. Vondsten van militaire uitrustingsstukken wijzen op krijgsdienst in het Romeinse leger. Sommige terreinen werden na de eerste eeuw verlaten; de meeste nederzettingen bleven bewoond tot het einde van de tweede eeuw. " }, "geometry": { "type": "MultiPoint", "coordinates": [ [ 129731.862369296330144, 452633.733187194389757 ] ] } },
{ "type": "Feature", "properties": { "id": null, "Naam": "Rijnenburg", "Type": "Rurale Nederzetting", "Info": "In het gebied Rijnenburg is een tiental plattelandsnederzettingen uit de Romeinse tijd bekend. Sommige zijn ontdekt tijdens een archeologische veldkartering in 1993. Een omvangrijk booronderzoek in 2008 leverde een reeks nieuwe vindplaatsen op. Hernieuwde veldkartering door de AWN – Vereniging van Vrijwilligers in de Archeologie in 2009-2011 en sinds 2021 leverde aanvullende informatie op. De meeste nederzettingen lijken bewoond te zijn geweest vanaf de vroeg-Romeinse periode. Vondsten van militaire uitrustingsstukken wijzen op krijgsdienst in het Romeinse leger. Sommige terreinen werden na de eerste eeuw verlaten; de meeste nederzettingen bleven bewoond tot het einde van de tweede eeuw. " }, "geometry": { "type": "MultiPoint", "coordinates": [ [ 130713.812073761786451, 452157.058579924458172 ] ] } },
{ "type": "Feature", "properties": { "id": null, "Naam": "Rijnenburg", "Type": "Rurale Nederzetting", "Info": "In het gebied Rijnenburg is een tiental plattelandsnederzettingen uit de Romeinse tijd bekend. Sommige zijn ontdekt tijdens een archeologische veldkartering in 1993. Een omvangrijk booronderzoek in 2008 leverde een reeks nieuwe vindplaatsen op. Hernieuwde veldkartering door de AWN – Vereniging van Vrijwilligers in de Archeologie in 2009-2011 en sinds 2021 leverde aanvullende informatie op. De meeste nederzettingen lijken bewoond te zijn geweest vanaf de vroeg-Romeinse periode. Vondsten van militaire uitrustingsstukken wijzen op krijgsdienst in het Romeinse leger. Sommige terreinen werden na de eerste eeuw verlaten; de meeste nederzettingen bleven bewoond tot het einde van de tweede eeuw. " }, "geometry": { "type": "MultiPoint", "coordinates": [ [ 130875.881443890946684, 451807.043222492502537 ] ] } },
{ "type": "Feature", "properties": { "id": null, "Naam": "Rijnenburg", "Type": "Rurale Nederzetting", "Info": "In het gebied Rijnenburg is een tiental plattelandsnederzettingen uit de Romeinse tijd bekend. Sommige zijn ontdekt tijdens een archeologische veldkartering in 1993. Een omvangrijk booronderzoek in 2008 leverde een reeks nieuwe vindplaatsen op. Hernieuwde veldkartering door de AWN – Vereniging van Vrijwilligers in de Archeologie in 2009-2011 en sinds 2021 leverde aanvullende informatie op. De meeste nederzettingen lijken bewoond te zijn geweest vanaf de vroeg-Romeinse periode. Vondsten van militaire uitrustingsstukken wijzen op krijgsdienst in het Romeinse leger. Sommige terreinen werden na de eerste eeuw verlaten; de meeste nederzettingen bleven bewoond tot het einde van de tweede eeuw. " }, "geometry": { "type": "MultiPoint", "coordinates": [ [ 130980.749857242466533, 452076.704860949714202 ] ] } },
{ "type": "Feature", "properties": { "id": null, "Naam": "Rijnenburg", "Type": "Rurale Nederzetting", "Info": "In het gebied Rijnenburg is een tiental plattelandsnederzettingen uit de Romeinse tijd bekend. Sommige zijn ontdekt tijdens een archeologische veldkartering in 1993. Een omvangrijk booronderzoek in 2008 leverde een reeks nieuwe vindplaatsen op. Hernieuwde veldkartering door de AWN – Vereniging van Vrijwilligers in de Archeologie in 2009-2011 en sinds 2021 leverde aanvullende informatie op. De meeste nederzettingen lijken bewoond te zijn geweest vanaf de vroeg-Romeinse periode. Vondsten van militaire uitrustingsstukken wijzen op krijgsdienst in het Romeinse leger. Sommige terreinen werden na de eerste eeuw verlaten; de meeste nederzettingen bleven bewoond tot het einde van de tweede eeuw. " }, "geometry": { "type": "MultiPoint", "coordinates": [ [ 132157.455186359991785, 452130.501002009375952 ] ] } },
{ "type": "Feature", "properties": { "id": null, "Naam": "Rijnenburg", "Type": "Rurale Nederzetting", "Info": "In het gebied Rijnenburg is een tiental plattelandsnederzettingen uit de Romeinse tijd bekend. Sommige zijn ontdekt tijdens een archeologische veldkartering in 1993. Een omvangrijk booronderzoek in 2008 leverde een reeks nieuwe vindplaatsen op. Hernieuwde veldkartering door de AWN – Vereniging van Vrijwilligers in de Archeologie in 2009-2011 en sinds 2021 leverde aanvullende informatie op. De meeste nederzettingen lijken bewoond te zijn geweest vanaf de vroeg-Romeinse periode. Vondsten van militaire uitrustingsstukken wijzen op krijgsdienst in het Romeinse leger. Sommige terreinen werden na de eerste eeuw verlaten; de meeste nederzettingen bleven bewoond tot het einde van de tweede eeuw. " }, "geometry": { "type": "MultiPoint", "coordinates": [ [ 132112.51158210192807, 451737.58492834988283 ] ] } },
{ "type": "Feature", "properties": { "id": null, "Naam": "Rijnenburg", "Type": "Rurale Nederzetting", "Info": "In het gebied Rijnenburg is een tiental plattelandsnederzettingen uit de Romeinse tijd bekend. Sommige zijn ontdekt tijdens een archeologische veldkartering in 1993. Een omvangrijk booronderzoek in 2008 leverde een reeks nieuwe vindplaatsen op. Hernieuwde veldkartering door de AWN – Vereniging van Vrijwilligers in de Archeologie in 2009-2011 en sinds 2021 leverde aanvullende informatie op. De meeste nederzettingen lijken bewoond te zijn geweest vanaf de vroeg-Romeinse periode. Vondsten van militaire uitrustingsstukken wijzen op krijgsdienst in het Romeinse leger. Sommige terreinen werden na de eerste eeuw verlaten; de meeste nederzettingen bleven bewoond tot het einde van de tweede eeuw. " }, "geometry": { "type": "MultiPoint", "coordinates": [ [ 132360.382386230514385, 450680.729217450425494 ] ] } },
{ "type": "Feature", "properties": { "id": null, "Naam": "Rijnenburg", "Type": "Rurale Nederzetting", "Info": "In het gebied Rijnenburg is een tiental plattelandsnederzettingen uit de Romeinse tijd bekend. Sommige zijn ontdekt tijdens een archeologische veldkartering in 1993. Een omvangrijk booronderzoek in 2008 leverde een reeks nieuwe vindplaatsen op. Hernieuwde veldkartering door de AWN – Vereniging van Vrijwilligers in de Archeologie in 2009-2011 en sinds 2021 leverde aanvullende informatie op. De meeste nederzettingen lijken bewoond te zijn geweest vanaf de vroeg-Romeinse periode. Vondsten van militaire uitrustingsstukken wijzen op krijgsdienst in het Romeinse leger. Sommige terreinen werden na de eerste eeuw verlaten; de meeste nederzettingen bleven bewoond tot het einde van de tweede eeuw. " }, "geometry": { "type": "MultiPoint", "coordinates": [ [ 131965.423421732499264, 450635.78560904454207 ] ] } },
{ "type": "Feature", "properties": { "id": null, "Naam": "Rijnenburg", "Type": "Rurale Nederzetting", "Info": "In het gebied Rijnenburg is een tiental plattelandsnederzettingen uit de Romeinse tijd bekend. Sommige zijn ontdekt tijdens een archeologische veldkartering in 1993. Een omvangrijk booronderzoek in 2008 leverde een reeks nieuwe vindplaatsen op. Hernieuwde veldkartering door de AWN – Vereniging van Vrijwilligers in de Archeologie in 2009-2011 en sinds 2021 leverde aanvullende informatie op. De meeste nederzettingen lijken bewoond te zijn geweest vanaf de vroeg-Romeinse periode. Vondsten van militaire uitrustingsstukken wijzen op krijgsdienst in het Romeinse leger. Sommige terreinen werden na de eerste eeuw verlaten; de meeste nederzettingen bleven bewoond tot het einde van de tweede eeuw. " }, "geometry": { "type": "MultiPoint", "coordinates": [ [ 131917.755957436718745, 451211.880926144134719 ] ] } },
{ "type": "Feature", "properties": { "id": null, "Naam": "Rijnenburg", "Type": "Rurale Nederzetting", "Info": "In het gebied Rijnenburg is een tiental plattelandsnederzettingen uit de Romeinse tijd bekend. Sommige zijn ontdekt tijdens een archeologische veldkartering in 1993. Een omvangrijk booronderzoek in 2008 leverde een reeks nieuwe vindplaatsen op. Hernieuwde veldkartering door de AWN – Vereniging van Vrijwilligers in de Archeologie in 2009-2011 en sinds 2021 leverde aanvullende informatie op. De meeste nederzettingen lijken bewoond te zijn geweest vanaf de vroeg-Romeinse periode. Vondsten van militaire uitrustingsstukken wijzen op krijgsdienst in het Romeinse leger. Sommige terreinen werden na de eerste eeuw verlaten; de meeste nederzettingen bleven bewoond tot het einde van de tweede eeuw. " }, "geometry": { "type": "MultiPoint", "coordinates": [ [ 130854.090605605597375, 451589.134828106150962 ] ] } },
{ "type": "Feature", "properties": { "id": null, "Naam": "Haarpad/Joostenlaan", "Type": "Rurale Nederzetting", "Info": "In 1994-95 hebben amateur-archeologen een veldkartering uitgevoerd op de akkers rond het Haarpad en de Joostenlaan. Daarbij zijn enkele tientallen kleine vindplaatsen uit de ijzertijd en de Romeinse tijd ontdekt. Voor zeker vijf terreinen is bewoning, of althans activiteit, in de Romeinse tijd aangetoond. Wat opvalt is dat telkens maar enkele scherven van Romeins, op de draaischijf gemaakt aardewerk zijn gevonden. Aan de zuidkant van de limes is dit beeld heel anders: daar vinden we veel meer van dit soort ‘import’-aardewerk, wat wijst op een levendige economische uitwisseling. Betekent dit dat de nederzettingen ten noorden van de limes grotendeels afgesneden waren van dit verkeer? " }, "geometry": { "type": "MultiPoint", "coordinates": [ [ 128091.940337413892848, 458636.390536580933258 ] ] } },
{ "type": "Feature", "properties": { "id": null, "Naam": "Haarpad/Joostenlaan", "Type": "Rurale Nederzetting", "Info": "In 1994-95 hebben amateur-archeologen een veldkartering uitgevoerd op de akkers rond het Haarpad en de Joostenlaan. Daarbij zijn enkele tientallen kleine vindplaatsen uit de ijzertijd en de Romeinse tijd ontdekt. Voor zeker vijf terreinen is bewoning, of althans activiteit, in de Romeinse tijd aangetoond. Wat opvalt is dat telkens maar enkele scherven van Romeins, op de draaischijf gemaakt aardewerk zijn gevonden. Aan de zuidkant van de limes is dit beeld heel anders: daar vinden we veel meer van dit soort ‘import’-aardewerk, wat wijst op een levendige economische uitwisseling. Betekent dit dat de nederzettingen ten noorden van de limes grotendeels afgesneden waren van dit verkeer? " }, "geometry": { "type": "MultiPoint", "coordinates": [ [ 128165.937302482197993, 458430.419606386742089 ] ] } },
{ "type": "Feature", "properties": { "id": null, "Naam": "Haarpad/JoostenLaan", "Type": "Rurale Nederzetting", "Info": "In 1994-95 hebben amateur-archeologen een veldkartering uitgevoerd op de akkers rond het Haarpad en de Joostenlaan. Daarbij zijn enkele tientallen kleine vindplaatsen uit de ijzertijd en de Romeinse tijd ontdekt. Voor zeker vijf terreinen is bewoning, of althans activiteit, in de Romeinse tijd aangetoond. Wat opvalt is dat telkens maar enkele scherven van Romeins, op de draaischijf gemaakt aardewerk zijn gevonden. Aan de zuidkant van de limes is dit beeld heel anders: daar vinden we veel meer van dit soort ‘import’-aardewerk, wat wijst op een levendige economische uitwisseling. Betekent dit dat de nederzettingen ten noorden van de limes grotendeels afgesneden waren van dit verkeer? " }, "geometry": { "type": "MultiPoint", "coordinates": [ [ 128485.573673808670719, 458211.480137418606319 ] ] } },
{ "type": "Feature", "properties": { "id": null, "Naam": null, "Type": "Rurale Nederzetting", "Info": null }, "geometry": { "type": "MultiPoint", "coordinates": [ [ 129009.655263498061686, 458312.558467256836593 ] ] } },
{ "type": "Feature", "properties": { "id": null, "Naam": "Zuidelijke Binnenstad", "Type": "Rurale Nederzetting", "Info": "Tussen 1993 en 2000 zijn op diverse locaties in de zuidelijke binnenstad aanwijzingen gevonden voor landelijke bewoning gedurende de Romeinse periode. Het lijkt erop dat een 400 meter brede stroomrug in het onmiddellijke achterland van het Utrechtse castellum, ongeveer tussen de huidige Vrouwjuttenstraat en de Agnietenstraat, tamelijk intensief werd bewoond en beakkerd. Resten van boerderijen en omliggende erven en akkers zijn onder meer opgegraven in oude Hortus Botanicus aan de Nieuwegracht, bij de Vrouwjuttenhof, de Eligenstraat en de Pasteurstraat. " }, "geometry": { "type": "MultiPoint", "coordinates": [ [ 136612.911455587687669, 454988.418481297267135 ] ] } },
{ "type": "Feature", "properties": { "id": null, "Naam": null, "Type": "Rurale Nederzetting", "Info": null }, "geometry": { "type": "MultiPoint", "coordinates": [ ] } },
{ "type": "Feature", "properties": { "id": null, "Naam": null, "Type": "Rurale Nederzetting", "Info": null }, "geometry": { "type": "MultiPoint", "coordinates": [ ] } },
{ "type": "Feature", "properties": { "id": null, "Naam": null, "Type": "Rurale Nederzetting", "Info": null }, "geometry": { "type": "MultiPoint", "coordinates": [ [ 136930.109288955165539, 454592.181025648489594 ] ] } },
{ "type": "Feature", "properties": { "id": null, "Naam": "Zuidelijke binnenstad ", "Type": "Rurale Nederzetting", "Info": "Tussen 1993 en 2000 zijn op diverse locaties in de zuidelijke binnenstad aanwijzingen gevonden voor landelijke bewoning gedurende de Romeinse periode. Het lijkt erop dat een 400 meter brede stroomrug in het onmiddellijke achterland van het Utrechtse castellum, ongeveer tussen de huidige Vrouwjuttenstraat en de Agnietenstraat, tamelijk intensief werd bewoond en beakkerd. Resten van boerderijen en omliggende erven en akkers zijn onder meer opgegraven in oude Hortus Botanicus aan de Nieuwegracht, bij de Vrouwjuttenhof, de Eligenstraat en de Pasteurstraat. \n\n " }, "geometry": { "type": "MultiPoint", "coordinates": [ [ 137085.701429418171756, 455278.368585464137141 ] ] } },
{ "type": "Feature", "properties": { "id": null, "Naam": "De Meern 1", "Type": "Scheepsvondsten", "Info": "Op deze plek werd in 1997 het schip De Meern 1 ontdekt en in 2003 opgegraven. Het gaat om een zogenaamde rivierpraam van het type Zwammerdam. Binnen die grotere familie staat De Meern 1 enigszins op zichzelf door zijn ranke bouw (2,7 m breed bij een lengte van 24,6 m) en door de aanwezigheid van een kajuit op het achterschip. Het vaartuig werd gebouwd omstreeks 150 en ging ongeveer 40 jaar later verloren door een ongeluk. Daarop wijzen de talrijke stukken scheepsinventaris en gereedschappen die in de kajuit gevonden zijn. Deze zijn samen met het schip te bewonderen in Castellum Hoge Woerd." }, "geometry": { "type": "MultiPoint", "coordinates": [ [ 129846.826074907090515, 454805.522248573426623 ] ] } },
{ "type": "Feature", "properties": { "id": null, "Naam": "De Meern 2/3", "Type": "Scheepsvondsten", "Info": "Vlak na de ontdekking van de De Meern 1 in 1997 werden in dezelfde Romeinse rivierbocht delen van een of twee boomstamkano’s gevonden. De ligging wijst op een datering omstreeks het jaar 200. De geborgen resten bevinden zich onder water in een depot van Batavialand in Lelystad." }, "geometry": { "type": "MultiPoint", "coordinates": [ [ 129786.94332167848188, 454890.149940179719124 ] ] } },
{ "type": "Feature", "properties": { "id": null, "Naam": "De Meern 4", "Type": "Scheepsvondsten", "Info": "Het schip De Meern 4 werd in 2003 ontdekt en voor een klein deel blootgelegd tijdens onderzoek in het tracé van een toekomstige rioolsleuf. In 2005 is het nogmaals onderzocht in aanwezigheid van het Britse TV-programma Time Team. Het minstens 4,7 meter brede vrachtschip is vermoedelijk 30 tot 35 m lang. Het werd omstreeks 100 gebouwd, met gebruikmaking van veer-en-deuvel-verbindingen (naast ijzeren nagels). Het lag tegen een kribconstructie uit het jaar 100. Basaltbrokken die de krib bekleedden, lagen ook in het schip, dat met een van zijn uiteinden opmerkelijk hoog op de kant (getrokken?) lag. Dit alles wijst erop dat het schip opzettelijk tegen de krib is afgezonken, vermoedelijk in een uiterste poging om de stroom weg te leiden van de oever. Kort daarna is de limesweg verder naar het westen over grote lengte weggeslagen tijdens een rivierdoorbraak." }, "geometry": { "type": "MultiPoint", "coordinates": [ [ 130015.586560209630989, 454769.394638299942017 ] ] } },
{ "type": "Feature", "properties": { "id": null, "Naam": "De Meern 5", "Type": "Scheepsvondsten", "Info": "Omstreeks 1980 werd op deze plek bij het graven van een singel een schip gevonden. Flinke delen ervan moeten zich nog in de bodem bevinden. De beschrijving door de graafmachinist ruim twintig jaar later, die onder meer sprak van lange ijzeren nagels, doet vermoeden dat het om een Romeins schip gaat. Bovendien heeft op deze plek na de derde eeuw geen rivier meer gestroomd. Dit brengt het aantal Romeinse vaartuigen gevonden in één en dezelfde rivierbocht potentieel op vijf. En dat terwijl er van die rivierbocht maar 10% is ontgraven tot het niveau waarop scheepsresten te verwachten zijn. Dat geeft te denken over het aantal Romeinse schepen dat in de Rijndelta nog ligt te wachten op ontdekking." }, "geometry": { "type": "MultiPoint", "coordinates": [ [ 130309.556436283135554, 454999.770023421267979 ] ] } },
{ "type": "Feature", "properties": { "id": null, "Naam": "De Meern 6", "Type": "Scheepsvondsten", "Info": "Van dit ongeveer 11 meter lange vaartuig zijn naast enkele spanten alleen een vlak- en een boordplank bewaard gebleven. In de vlakplank bleek een uitsparing voor een stevenbalk aanwezig. Dit maakt De Meern 6 tot een punter-achtig vaartuig, of beter nog: een zogenaamde bok. Het scheepje is na het jaar 158 gebouwd met hout afkomstig uit het Zeeuws/Vlaamse kustgebied. Het lijkt als twee druppels water op opgegraven bokken uit de 15e een 16e eeuw, maar het is verre van zeker dat dit soort schepen sinds de Romeinse tijd continu is gebruik is gebleven." }, "geometry": { "type": "MultiPoint", "coordinates": [ [ 131276.124687877309043, 455642.70541023981059 ] ] } },
{ "type": "Feature", "properties": { "id": null, "Naam": "De Meern 7", "Type": "Scheepsvondsten", "Info": "Van dit schip is slechts een losse spant gevonden. Het gaat om een rivierpraam die na het jaar 74 is gebouwd. De vorm van de spant wijst op een bouwtraditie die vooral bekend is uit het Gallische achterland, met name de Rhônedelta. Het gebruikte hout komt echter uit de regio. Net als De Meern 4 wijst De Meern 7 dus op de overdracht van scheepsbouwtechnieken uit het verre zuiden naar de noordelijke grensstreek." }, "geometry": { "type": "MultiPoint", "coordinates": [ [ 131333.94536214377149, 455690.184762558201328 ] ] } },
{ "type": "Feature", "properties": { "id": null, "Naam": "Utrecht 7", "Type": "Scheepsvondsten", "Info": "In een werk uit 1546 vermeldt de Utrechtse historicus Lambertus Hortensius (1500/1-1574) nogal terloops de ontdekking van een schip onder het claustrale huis Domplein 5-8. In of kort na 1505 was dit vanaf de fundamenten herbouwd. Bij ‘nogal diep’ graafwerk zou toen een ‘rank scheepje’ (lembus) zijn gevonden. Dit was ‘klaarblijkelijk van hoge ouderdom en beladen met kruiken (urceolis) van aardewerk, tot verwondering van de aanschouwers.’ In de eerste eeuw lag de zuidoever van de Rijn precies op de plek van het claustrale huis; daarna is de rivier naar het noorden opgeschoven. Een eerste-eeuwse datering voor het schip met de kruiken is daarmee haast onvermijdelijk, tenzij er juist hier later een insteekhaven heeft bestaan. " }, "geometry": { "type": "MultiPoint", "coordinates": [ [ 136771.049632877198746, 455909.139348783064634 ] ] } },
{ "type": "Feature", "properties": { "id": null, "Naam": "Utrecht 8", "Type": "Scheepsvondsten", "Info": "In 1925 zou een ‘schuit’ zijn gevonden bij het graven van 5 meter diepe funderingssleuven voor het nieuwe pand van boekhandel Broese, Domstraat 1-3. Het waargenomen deel was anderhalf meter breed. Volgens een ooggetuigeverslag van ruim 20 jaar later had het schip 10 centimeter dikke huidplanken. De spanten lagen een meter uit elkaar. Het is niet zeker dat het schip uit de Romeinse tijd stamt; de ‘schuit’ zou ook vroeg-middeleeuws kunnen zijn, want we weten dat de Rijn tussen de vierde en negende eeuw in de hele zone tussen het stenen castellum en het Oudkerkhof actief is geweest. " }, "geometry": { "type": "MultiPoint", "coordinates": [ [ 136836.299082384095527, 455981.962762029725127 ] ] } },
{ "type": "Feature", "properties": { "id": null, "Naam": "Vechten 1", "Type": "Scheepsvondsten", "Info": null }, "geometry": { "type": "MultiPoint", "coordinates": [ [ 139519.936547681223601, 452336.918775703001302 ] ] } },
{ "type": "Feature", "properties": { "id": "", "Naam": "De Balije", "Type": "Wachttoren", "Info": "In 2003 ontdekten Utrechtse archeologen aan de oostzijde van park De Balije twee opeenvolgende Romeinse wachttorens. De eerste toren verrees mogelijk al in de jaren 40 van de eerste eeuw langs een zuidwaartse rivierbocht. Hij werd herbouwd of gerepareerd tussen 55 en 62. Rond het jaar 70 bouwde men een meter of dertig naar het westen een nieuwe wachttoren, nadat de rivierbocht over eenzelfde afstand was opgeschoven. " }, "geometry": { "type": "MultiPoint", "coordinates": [ [ 129965.580290210928069, 454729.395157869847026 ] ] } },
{ "type": "Feature", "properties": { "id": null, "Naam": "Zandweg", "Type": "Wachttoren", "Info": "Een van de belangrijkste archeologische ontdekkingen in Leidsche Rijn is de Romeinse wachttoren achter Zandweg, in het uiterste westen van de wijk Vleuterweide. De oudste toren dateert vermoedelijk al uit de jaren 40 van de eerste eeuw, kort na de aanleg van de eerste forten op de zuidoever van de Rijn. Op de eerste verdieping bevond zich het eigenlijke wachtlokaal, met een balkon eromheen. Op de begane grond was de slaapruimte, met in een hoek een stookplaats. Hieromheen vonden de archeologen een dikke laag keukenafval. Deze leverde veel informatie op over het menu van de torenwachters, die zich tegoed hebben gedaan aan vis en waterwild uit de omgeving. Na een reparatie in de jaren 50 werd de toren in het jaar 62 geheel herbouwd, nu met twee verdiepingen. Rond beide torens stond een palissade, met daaromheen een of twee greppels. " }, "geometry": { "type": "MultiPoint", "coordinates": [ [ 128269.551590813527582, 455909.369453760562465 ] ] } }
]
}
