{
"type": "FeatureCollection",
"name": "ROM_Castella2",
"crs": { "type": "name", "properties": { "name": "urn:ogc:def:crs:EPSG::28992" } },
"features": [
{ "type": "Feature", "properties": { "id": null, "Naam": "Hoge Woerd", "Info": "De Hoge Woerd bij De Meern staat al vanaf de zestiende eeuw bekend als vindplaats van Romeinse oudheden. Van het fort (castellum) is een klein deel opgegraven, met name door het toenmalige Archeologisch Instituut van de Universiteit Utrecht. In 1973 vond men sporen van soldatenbarakken, in 1982 kwam een van de hoofdstraten (via principalis) aan het licht, met een daaraan gelegen werkplaats (fabrica). De verdedigingswerken en straten van het fort zijn sinds 1991 stapsgewijs in kaart gebracht met natuurwetenschappelijke prospectietechnieken. De talrijke muntvondsten van de Hoge Woerd wijzen erop dat het eerste fort rond het jaar 41 werd gebouwd. Na vier of vijf bouwfasen in hout en aarde werd het castellum tegen het einde van de tweede eeuw in steen herbouwd. In die vorm bestond het tot omstreeks 270. Tussen 2013 en 2015 werd Castellum Hoge Woerd gebouwd, een moderne replica van het Romeinse fort – op ware schaal en op de authentieke plek. Het terrein behoort tot het Werelderfgoed van de Neder-Germaanse Limes. ", "Type": "Castellum" }, "geometry": { "type": "MultiPolygon", "coordinates": [ [ [ [ 131299.461906610958977, 455507.368096935679205 ], [ 131300.802189411886502, 455508.461897986824624 ], [ 131302.879866274714004, 455508.877433369925711 ], [ 131304.77945655194344, 455508.758708987210412 ], [ 131308.163101736747194, 455507.927638258435763 ], [ 131328.227524064277532, 455502.228867535246536 ], [ 131352.506662322615739, 455495.699026095797308 ], [ 131372.096187079383526, 455490.297066349652596 ], [ 131373.995777359727072, 455489.644082201528363 ], [ 131375.123659091012087, 455488.783330362057313 ], [ 131376.103135333221871, 455487.655448641395196 ], [ 131376.93420608912129, 455485.815220569784287 ], [ 131377.171654881967697, 455484.271803469222505 ], [ 131377.141973790712655, 455482.995516254450195 ], [ 131376.904525011923397, 455481.897315626381896 ], [ 131363.013771341502434, 455438.889404452813324 ], [ 131346.095545716088964, 455386.769396165153012 ], [ 131344.896520055277506, 455382.978728762594983 ], [ 131344.341475320485188, 455381.840887038677465 ], [ 131343.495032096805517, 455380.675293079577386 ], [ 131341.788269524928182, 455379.468070756702218 ], [ 131340.761436756787589, 455378.968530484882649 ], [ 131338.707771217334084, 455378.607751393050421 ], [ 131336.934403270308394, 455378.58832481893478 ], [ 131271.655351675057318, 455400.689830756629817 ], [ 131269.458950412925333, 455401.580263691837899 ], [ 131267.7077656184847, 455403.12368078273721 ], [ 131266.787651566322893, 455405.349763130943757 ], [ 131266.401797280530445, 455407.397758895822335 ], [ 131266.876694840320852, 455409.178624781779945 ], [ 131297.729134650231572, 455504.946115113911219 ], [ 131298.398168632906163, 455506.351086494803894 ], [ 131299.461906610958977, 455507.368096935679205 ] ] ] ] } },
{ "type": "Feature", "properties": { "id": null, "Naam": null, "Info": null, "Type": "Castellum" }, "geometry": { "type": "MultiPolygon", "coordinates": [ [ [ [ 139426.730837929790141, 452185.234296686423477 ], [ 139426.063756070681848, 452187.449097753618844 ], [ 139426.063756058574654, 452189.749322339252103 ], [ 139426.638812183751725, 452193.487187280494254 ], [ 139428.939036749186926, 452196.362468022271059 ], [ 139432.653976477013202, 452199.173380627704319 ], [ 139572.415544482326368, 452287.508867771306541 ], [ 139574.715769061411265, 452287.79639585071709 ], [ 139578.166105932585197, 452287.796395870856941 ], [ 139581.041665535012726, 452286.85201247833902 ], [ 139583.91666739952052, 452284.921115174598526 ], [ 139658.386438773799455, 452176.810560315730982 ], [ 139659.666226407891372, 452173.469727913907263 ], [ 139659.446066652250011, 452169.53437190578552 ], [ 139658.098910757806152, 452166.172021627950016 ], [ 139656.336309834005078, 452164.19549730187282 ], [ 139654.46495174113079, 452162.461739051621407 ], [ 139652.348349333711667, 452160.996516292798333 ], [ 139521.23554867398343, 452078.763486865034793 ], [ 139517.497683734953171, 452077.900902622670401 ], [ 139514.909931080066599, 452078.18843068316346 ], [ 139512.126648258563364, 452079.136425047647208 ], [ 139426.730837929790141, 452185.234296686423477 ] ] ] ] } },
{ "type": "Feature", "properties": { "id": null, "Naam": "Domplein", "Info": "Pas in 1929 werd duidelijk dat Utrecht een Romeinse oorsprong heeft. Op initiatief van de vereniging Oud-Utrecht vond toen onderzoek plaats naar de ligging van de Heilige Kruiskapel. Geheel onverwacht kwam een Romeinse waterput voor de dag. Tussen 1933 en 1949 volgde een reeks opgravingen onder leiding van de Utrechtse onderzoekers C.W. Vollgraff en G. van Hoorn en de Groningse hoogleraar A.E. van Giffen. Daaruit bleek dat zich onder het Domplein vijf opeenvolgende forten (castella) bevonden, de eerste vier van hout en aarde, het laatste grotendeels van steen. In deze Periode V, die begon rond 200, was het fort ruim 35 meter naar het noorden uitgebreid. Daarmee werd het Utrechtse castellum, Traiectum genaamd, een van de grotere in de Rijndelta.\n\nOmstreeks 270 kwam er een einde aan de bezetting. Nadat de naburige forten in Vechten en De Meern afgesneden waren geraakt van actieve rivierlopen, diende Traiectum zich rond 695 als vanzelf aan als Frankische missiepost voor de Friese gebieden, ook vanwege de nabijheid van de Vecht. Vanuit dit vroege kerkelijke steunpunt zou de grootste middeleeuwse stad van de Noordelijke Nederlanden ontstaan. Romeinse lagen en een klein deel van het hoofdkwartier van Periode V zijn tegenwoordig te bezichtigen in DOMunder. Het terrein behoort tot het Werelderfgoed van de Neder-Germaanse Limes. ", "Type": "Castellum" }, "geometry": { "type": "MultiPolygon", "coordinates": [ [ [ [ 136723.012089866737369, 455888.607235333765857 ], [ 136722.602318803517846, 455890.803608166694175 ], [ 136722.74983637323021, 455892.442692369513679 ], [ 136723.274343310098629, 455894.130949107173365 ], [ 136724.126667089178227, 455895.589734055160079 ], [ 136725.241244342265418, 455896.933783108543139 ], [ 136727.257317908137338, 455898.261441324371845 ], [ 136729.191437267290894, 455898.982638385321479 ], [ 136853.450410685181851, 455940.81206796731567 ], [ 136857.826765507168602, 455942.213484986044932 ], [ 136858.875779398164013, 455942.361002573161386 ], [ 136859.900207026686985, 455942.377393422008026 ], [ 136861.399969076242996, 455942.147921638330445 ], [ 136862.973489916854305, 455941.566046751395334 ], [ 136864.292952706833603, 455940.664550443878397 ], [ 136865.727151394617977, 455939.320501404930837 ], [ 136866.776165295974351, 455937.517508788674604 ], [ 136906.299949643027503, 455837.926752687664703 ], [ 136906.431076395616401, 455834.91083775163861 ], [ 136905.993987285415642, 455832.769101050973404 ], [ 136905.119809051742777, 455831.020744561392348 ], [ 136902.672109982551774, 455828.83529893879313 ], [ 136900.09055236360291, 455827.764430576993618 ], [ 136771.42517427779967, 455778.744884921470657 ], [ 136768.977475200197659, 455778.176669052336365 ], [ 136767.365709063538816, 455778.335113851935603 ], [ 136765.917851346253883, 455778.744884895859286 ], [ 136764.082077030994697, 455779.662772038427647 ], [ 136762.377429448271869, 455781.280001779843587 ], [ 136761.197288806608412, 455783.815118674829137 ], [ 136723.012089866737369, 455888.607235333765857 ] ] ] ] } },
{ "type": "Feature", "properties": { "id": null, "Naam": "Hoge Woerd", "Info": "Vanaf 1999 heeft het grootschalige onderzoek in het kader van Leidsche Rijn de wereld buiten het fort op de kaart gezet. Langs de uitvalswegen ontwikkelde zich een kampdorp (vicus), waar handelaren, ambachtslieden, kroegbazen en soldatengezinnen een bestaan bij elkaar scharrelden. Aan de zuidkant was deze ‘winkelstraat’ op zijn hoogtepunt 250 meter lang.", "Type": "Vicus" }, "geometry": { "type": "MultiPolygon", "coordinates": [ [ [ [ 131172.640971440938301, 455161.034341604623478 ], [ 131172.496144324541092, 455166.24811679776758 ], [ 131173.654761007288471, 455171.461891998245846 ], [ 131176.696129838615889, 455177.834283919830341 ], [ 131182.054732094751671, 455183.482540415425319 ], [ 131199.409985659935046, 455199.160396660270635 ], [ 131220.790049618401099, 455223.238090963102877 ], [ 131234.057486665609758, 455248.216887807415333 ], [ 131244.268364011571975, 455284.144049551978242 ], [ 131249.56289293608279, 455315.91122412547702 ], [ 131251.565790204738732, 455339.828526146768127 ], [ 131252.234824096376542, 455358.427671067940537 ], [ 131253.305278399959207, 455373.681646051758435 ], [ 131256.516641452617478, 455392.548404582892545 ], [ 131337.335947602521628, 455366.188465810671914 ], [ 131341.617765138740651, 455366.322272627265193 ], [ 131346.56861665751785, 455367.927954230341129 ], [ 131350.716627379297279, 455371.13931740418775 ], [ 131353.794183716294356, 455374.484487368143164 ], [ 131354.597024493094068, 455376.625396143121179 ], [ 131373.731396304588998, 455434.563739776960574 ], [ 131390.591052597534144, 455483.40322112897411 ], [ 131391.527700161008397, 455487.685038669558708 ], [ 131391.393893343862146, 455491.29782221710775 ], [ 131390.858666132611688, 455494.910605757671874 ], [ 131389.520598140807124, 455497.051514516584575 ], [ 131388.048723353509558, 455498.791002882469911 ], [ 131382.562644620047649, 455501.467138817533851 ], [ 131300.539077310531866, 455523.545260046375915 ], [ 131308.567485061124898, 455548.299517721694428 ], [ 131320.095533132523997, 455565.307913564203773 ], [ 131326.553746526216855, 455576.771242478396744 ], [ 131331.235951223410666, 455587.588750031718519 ], [ 131336.88688790629385, 455604.541560377692804 ], [ 131340.145889016712317, 455619.886154810490552 ], [ 131345.899581247067545, 455635.942970597068779 ], [ 131346.970035612874199, 455639.421947355091106 ], [ 131351.586370079225162, 455651.799076193652581 ], [ 131359.146454136935063, 455657.641973076621071 ], [ 131369.248867381684249, 455658.890836577105802 ], [ 131388.048722489242209, 455661.834586237499025 ], [ 131415.345309305936098, 455658.35560963419266 ], [ 131432.740193073928822, 455653.806178591679782 ], [ 131439.698146585549694, 455651.130042670527473 ], [ 131447.726554498745827, 455645.24254360049963 ], [ 131451.473144870571559, 455640.157885299588088 ], [ 131454.1492809317715, 455621.157319998601452 ], [ 131456.022576184943318, 455605.903345035505481 ], [ 131459.501553017500555, 455590.114142894977704 ], [ 131462.712916208489332, 455582.888575818797108 ], [ 131468.689619903016137, 455573.611304520105477 ], [ 131478.23450487939408, 455564.155624182487372 ], [ 131494.023707103537163, 455553.451080426049884 ], [ 131506.601546195102856, 455538.999946312746033 ], [ 131510.34813660234795, 455527.224948109127581 ], [ 131512.221431851532543, 455512.773813937383238 ], [ 131510.615750378550729, 455493.238021420082077 ], [ 131507.939614527160302, 455472.631774515553843 ], [ 131499.643593155575218, 455452.560754773730878 ], [ 131489.00866038390086, 455416.548428144364152 ], [ 131481.024506979680154, 455387.805475307628512 ], [ 131462.664328777522314, 455353.9417352231103 ], [ 131448.793197472434258, 455333.668543092906475 ], [ 131432.611980695190141, 455314.439201481174678 ], [ 131416.249389358883491, 455295.789684069110081 ], [ 131408.780318657838507, 455284.586077894840855 ], [ 131403.072176089684945, 455269.809143617167138 ], [ 131398.110217723849928, 455255.776804912544321 ], [ 131393.562579977617133, 455236.459310573816765 ], [ 131387.793003678874811, 455216.528046603489202 ], [ 131385.907816125341924, 455208.051131970889401 ], [ 131380.917343286098912, 455191.716971056826878 ], [ 131376.294245651224628, 455177.007114680774976 ], [ 131370.830584805022227, 455160.616131852148101 ], [ 131364.106079134828178, 455142.964304195658769 ], [ 131345.613688348705182, 455130.776137400825974 ], [ 131325.440171077410923, 455126.993602807051502 ], [ 131311.040154417278245, 455126.138015897420701 ], [ 131293.498768705903785, 455125.732757802528795 ], [ 131278.460918870230671, 455128.681252164009493 ], [ 131248.948917980655096, 455133.297826550435275 ], [ 131220.363245268817991, 455142.015144137723837 ], [ 131194.220207725069486, 455151.330926775000989 ], [ 131182.054732243675971, 455155.386085193487816 ], [ 131176.840957033331506, 455157.848145670781378 ], [ 131172.640971440938301, 455161.034341604623478 ] ] ] ] } },
{ "type": "Feature", "properties": { "id": null, "Naam": "Zadelstraat e.o.", "Info": "Net als elders ontwikkelde zich rondom het Romeinse castellum Traiectum een uitgebreid kampdorp (vicus). Behalve de vrouwen en kinderen die de soldaten er tijdens hun 25-jarige dienst op na hielden, woonden en werkten hier allerlei ambachtslieden, handelaren en wat wij tegenwoordig horecaondernemers zouden noemen. Zo ontwikkelden de uitvalswegen van het fort zich tot heuse ‘winkelstraten’. Aan de westzijde van het fort kunnen we de vicus over een lengte van zeker 200 m reconstrueren rondom de Zadelstraat, zelf mogelijk ontstaan vanuit een Romeinse weg.", "Type": "Vicus" }, "geometry": { "type": "MultiPolygon", "coordinates": [ [ [ [ 136703.395580228476319, 455888.869682165211998 ], [ 136746.433283752703574, 455770.600719361507799 ], [ 136749.991519053000957, 455766.534164777840488 ], [ 136755.752471423184033, 455763.823128407471813 ], [ 136761.682863564230502, 455761.959290908533148 ], [ 136769.477093221357791, 455762.128730732132681 ], [ 136774.729726246092469, 455763.145369408128317 ], [ 136779.982359269226436, 455764.500887638365384 ], [ 136907.739949495211476, 455811.944025355274789 ], [ 136914.856420029944275, 455816.180019770748913 ], [ 136919.60073370396276, 455821.940972146869171 ], [ 136922.311770081374561, 455826.685285864281468 ], [ 136923.667288246448152, 455833.462876877340022 ], [ 136923.667288204043871, 455841.426546305883676 ], [ 136883.098161701665958, 455947.880244045751169 ], [ 136911.846869483793853, 455956.064483308524359 ], [ 136927.779571575811133, 455959.261358130257577 ], [ 136944.274332612025319, 455961.732698587758932 ], [ 136959.685456241248176, 455962.88020279398188 ], [ 136973.669959777733311, 455962.919069345400203 ], [ 136988.697320755658438, 455962.523612560878973 ], [ 137002.011035312199965, 455961.073604115284979 ], [ 137017.565672120283125, 455959.49177672341466 ], [ 137032.197576245293021, 455956.328121864644345 ], [ 137041.175911837315653, 455949.180605195462704 ], [ 137047.884032079746248, 455941.564398887974676 ], [ 137054.33613760775188, 455930.874756538250949 ], [ 137060.450772660085931, 455919.946090190205723 ], [ 137067.422530846029986, 455906.412677423330024 ], [ 137072.929633984342217, 455889.422678696515504 ], [ 137076.899361332383705, 455875.925269881845452 ], [ 137078.483479351736605, 455865.153267753194086 ], [ 137080.384421007474884, 455846.143852232198697 ], [ 137076.958750274818158, 455832.483707151783165 ], [ 137066.162266372499289, 455821.052135843492579 ], [ 137049.226605291885789, 455813.854479779955 ], [ 137020.504762282012962, 455802.739019767439459 ], [ 136992.280444916366832, 455788.027596272993833 ], [ 136974.074609264149331, 455778.501286800194066 ], [ 136957.562339748488739, 455764.317670528893359 ], [ 136951.211466900102096, 455750.980837368580978 ], [ 136946.289540477358969, 455734.04517622635467 ], [ 136945.892806751449825, 455714.345237127505243 ], [ 136944.308688897872344, 455694.068527215509675 ], [ 136939.873158670525299, 455681.712407088314649 ], [ 136924.665626324771438, 455665.237580212648027 ], [ 136911.675859097129432, 455654.148754410503898 ], [ 136890.492063166282605, 455646.537526259489823 ], [ 136869.20178786519682, 455644.57657973782625 ], [ 136849.87245891315979, 455654.101176477910485 ], [ 136834.745157945872052, 455670.629153283953201 ], [ 136826.34110184351448, 455681.554426091490313 ], [ 136814.295288128341781, 455691.359158077568281 ], [ 136795.526229602954118, 455696.401591599162202 ], [ 136776.196900689828908, 455698.642673108435702 ], [ 136737.306255946052261, 455694.342159845109563 ], [ 136709.853006215678761, 455691.82094288803637 ], [ 136665.871779609151417, 455687.338779428042471 ], [ 136628.657688190345652, 455684.296670011477545 ], [ 136600.149325316975592, 455682.320842724351678 ], [ 136573.899050565843936, 455685.425713788019493 ], [ 136559.785999601590447, 455691.353195104049519 ], [ 136545.390173318679444, 455709.167576969717629 ], [ 136531.417363876738818, 455730.522247751767281 ], [ 136520.153326273546554, 455750.292599496606272 ], [ 136515.862726873077918, 455768.749744872271549 ], [ 136515.110892468015663, 455783.908823631994892 ], [ 136516.390002518281108, 455802.231759673333727 ], [ 136526.935518909769598, 455817.786396525567397 ], [ 136549.836297948408173, 455831.213529750762973 ], [ 136588.854292419709964, 455850.067973050870933 ], [ 136703.395580228476319, 455888.869682165211998 ] ] ] ] } },
{ "type": "Feature", "properties": { "id": null, "Naam": null, "Info": null, "Type": "Vicus" }, "geometry": { "type": "MultiPolygon", "coordinates": [ [ [ [ 139407.266347146651242, 452184.519427602936048 ], [ 139495.764300052222097, 452070.608212482417002 ], [ 139503.23878930133651, 452064.105406902963296 ], [ 139510.115319401520537, 452059.844948090380058 ], [ 139518.486747324117459, 452059.39647878089454 ], [ 139534.930623553780606, 452067.319437432917766 ], [ 139676.945918153243838, 452156.714329169655684 ], [ 139681.169004508206854, 452166.356420275755227 ], [ 139679.823596394679043, 452176.671215381706133 ], [ 139674.837796652805991, 452186.332746772735845 ], [ 139595.931010247557424, 452300.247472295246553 ], [ 139652.610532234073617, 452339.145183892047498 ], [ 139722.27742511316319, 452397.93181971355807 ], [ 139794.985761786636431, 452458.013411195017397 ], [ 139848.956383534270572, 452514.927885631914251 ], [ 139901.945721213327488, 452577.730064281960949 ], [ 139956.307206957193557, 452646.226762725913431 ], [ 140000.549874152377015, 452711.920420811627991 ], [ 140037.083591742004501, 452769.569957486412022 ], [ 140057.52906669548247, 452807.109190656221472 ], [ 140071.271107247390319, 452830.571211391943507 ], [ 140081.996600414306158, 452852.022206916008145 ], [ 140095.738642872369383, 452870.791818362951744 ], [ 140111.491713852970861, 452878.165596378908958 ], [ 140122.734627994592302, 452879.474906837276649 ], [ 140135.55690271651838, 452877.694556888309307 ], [ 140146.961662893096218, 452875.065972524869721 ], [ 140188.342513125622645, 452859.085563138360158 ], [ 140263.029901299800258, 452839.740857173164841 ], [ 140315.512930809258251, 452829.647967179538682 ], [ 140351.174476507585496, 452821.573655144893564 ], [ 140369.341679047327489, 452814.845061726577114 ], [ 140380.107428758085007, 452800.042156044510193 ], [ 140379.602784510498168, 452750.082349170232192 ], [ 140370.014538986870321, 452704.664342871983536 ], [ 140340.745157419936731, 452658.74169195687864 ], [ 140298.859663000534056, 452613.323685483192094 ], [ 140229.269101250654785, 452553.777201093616895 ], [ 140147.030763785645831, 452487.040914081910159 ], [ 140053.466217428125674, 452416.124927784549072 ], [ 139968.441292383853579, 452348.179244603030384 ], [ 139907.550079820648534, 452274.664243291597813 ], [ 139871.216584926994983, 452203.228233156027272 ], [ 139857.711761299142381, 452172.897727208561264 ], [ 139850.405873162380885, 452146.109470149269328 ], [ 139842.43581340732635, 452111.12976259784773 ], [ 139819.522730160882929, 452066.326147104729898 ], [ 139770.985238318651682, 452014.432338797603734 ], [ 139726.062240459374152, 451983.450960622227285 ], [ 139667.713978795014555, 451957.633145358820911 ], [ 139622.152213154302444, 451942.042725919978693 ], [ 139588.711465166765265, 451931.55715184204746 ], [ 139554.631949468282983, 451923.295450876641553 ], [ 139507.723483593406854, 451920.669958943151869 ], [ 139455.323442793014692, 451926.019655913696624 ], [ 139425.889487121428829, 451938.389780732744839 ], [ 139399.725059569784207, 451953.244115390698425 ], [ 139370.763238998653833, 451975.251307653961703 ], [ 139357.811891535995528, 451986.210140002949629 ], [ 139346.520973218866857, 451998.829401515307836 ], [ 139336.724441136204405, 452012.27887760422891 ], [ 139330.08272445233888, 452024.732096222636756 ], [ 139318.79180608925526, 452045.985589334100951 ], [ 139300.361042280797847, 452082.515030621958431 ], [ 139285.74926556283026, 452112.402755317860283 ], [ 139334.802159356418997, 452142.68540946370922 ], [ 139407.266347146651242, 452184.519427602936048 ] ] ] ] } },
{ "type": "Feature", "properties": { "id": null, "Naam": "Hoge Woerd", "Info": "Rondom de Hoge Woerd lag een krans van crematiegrafvelden voor de ca. 6.000 mensen die hier tussen ca. 40 en 270 moeten hebben geleefd. In 1999 en 2004 zijn er daarvan ongeveer 80 opgegraven. Vaak werd voedsel in potten meegegeven op de brandstapel. Op die manier weten we dat varkensvlees, kip, linzen en andere peulvruchten toen golden als een ‘zondagse maaltijd’. ", "Type": "Grafveld" }, "geometry": { "type": "MultiPolygon", "coordinates": [ [ [ [ 131232.752733486384386, 455029.456419874215499 ], [ 131238.075841127400054, 455031.230789117747918 ], [ 131243.69467697822256, 455031.723669486294966 ], [ 131253.157979476294713, 455030.146452453162055 ], [ 131258.67823927878635, 455026.992018318211194 ], [ 131259.466847829520702, 455025.119073042122182 ], [ 131259.565423917432781, 455021.274606404243968 ], [ 131257.002446176571539, 455018.120172232098412 ], [ 131253.157979548355797, 455016.542955130978953 ], [ 131247.144839425571263, 455016.345802963129245 ], [ 131241.328851434664102, 455016.838683269626927 ], [ 131233.048461744532688, 455019.007356711255852 ], [ 131230.682636106008431, 455022.063214795198292 ], [ 131230.584060016903095, 455026.104833564721048 ], [ 131232.752733486384386, 455029.456419874215499 ] ] ] ] } },
{ "type": "Feature", "properties": { "id": null, "Naam": "Hoge Woerd", "Info": "Rondom de Hoge Woerd lag een krans van crematiegrafvelden voor de ca. 6.000 mensen die hier tussen ca. 40 en 270 moeten hebben geleefd. In 1999 en 2004 zijn er daarvan ongeveer 80 opgegraven. Vaak werd voedsel in potten meegegeven op de brandstapel. Op die manier weten we dat varkensvlees, kip, linzen en andere peulvruchten toen golden als een ‘zondagse maaltijd’. ", "Type": "Grafveld" }, "geometry": { "type": "MultiPolygon", "coordinates": [ [ [ [ 131275.731898460740922, 455123.892292837845162 ], [ 131280.956430040008854, 455124.582325333496556 ], [ 131283.754658505524276, 455123.651493660814594 ], [ 131284.406592426297721, 455120.73785872454755 ], [ 131283.120998007449089, 455118.536947996646632 ], [ 131279.37921299689333, 455117.287696325278375 ], [ 131275.426548783812905, 455116.952796639350709 ], [ 131273.616090139606968, 455117.224365430010948 ], [ 131272.484553384478204, 455117.767503000563011 ], [ 131271.941415877896361, 455120.437929507927038 ], [ 131272.891906653821934, 455122.610479882918298 ], [ 131275.731898460740922, 455123.892292837845162 ] ] ] ] } },
{ "type": "Feature", "properties": { "id": null, "Naam": "Duitse Huis", "Info": "Rondom Romeinse forten, of eigenlijk rondom hun kampdorpen, ontwikkelden zich steevast grafvelden. In 2007 vonden Utrechtse archeologen op het terrein van het Duitse Huis aan de Springweg twee graven en zes kuilen met crematieresten uit de Romeinse tijd. De oudste crematies dateren al uit de jaren 50 of 60 van de eerste eeuw, kort na de bouw van het Romeinse fort Traiectum. Zij liggen echter zo’n 300 meter daarvandaan. Betekent dit dat men toen al een plan had voor de toekomstige ‘ruimtelijk ordening’ rond het fort? Hierin moesten de grafvelden immers gescheiden zijn van de bewoning, waaronder het nog te ontwikkelen kampdorp. ", "Type": "Grafveld" }, "geometry": { "type": "MultiPolygon", "coordinates": [ [ [ [ 136608.509308427310316, 455458.492652852262836 ], [ 136598.004042370361276, 455457.814893698785454 ], [ 136594.615246854198631, 455460.187050527252723 ], [ 136588.176535363454605, 455466.625761950737797 ], [ 136586.482137554005021, 455477.469907547871117 ], [ 136589.532053474627901, 455483.569739471771754 ], [ 136594.954126243828796, 455490.347330500779208 ], [ 136603.764994527562521, 455495.091644255677238 ], [ 136611.559224168973742, 455498.141560247750022 ], [ 136616.642417427879991, 455497.46380117116496 ], [ 136624.436647105641896, 455493.736126162984874 ], [ 136628.503201734973118, 455488.991812481079251 ], [ 136630.536479087691987, 455479.503185088920873 ], [ 136622.74224949843483, 455466.625762135023251 ], [ 136608.509308427310316, 455458.492652852262836 ] ] ] ] } },
{ "type": "Feature", "properties": { "id": null, "Naam": null, "Info": null, "Type": "Grafveld" }, "geometry": { "type": "MultiPolygon", "coordinates": [ [ [ [ 140339.409876012185123, 452403.712350235378835 ], [ 140306.442905148112914, 452399.835841343854554 ], [ 140268.974402037070831, 452400.460316194221377 ], [ 140258.852594407479046, 452403.087874755030498 ], [ 140249.485468608996598, 452408.708150166668929 ], [ 140243.032559693441726, 452418.630364828684833 ], [ 140239.493867685174337, 452428.275035044469405 ], [ 140240.326501011324581, 452442.42980287107639 ], [ 140244.073351259896299, 452453.462195460975636 ], [ 140255.938377184298588, 452462.621162934694439 ], [ 140273.345727047155378, 452466.654671674477868 ], [ 140296.945572184893535, 452468.241438614903018 ], [ 140326.426106439903378, 452468.528097102942411 ], [ 140370.217311517742928, 452470.323022510157898 ], [ 140384.857782172417501, 452468.588369668694213 ], [ 140395.612630294228438, 452465.327222238993272 ], [ 140400.677816847950453, 452460.262035740772262 ], [ 140403.106330982147483, 452451.588771154230926 ], [ 140404.563439488061704, 452441.666556461714208 ], [ 140402.273697689292021, 452431.189252815383952 ], [ 140399.637025274307234, 452426.748541325039696 ], [ 140395.61263052013237, 452422.932304883026518 ], [ 140387.702613228932023, 452418.387514194066171 ], [ 140379.723209818563191, 452414.259040196193382 ], [ 140369.800997656333493, 452411.206049310043454 ], [ 140339.409876012185123, 452403.712350235378835 ] ] ] ] } },
{ "type": "Feature", "properties": { "id": null, "Naam": null, "Info": null, "Type": "Grafveld" }, "geometry": { "type": "MultiPolygon", "coordinates": [ [ [ [ 139755.733972166606691, 451775.282727592857555 ], [ 139735.750770522456151, 451772.784827282361221 ], [ 139718.2653617131582, 451780.069929282763042 ], [ 139703.278067736071534, 451790.270128544536419 ], [ 139680.796965731831733, 451816.498080589633901 ], [ 139667.474723925581202, 451834.19110010372242 ], [ 139654.569013343862025, 451856.464483742136508 ], [ 139653.73627260143985, 451871.243286392127629 ], [ 139655.817963294772198, 451885.190336116647813 ], [ 139664.144189988874132, 451896.222288487071637 ], [ 139675.801164859178243, 451902.675637662294321 ], [ 139690.372142085019732, 451906.630206142377574 ], [ 139707.024917429080233, 451906.422488135867752 ], [ 139724.093794906511903, 451896.222288804827258 ], [ 139738.248670145170763, 451882.692436349170748 ], [ 139755.10938931023702, 451860.002736010355875 ], [ 139769.472422987397294, 451835.232332603947725 ], [ 139774.884432815015316, 451819.411857800441794 ], [ 139778.423124863998964, 451802.134714739222545 ], [ 139769.888632581394631, 451786.314680067123845 ], [ 139755.733972166606691, 451775.282727592857555 ] ] ] ] } },
{ "type": "Feature", "properties": { "id": null, "Naam": "Hoge Woerd", "Info": "Rondom de Hoge Woerd lag een krans van crematiegrafvelden voor de ca. 6.000 mensen die hier tussen ca. 40 en 270 moeten hebben geleefd. In 1999 en 2004 zijn er daarvan ongeveer 80 opgegraven. Vaak werd voedsel in potten meegegeven op de brandstapel. Op die manier weten we dat varkensvlees, kip, linzen en andere peulvruchten toen golden als een ‘zondagse maaltijd’. ", "Type": "Grafveld" }, "geometry": { "type": "MultiPolygon", "coordinates": [ [ [ [ 131488.170537553029135, 455703.513682348304428 ], [ 131488.654903462156653, 455722.403956695226952 ], [ 131489.946546066727024, 455738.710945671016816 ], [ 131492.206920694326982, 455754.049202628259081 ], [ 131494.144384703278774, 455759.215773403819185 ], [ 131497.212036069249734, 455763.8979781709495 ], [ 131499.956776778853964, 455765.512531549844425 ], [ 131504.800436856108718, 455768.095816959918011 ], [ 131511.581560978171183, 455769.064549011993222 ], [ 131517.716863763402216, 455768.418727698328439 ], [ 131521.914702515554382, 455767.127085032174364 ], [ 131527.888549986528233, 455762.283424970810302 ], [ 131530.63329073987552, 455755.663756196969189 ], [ 131531.763478131120792, 455748.72117674164474 ], [ 131533.539486925437814, 455730.961089756572619 ], [ 131534.023853069898905, 455705.451146622712258 ], [ 131533.216576505277772, 455683.33176554198144 ], [ 131531.279112533840816, 455671.061159973382019 ], [ 131525.951086480228696, 455662.342571785673499 ], [ 131519.977239062136505, 455657.176000990904868 ], [ 131516.263766340387519, 455654.431260257202666 ], [ 131511.097195587848546, 455652.332340848981403 ], [ 131507.868088863324374, 455651.847974825825077 ], [ 131500.441143390577054, 455651.847974787291605 ], [ 131495.758938620565459, 455654.754170818894636 ], [ 131492.691287192836171, 455661.696750264323782 ], [ 131489.623635734431446, 455674.451721817487851 ], [ 131488.170537553029135, 455703.513682348304428 ] ] ] ] } },
{ "type": "Feature", "properties": { "id": null, "Naam": "Hoge Woerd", "Info": "Rondom de Hoge Woerd lag een krans van crematiegrafvelden voor de ca. 6.000 mensen die hier tussen ca. 40 en 270 moeten hebben geleefd. In 1999 en 2004 zijn er daarvan ongeveer 80 opgegraven. Vaak werd voedsel in potten meegegeven op de brandstapel. Op die manier weten we dat varkensvlees, kip, linzen en andere peulvruchten toen golden als een ‘zondagse maaltijd’. ", "Type": "Grafveld" }, "geometry": { "type": "MultiPolygon", "coordinates": [ [ [ [ 131441.921446494641714, 455203.889941215224098 ], [ 131437.256639503088081, 455207.983547305921093 ], [ 131434.686235636560014, 455212.933954688371159 ], [ 131433.448633757652715, 455218.550763073144481 ], [ 131432.877432871813653, 455224.643572170985863 ], [ 131432.972632987017278, 455229.784379849093966 ], [ 131436.971038898947882, 455241.49399735982297 ], [ 131442.683047380181961, 455251.490012324939016 ], [ 131449.156657014944358, 455258.534822882211301 ], [ 131452.964662684011273, 455262.438028735283297 ], [ 131461.723075738525949, 455268.340437595848925 ], [ 131470.957489517575596, 455271.767642766295467 ], [ 131480.287103448237758, 455273.386045228398871 ], [ 131497.518329198996071, 455272.33884375699563 ], [ 131504.277539323084056, 455267.57883667841088 ], [ 131507.609544342965819, 455259.772425041999668 ], [ 131510.655948968749726, 455245.778004150779452 ], [ 131510.846349337283755, 455229.879580402572174 ], [ 131509.608747527032392, 455222.549169449950568 ], [ 131506.181542445207015, 455215.218758477829397 ], [ 131496.090327403246192, 455208.554748467577156 ], [ 131484.190309651254211, 455203.318740583606996 ], [ 131477.240699276910163, 455201.605137989972718 ], [ 131463.53187880126643, 455200.367536069417838 ], [ 131458.676671547698788, 455200.272335903020576 ], [ 131448.014255608431995, 455201.890738264657557 ], [ 131441.921446494641714, 455203.889941215224098 ] ] ] ] } },
{ "type": "Feature", "properties": { "id": null, "Naam": "Hoge Woerd", "Info": "Rondom de Hoge Woerd lag een krans van crematiegrafvelden voor de ca. 6.000 mensen die hier tussen ca. 40 en 270 moeten hebben geleefd. In 1999 en 2004 zijn er daarvan ongeveer 80 opgegraven. Vaak werd voedsel in potten meegegeven op de brandstapel. Op die manier weten we dat varkensvlees, kip, linzen en andere peulvruchten toen golden als een ‘zondagse maaltijd’. ", "Type": "Grafveld" }, "geometry": { "type": "MultiPolygon", "coordinates": [ [ [ [ 131435.696933053259272, 454947.582292689941823 ], [ 131434.156373965903185, 454948.233190117345657 ], [ 131431.425251743930858, 454950.620901053014677 ], [ 131424.300612150604138, 454957.745540565287229 ], [ 131418.774383703625062, 454965.74307715788018 ], [ 131414.175223931262735, 454974.233833547332324 ], [ 131410.249239545693854, 454985.650378740683664 ], [ 131409.655519548279699, 454992.181298333394807 ], [ 131409.814608646149281, 454996.16961428662762 ], [ 131411.391362003982067, 454997.96137947961688 ], [ 131413.811559255496832, 454998.514311290055048 ], [ 131416.551645751576871, 454998.033050121855922 ], [ 131419.272966135496972, 454996.712135479669087 ], [ 131425.605979029031005, 454990.379122726386413 ], [ 131432.216878201928921, 454980.702712504018564 ], [ 131435.779198002797784, 454976.348766127775889 ], [ 131429.03404760590638, 454985.554842185345478 ], [ 131438.41118120556348, 454972.804996364866383 ], [ 131443.299650926899631, 454965.068086873623542 ], [ 131444.431512313807616, 454959.760945814836305 ], [ 131443.893370942154434, 454955.172754168976098 ], [ 131441.716397772019263, 454950.027181138924789 ], [ 131438.945704623969505, 454947.652301282447297 ], [ 131435.696933053259272, 454947.582292689941823 ] ] ] ] } },
{ "type": "Feature", "properties": { "id": null, "Naam": "Hoge Woerd", "Info": "Het eerste moderne archeologische onderzoek op de Hoge Woerd vond plaats in 1940. Daarbij werd de hoek van een stenen badgebouw blootgelegd. Het lag net ten noorden van het castellum, weten wij nu. In 2006 zijn de fundamenten van het badhuis in beeld gebracht door middel van grondradaronderzoek.", "Type": "Badhuis" }, "geometry": { "type": "MultiPolygon", "coordinates": [ [ [ [ 131306.422243392880773, 455534.997652282938361 ], [ 131309.35489820537623, 455543.049122891621664 ], [ 131313.001346440927591, 455541.697761492279824 ], [ 131314.367071947897784, 455544.968678831646685 ], [ 131324.018172490701545, 455541.449493053427432 ], [ 131324.871308436791878, 455543.688974948541727 ], [ 131339.765640395082301, 455538.730122270993888 ], [ 131333.580404789128806, 455521.916234406467993 ], [ 131308.875009293493349, 455530.909709161729552 ], [ 131309.888108229206409, 455533.611306366452482 ], [ 131306.422243392880773, 455534.997652282938361 ] ] ] ] } },
{ "type": "Feature", "properties": { "id": null, "Naam": null, "Info": null, "Type": "Badhuis" }, "geometry": { "type": "MultiPolygon", "coordinates": [ [ [ [ 136902.399941273091827, 455909.461041507485788 ], [ 136888.819328787387349, 455945.435216545476578 ], [ 136912.65763755995431, 455953.092370407830458 ], [ 136925.660351646773051, 455917.696093759557698 ], [ 136902.399941273091827, 455909.461041507485788 ] ] ] ] } },
{ "type": "Feature", "properties": { "id": null, "Naam": null, "Info": null, "Type": "Badhuis" }, "geometry": { "type": "MultiPolygon", "coordinates": [ [ [ [ 139602.634174636157695, 452299.085441163158976 ], [ 139629.184067349036923, 452316.965981354296673 ], [ 139649.493944730988005, 452286.29396777972579 ], [ 139622.927078348060604, 452269.822510429250542 ], [ 139602.634174636157695, 452299.085441163158976 ] ] ] ] } }
]
}
